ID,GOOGLE_PLACE_ID,NAME,POSTAL_CODE,ADDRESS,CLOSED,LAT,LNG
05EB0CCC-DEC0-DB9A-EC0F-80015957C9A7,ChIJ4QLCOnsBGWARW-tYh1yBTQ0,濃厚魚介つけ麺天晴厚木本店,243-0203,神奈川県厚木市下荻野１０９２−５ コーポ林 105,FALSE,35.4814711,139.341613
849DF24E-5D6D-50CB-2444-C99C74E3AC90,ChIJ2VJea_CLGGARqEdkMTMhUj8,渋谷文化進化 居酒屋&らーめん,150-0043,東京都渋谷区道玄坂１丁目１９−１４ COERU渋谷道玄坂 1F,FALSE,35.657303,139.69621
6D5AE76F-E70E-6640-1281-E5AE0F8F8E50,ChIJa-c233uNGGARj7_ghDZCUHg,らぁ麺 ドゥエイタリアン神田秋葉原店,101-0063,東京都千代田区神田淡路町２丁目１０５ ワテラス 1F,FALSE,35.697466,139.7675382
377EAFC2-6A82-57E0-27ED-BEBD1E37772B,ChIJW9bM3LPMGGARbzAsy5sXBRg,中華 かし亀,347-0055,埼玉県加須市中央１丁目１０−８,FALSE,36.1257349,139.595825
D80DB214-5ECF-F1C8-B4A8-AE0B5E672C04,ChIJM3HM6ZWNGGAR9GWCfieVeqI,ミスターラーメン,101-0021,東京都千代田区外神田５丁目２−１３,FALSE,35.7038603,139.7723809
E6F99116-93FE-879D-2436-17C7109206FF,ChIJazKpeADxGGARAcnmfAMVgpg,いしかわや深大寺市場店,182-0017,東京都調布市深大寺元町１丁目１−１,FALSE,35.6624747,139.5479911
BAB5317C-29AD-0D15-CD9A-8DFC7E180A29,ChIJCyn1eI5bGGARTD_elkSUXzs,川の先の上,233-0007,神奈川県横浜市港南区大久保１丁目１５−３６ 第１ミツワセンター 2F,FALSE,35.4090619,139.5934728
EFA8D536-7BE0-FADA-14E4-8E992381DDC5,ChIJFQgynNWTQTURiguNFf2_tzA,らぁめんシフク,814-0103,福岡県福岡市城南区鳥飼５丁目５−６ グランドグリシーヌ別府 １０３,FALSE,33.5769183,130.3707601
83B09730-93C4-CD02-A817-A23CE89D9934,ChIJHceZBlaLGGAR1ezdqkbboHI,道玄坂マンモス,150-0043,東京都渋谷区道玄坂２丁目１０−１,FALSE,35.6577081,139.6965121
C7B1B8CF-BE5E-374B-0B25-5A4F31FE0F2E,ChIJdbq-o5aLGGARrYSZefn9vuw,えーちゃん食堂,153-0064,東京都目黒区下目黒３丁目４−６ サンライズ目黒,FALSE,35.6305369,139.7095466
5E7B4CDE-8AAA-71B1-C65D-702920C68801,ChIJrch6TgCLGGARWWf4MYBrtSw,NakameguroRamenすぎ田,153-0061,東京都目黒区中目黒３丁目５−３３ １０１,FALSE,35.6408815,139.7020142
51CD42F4-7BB8-37A3-E41B-876D0AF97750,ChIJK6hraAAfGWAR-x65JWK7upI,鹿児島とんこつラーメン 南州,193-0835,東京都八王子市千人町３丁目１７−６,FALSE,35.6566454,139.3095391
B4FCE7CB-C472-92DE-0A9E-B7990BA29FE6,ChIJBa5EAiaJGGARBmfZc5JKXXM,麺屋 海姫,103-0013,東京都中央区日本橋人形町３丁目３−２ 竹内ビル 1階,FALSE,35.6856959,139.780186
793BFFBD-D296-17B7-6AD2-28C5EB419644,ChIJlW6wOADnRDURN2A4LX_peSo,煮干しラーメン まるにぼ総本店,745-0822,山口県周南市孝田町５−５,FALSE,34.0475108,131.8368039
298A7A4F-35B4-3132-1381-7945CF58145D,ChIJfZg0XFeLGGARgMeGSVubYLI,中華ソバ 櫻坂,150-0031,東京都渋谷区桜丘町１７−１０,FALSE,35.6562405,139.7010932
F7352A4A-2681-F1CD-9CC3-8A94EAD4883F,ChIJsQvYGgCHGGARj0Yj04YK6T4,Ramen126,272-0132,千葉県市川市湊新田１丁目２−６,FALSE,35.6826093,139.9102989
7D2D3DFB-9F40-3B83-B062-75E9CA35AE1B,ChIJYfFvYpIdGWARS_h2d2J9dY0,ラーメン タンポポ,192-0906,東京都八王子市北野町５４７−２０ 富士見ビル 1F,FALSE,35.6457837,139.3544003
2E34192F-5381-9AA9-5931-8C3437D3AFFE,ChIJC-TFCgDP9F8RjNvmaxynmZo,Noodle いたば,956-0011,新潟県新潟市秋葉区車場４丁目１２−５８,FALSE,37.8335044,139.1064437
2A66C8A7-6864-A753-8D50-C49D393A1A95,ChIJJ11N-JXzGGARk2C95fmn258,はるばるてい | harubarutei,156-0052,東京都世田谷区経堂２丁目１５−１５,FALSE,35.651341,139.6345058
F736A78A-2A6B-01A2-28E4-DC19D6B5FF18,ChIJdZGs64iNGGARpYGyglwilgs,味噌麺処 田坂屋,171-0021,東京都豊島区西池袋３丁目３０−２ 1F,FALSE,35.7305929,139.7068061
08BD871C-83C6-DDDB-BF55-E0B8E0515A49,ChIJzyGfWjCPGGARZ30sVO7OppQ,らぁめん ご恩,165-0034,東京都中野区大和町１丁目１３−７,FALSE,35.7135006,139.6536002
AFDCCC83-6253-EF1E-6AD7-B1EB5DEB3CD6,ChIJESrq-hHtGGARY5kp6wg1-Nk,長男、ほそのたかし,176-0005,東京都練馬区旭丘１丁目６８−１２ 第四正道江古田ビル,FALSE,35.7363647,139.6740896
E290D6D9-FD47-2E2C-23FE-C60BCA0B1D75,ChIJmXNH-CLlGGARbZmFSzh1UWU,麺創研 紅 府中,183-0023,東京都府中市宮町１丁目１００ ル・シーニュ １階,FALSE,35.6719041,139.4798708
C8D6164C-3549-B0D2-2898-36B5B989BDF8,ChIJnxnsPQDZGGAREUj3EeqGsSM,だし醤油らぁめん 双葉,350-1331,埼玉県狭山市新狭山２丁目１１−３８,FALSE,35.8763653,139.4304329
288E157F-ABCE-779C-6412-BD06E14BDB2E,ChIJvTHunJmRGGARSJJ4kyFRZFU,らあめん 雅知,120-0034,東京都足立区千住３丁目５５,FALSE,35.7525329,139.8029735
27CF6B38-3545-11C7-BB71-9731405BF7FD,ChIJ_7iYuBe_GWARXUSNF-b77sw,中華そば うお静,413-0102,静岡県熱海市下多賀４３２−１３,FALSE,35.044367,139.0815742
75F4E71D-624F-F36E-539E-DF9D39051F76,ChIJixB2MZjzGGARASCWlm5ei1o,麺や晴心,164-0003,東京都中野区東中野４丁目３０−１６ ライオンズマンション中野東 102B,FALSE,35.7105016,139.6857233
77014EA9-F947-9D42-E142-04D042A0B2D9,ChIJPa_fkaWFGGARnN7TKGi6i50,ら〜麺 瑞藤,271-0064,千葉県松戸市上本郷３３８６,FALSE,35.797877,139.9160762
F1DD263C-DD92-DDA4-26D0-4CD4CCCAAF34,ChIJ9-gIPDaMGGARkSYIWPRFyv4,信濃神麺 烈士洵名 東京店,113-0024,東京都文京区西片１丁目１５−６,FALSE,35.7113593,139.7535011
E75E7783-A710-2EC0-8376-12A39A114E50,ChIJKX6abyJhGGARYyG4dZYpKKA,ジンギスカン ひつじの木,143-0016,東京都大田区大森北１丁目３−９,FALSE,35.5874164,139.7287117
D2AE9C6C-600E-2D3A-8BDB-5A5193CEE93B,ChIJVVVg3G_yGGARx-rPd5Vppa8,麺処一笑,166-0004,東京都杉並区阿佐谷南１丁目９−５,FALSE,35.6985658,139.6385399
E88959B0-C8EB-5E49-4925-E8079B9EA2AF,ChIJ3VRE2pnlGGARVRbJuC3QAhY,Ramen Rouge,183-0011,東京都府中市白糸台5-25-1 車返団地第2-12 号棟-101号,FALSE,35.6617693936067,139.512571040493
72CA099A-7B20-7334-5AA8-ADA39CFAE0B9,ChIJJYtTMgCLGGARp8iNoF_8sKM,ラーメン四季,106-0032,東京都港区六本木５丁目１６−５ インペリアル六本木1号館 1F,FALSE,35.6616981,139.7353632
DDD26D7C-4B19-EBF1-CABF-680B1185A079,ChIJ8ZUUFvvtGGARmUyGSLWrlWQ,丸信,167-0043,東京都杉並区上荻１丁目２４−２２ シンエービル,FALSE,35.7071664,139.6163012
B462F99A-704A-9850-E016-0E4310C3E0AE,ChIJ4VkWALkpH2ARpLgZpC9JQnA,きくちひろき,360-0042,埼玉県熊谷市本町２丁目１２５,FALSE,36.1432634,139.3882376
E38EE690-3212-DD81-ADDC-73AF06EEE881,ChIJfy7HJwBfGGARLll72dG_yw0,中華そば領寿庵,211-0015,神奈川県川崎市中原区北谷町２０番地１０ ｢岩村ビル/2F｣,FALSE,35.5612201,139.6725147
806BE543-6805-3BE8-413C-42F9602C8BC6,ChIJK2OuegCBGGARFTRmHneSLhE,麺屋 青,273-0137,千葉県鎌ケ谷市道野辺本町１丁目１−１８,FALSE,35.7660208,139.9980221
74D0249C-1056-5CD3-2623-7F7A2A2BC73C,ChIJo026aDWNGGARvHBbj-09y6g,支那そば とも,102-0072,東京都千代田区飯田橋１丁目６−８ 三友ビル,FALSE,35.6988484,139.7489473
529C8097-69E5-7422-DB9C-EA6C901ED0B8,ChIJz_PAkj1hGGAR_4c4aM82mUw,中華そば さとう,144-0043,東京都大田区羽田４丁目２０−１１,FALSE,35.5486045,139.7459496
06367FBD-1BF6-D2DA-E05B-6DA83D9F1306,ChIJIWZPRgDtGGARUi4_Xs2ctiA,Menpeki Ginger Noodles,167-0022,東京都杉並区下井草３丁目３９−１５ 奥隅ビル,FALSE,35.7238395,139.6226089
684EECC6-B4E5-34A2-E11C-0B87D732AD5D,ChIJH8kms-2GHWARL-97ZE4CLCE,麺屋 どんく,380-0824,長野県長野市南長野南石堂町１４６６,FALSE,36.6453718,138.1858535
B255EE92-24AD-72C7-4251-CEF67D82390C,ChIJeelz43L1GGAR0IEW8HArIPQ,麺ひしおのキセキ,152-0035,東京都目黒区自由が丘２丁目１２−２１ 最上ビル 1F,FALSE,35.6071919,139.6679214
04159E62-92C2-1AC0-DCD9-7477850EECD8,ChIJLyE2acjhGGARKbgbuVKvJ4g,自家製麺まさき,196-0031,東京都昭島市福島町１０１１−１３,FALSE,35.7075624,139.3850206
3DFF1DA8-AA7C-0B47-8619-987F8061A417,ChIJRb3KbQDhGGARzHLCezZELeo,東中神大勝軒,196-0031,東京都昭島市福島町９０４−５ 穂高荘,FALSE,35.7068769,139.3834896
F9DFA73F-6EBD-ACC6-6A0F-748755D3DF77,ChIJ_12pId-FGGARipqdL0MQf1M,中華そば 鍵山,271-0077,千葉県松戸市根本１３−１ 109,FALSE,35.7879231,139.9003234
9FF5DCD0-B86B-E9AE-F648-971DB679324C,ChIJAxxqc76RQTURvuKUNCh8nlg,えびすやうどん 博多住吉店,812-0018,福岡県福岡市博多区住吉２丁目４−７ レジデンス博多 101,FALSE,33.5882256,130.4125137
5384528D-B88B-048D-A0C1-47623D62143E,ChIJ1WSWKdBrTzURtgfoBxgdKIs,中華そば Kobi,787-1321,高知県四万十市西土佐岩間３０５−６,FALSE,33.1298103,132.8146972
A58F6356-756D-03E8-9D34-2AC79AC9CE37,ChIJnXjnzIyHGGAR0VopYipCUuE,ちばき屋,134-0084,東京都江戸川区東葛西６丁目１５−２,FALSE,35.6623367,139.875221
526EABE6-E6B3-9CFD-6DA6-808FBD33D824,ChIJRUK-Jq6P918R61DiLgMqqYc,らぁ麺あり澤,939-8233,富山県富山市任海６９５−３,FALSE,36.6321976,137.1968301
7CD1361C-D69D-7B20-13BC-3A35781256E6,ChIJP4WaQQCtGWARf7Z9YV3fEnU,手打ち カドワキ,254-0036,神奈川県平塚市宮松町１０−１８,FALSE,35.3351437,139.35197
4EF1A39E-8049-650D-8C9E-2D6D5606FA4B,ChIJA_d0TRsAGWARLDQ5zwRx34E,厚木家,243-0813,神奈川県厚木市妻田東２丁目２５−１１,FALSE,35.4579385,139.3594818
C01FA9DE-F285-7AC0-5952-952263B4413F,ChIJc54A1NV3A2ARaVYM_JbRa3k,鶏そば 那ご乃樹,451-0042,愛知県名古屋市西区那古野１丁目１７−１６,FALSE,35.1746001,136.8904439
1EA87AA2-E684-42F4-2FE9-3139775E7E45,ChIJL9MHQwxcGGARctbSzWCKzsk,家系総本山 吉村家,220-0073,神奈川県横浜市西区岡野１丁目６−４,FALSE,35.4630187,139.6150749
4F3A980D-8913-AACC-7142-3B5F29F6F92D,ChIJCe8EHIxQGmARbvzYh8WaFJ4,ラーメン Le Dessin,427-0053,静岡県島田市御仮屋町８８０２−１,FALSE,34.8354754,138.1942917
82B7AA00-E735-1A20-D73B-30E54739631A,ChIJE0uBqiqNGGARQl8qRHTfiuM,中華そば多繋,171-0021,東京都豊島区西池袋３丁目３３−１７,FALSE,35.730861,139.7051183
45F74375-F5DA-D90B-1DB5-F1D1E071B5A4,ChIJy55pD--DUTUR-1nr8ieXre4,讃岐らぁ麺 伊吹いりこセンター,768-0076,香川県観音寺市港町１丁目５−１１,FALSE,34.1264625,133.6378728
A9150F2A-8136-F796-5963-E5E5876D624C,ChIJf35M7PeLGGARpq91NooaHIc,らーめんKumo / 酒亭Kumo 虎ノ門,105-0003,東京都港区西新橋２丁目３７−５,FALSE,35.6650308,139.7521811
F5D89F35-E3FB-DDE9-DEDC-A64DB9094C4D,ChIJiVh5aFtgGGARMKcXwoivt0c,らーめん飛粋(ひいき),144-0052,東京都大田区蒲田５丁目２−５,FALSE,35.564036,139.7173084
114BBA95-471B-FA28-3595-D1DC26DD4A9D,ChIJrWh7NUSNGGARnnRYoBksvqQ,くれしづき新宿早稲田店,162-0042,東京都新宿区早稲田町7番地1 コーポプレジデント 101号室,FALSE,35.7054308,139.7233709
297D360D-7131-3C5A-66AE-DAF38A06C2EA,ChIJ1-XZIADDImARWQzAWx1LXjM,Nakamichi（なかみち）,283-0104,千葉県山武郡九十九里町片貝６６５０,FALSE,35.5253193,140.4456166
56799E51-E3E2-B6F3-00D4-77F33E1AC8C9,ChIJ3SBu4r87H2ARz37fiX5SuyI,UNITED NOODLE アメノオト,327-0843,栃木県佐野市堀米町４５５−１ 1F,FALSE,36.3270682,139.5883875
597A9864-37F2-1288-5E9C-33FFDD26CC07,ChIJYct6KADvGGARMrrn_5x3NhI,麺屋大弐,202-0012,東京都西東京市東町４丁目１４−１７ まつりビル,FALSE,35.7463355,139.5663493
9D606718-F98F-3F01-7779-0FE24B308E3A,ChIJBTHIfAAfGWARN-AoEm2FCe0,麺屋風神雷神,193-0835,東京都八王子市千人町２丁目２０−８,FALSE,35.6569037,139.3121854
926EAC6C-F3E3-8F65-1330-E8EA5CDFB9FB,ChIJ9SOuf2VTGGAROMS4Swse25k,中華みず谷,251-0057,神奈川県藤沢市城南１丁目８−５ サニーハウス湘南,FALSE,35.3443157,139.444823
1258A248-A1BA-FF52-5A02-9B111F1BC71C,ChIJ6xAYdcSRQTUR5TkZy19vkf4,煮干専門 あたふた,812-0044,福岡県福岡市博多区千代４丁目２９−５１ 河野ビル,FALSE,33.6057558,130.416371
BA0B9C71-3A2D-5978-EC56-8DDACDEF6D78,ChIJ45NMle4dGWARHuur6EvAnP8,100圓ラーメン,192-0085,東京都八王子市中町１１−１１−８,FALSE,35.6583846,139.3346791
EB8034A6-D1F4-0F1D-3F40-671A295E2D22,ChIJE6xVxOXxGGARRiJJA0Qfdkw,麺・鮨 ワタリガラス,157-0062,東京都世田谷区南烏山４丁目２５−９,FALSE,35.6721013,139.6017559
163EC3EE-8C6A-DD86-BF3E-67FFF073B28B,ChIJCxtxDiGMGGARfGQu8oqBjQA,らーめん天神下 大喜,110-0016,東京都台東区台東２丁目４−４,FALSE,35.70255,139.7787466
A42BE68B-2D9C-154F-C938-749241CAEA72,ChIJeUkGtArnAGAR7jZme6stAF0,中華そば ふじい 芦原橋本店,556-0024,大阪府大阪市浪速区塩草３丁目９−１９,FALSE,34.6607323,135.4883229
77960F34-69B7-CEBA-5880-3BC826C943B9,ChIJ0yUwbQCLGGAR8O20W_UCzZk,山形中華そば 麺や一球,142-0062,東京都品川区小山３丁目５−８ ローザンヌビル,FALSE,35.6213425,139.7056768
144C9C6E-ED86-7F29-2DC4-8C2D06D54B0C,ChIJHaFrpKznAGARL1rOA91_HzA,スープ料理タマキハル,530-0038,大阪府大阪市北区紅梅町２−６ 昭和ビル １０３号室,FALSE,34.6986273,135.5129499
58AADC1F-6EC3-B62F-759D-4E203F9DFEE8,ChIJm2ADMwCLGGAR90OLXpIb4J4,渋谷中華そば saji.,150-0036,東京都渋谷区南平台町１５−１１ 南平台野坂ビル 1F,FALSE,35.6553502,139.6950661
D7EA76D8-7419-09A7-278F-9458B17AD740,ChIJUU3oXxnBGGARjPwbDPK0B_Y,らーめん かねかつ,330-0074,埼玉県さいたま市浦和区北浦和３丁目１−６,FALSE,35.871742,139.6470167
085BBA8B-3A6C-8B2D-9AFB-86D755B429CF,ChIJX7Qp__77GGARJWFUlBJ79S4,室蘭ラーメン 雷文,194-0032,東京都町田市本町田９７３−１６,FALSE,35.5608869,139.4495148
9A9A7F6E-DAF0-14A1-C3D4-7B53015A510E,ChIJG5mqFQC_ImARbN5hkcm8Cl4,古民家ヌードゥル 黒揚羽森住,299-3266,千葉県大網白里市北横川１７５−１,FALSE,35.5143647,140.3402956
5FC10C7B-D765-4379-59A8-BDCCF1711A26,ChIJyacuUADvGGAR726GRI-c1Rg,YOKOHAMA中華そば かみ山,181-0001,東京都三鷹市井の頭2-7-6,FALSE,35.6917063998046,139.587794828836
F90C36DC-58CF-1F85-C543-3AFB42042B01,ChIJKfWX0cBFGGARVYb0HCtpDGM,鎌倉茶々本店 Kamakura ChaCha,248-0005,神奈川県鎌倉市雪ノ下１丁目６−８,FALSE,35.3228579,139.553076
2257394D-82F6-B9F8-4272-43C5C4AD0863,ChIJfZZpHQAdGWARlMeTjaCDctI,らーめん専門店椚田,193-0942,東京都八王子市椚田町５７３−３ 山口ビル 101,FALSE,35.6382977,139.3015464
1044D44D-8FDA-4FA1-A429-E157F3FB3E0C,ChIJ4S_jatvbGGARN7t8NeadUtI,自家製手打ち麺 禿,350-1133,埼玉県川越市砂９２９−２,FALSE,35.8890803,139.4971788
A755DB9C-1A4F-1275-A06A-B28766538932,ChIJn6xle35SGGARivyTy32Zs6I,麵屋BISQ,253-0052,神奈川県茅ヶ崎市幸町1−12−２,FALSE,35.3303727,139.4077887
406D4F19-3350-A648-1A73-F11EFEE5F81A,ChIJ4cXOcOyPGGARqGe3LVNhHUU,ブンブン麵屋,110-0016,東京都台東区台東1-1-15 村瀬ビル 1F,FALSE,35.7007180414217,139.780432871164
F32CE237-7945-8A5D-007A-10848FC6CE05,ChIJO9JrQ9nvGGAR0EkBHZm8kAQ,麺屋 寿,177-0042,東京都練馬区下石神井４丁目１２−１０,FALSE,35.7272258,139.6033215
92E9D738-7D5A-7672-9390-D5D8932F8FC9,ChIJGezfdADVA2ARsTy5VQVfVK0,煮干らーめん小鰯,522-0041,滋賀県彦根市平田町５５２−４,FALSE,35.259321,136.2387303
D0863158-E805-EF1B-5C44-0E38B3AC71F4,ChIJSdYUFgCNGGAR9_mJGmnyn3k,中華そば 麒麟,170-0014,東京都豊島区池袋２丁目４−３ 1F,FALSE,35.7324636,139.7077015
CA9C484B-8372-BEE5-1820-5D242822D3CB,ChIJp41AEABPH2ARv-y5r4pFQSI,魚介豚清湯 成り屋,323-0829,栃木県小山市東城南１丁目３５−１５,FALSE,36.295124,139.8130522
F3ED5980-1E61-432B-FBE0-04F2DD8CFB34,ChIJ74Zh1YBdGGARfmiYXXOGbBE,むかん横浜,231-0066,神奈川県横浜市中区日ノ出町１丁目１０３−１,FALSE,35.4439817,139.6269376
C5D8FAD2-1BBF-121C-1863-DB9F3FD37253,ChIJ7Qrva0tnH2ARil8PGUoWTAk,中華そば 凜星(RINBOSHI),323-0034,栃木県小山市神鳥谷６丁目１０−３６,FALSE,36.2941388,139.7903388
5A87A3DD-3C3B-1200-ECD2-481430A49711,ChIJd5RKsgSNGGARs-zV34FK7r0,麺好獅子團,101-0052,東京都代田区神田小川町１丁目７ 神田小川町ハイツ 106,FALSE,35.6940162,139.7657465
67300D48-1134-B7AD-C502-164D4229AE6D,ChIJDaLAjTROGGARRCM9y5fiEMU,麺処ら塾,251-0023,神奈川県藤沢市鵠沼花沢町２−１６,FALSE,35.3378549,139.4852753
292D7FEB-8FD6-8D14-CA40-7CDEBE477DB3,ChIJk66cE6sdGWARKnd2KzNnjY4,夢を語れ 八王子 / Yume Wo Katare Hachioji,192-0902,東京都八王子市上野町１５−４ 上野町ビル 1F,FALSE,35.6553586,139.3284207
BC4687AF-8AD7-838A-1131-7D9CD96BBD55,ChIJWzUNg9sdGWAR0ZNw6VtuXa0,麺や樽座 子安町店,192-0904,東京都八王子市子安町１丁目３−１４,FALSE,35.653673,139.3394553
CFB3540F-4641-2174-7557-880AB1031139,ChIJ8TXd2ZqJGGAR18Ry6QZPvm4,深だし中華そば,132-0035,東京都江戸川区平井３丁目３０−３５,FALSE,35.706599,139.8422799
AB37982F-5A2C-99E8-9577-106FE080BF88,ChIJE1-3KzXeAGARYJt4JDSaYR4,魚々麺 園,577-0842,大阪府東大阪市足代南１丁目３−１２,FALSE,34.6611218,135.5627017
F451513A-2EA1-0D07-EA3C-59F593DFD5CF,ChIJ2c93fxPfGGARvXCSEbyeUTo,煮干しらーめん 渡辺商店 川越霞ヶ関,350-1102,埼玉県川越市的場北２丁目１１−１２ かすみハウス １０２,FALSE,35.9248033,139.4397251
367659DD-DC71-2B42-A170-2D01DB19A1CE,ChIJR2JEzGCPGGARdPJDgHnVbuI,あいだや,110-0005,東京都台東区上野６丁目１−６ 御徒町グリーンハイツ 101B,FALSE,35.7082346,139.7758712
5473C942-73F2-6279-CF0F-72941098A95B,ChIJCTohbgWLGGARHfOUc3-2L3M,銀座 嚆矢,104-0061,東京都中央区銀座６丁目４−１３ 浅黄ビル 1F,FALSE,35.6712031,139.7613559
64F799BB-F701-E249-DFB0-868036D20ADD,ChIJzdDsMKj-GGARWMxsuVm9NKA,らぁめん 信 shin,194-0022,東京都町田市森野３丁目１８−１７ Wing森野 103,FALSE,35.553155,139.4384009
2F4AED22-5CE3-48C5-512F-B861CDF0C8F7,ChIJqRa-rGHbGGARdf5pVXV_Gwg,花笑み中華そば かれん,350-1146,埼玉県川越市熊野町２２−２,FALSE,35.875802,139.5050133
798CF4C9-2DC3-CFE6-8297-75D58DEB9196,ChIJR-GWv3eNGGARw2iMg_ZCiQk,Zweiter Laden（スワイザーラーデン）,169-0051,東京都新宿区西早稲田３丁目１５−５ Ｋ２ビル 1F,FALSE,35.7106244,139.712547
19E02D55-23A5-1EBE-A668-EC3F7AD40465,ChIJkQlcbwDzGGAREhEf8RNmuSU,無冠 阿佐ヶ谷,166-0001,東京都杉並区阿佐谷北２丁目１３−２ パサージュ阿佐ヶ谷,FALSE,35.7056918,139.6362032
FC7193D5-50EF-B8BD-957A-6F81EC93E139,ChIJCQszFMWPAGARRikzFOa6NU0,MEN SONAN,651-0086,兵庫県神戸市中央区磯上通２丁目２−２５ グランドメゾン三宮 107,FALSE,34.6942555,135.2023929
36DA50A1-A745-412F-9A8C-6509D4B0931C,ChIJHWYNEAeFImARr2Gx4M6uEWU,中華蕎麦 ます嶋,260-0015,千葉県千葉市中央区富士見２丁目１４−４ バーニングビル 1D,FALSE,35.609767,140.1175181
8A6C2747-1F42-7A32-4C3A-2AC88438D0EC,ChIJx6TpO1b9UjURhx9E-Kvdl5U,阿波尾鶏中華そば 藍庵,779-2305,徳島県海部郡美波町奥河内寺前２２９−１,FALSE,33.7321616,134.52968
D2B9FB80-785A-8F7C-F367-3D8DB3CD4570,ChIJGfCe40xVH2ARji6BW2OxLNI,麺彩こはね,308-0841,茨城県筑西市二木成１０２３ 前田ビル1 階北,FALSE,36.2972524,139.9786354
234946F4-BA27-0CF1-C81A-5685EF8CE022,ChIJA2mod81wImARXRhA_qYDlxc,山びこ,300-1531,茨城県取手市小浮気179−１,FALSE,35.9209117,140.1033735
E2B37CC6-A815-A623-9A29-A0B602337456,ChIJaSkQtKPvAGARLWHX_W_23XA,ぶたのほし,660-0807,兵庫県尼崎市長洲西通１丁目１６−７,FALSE,34.7275281,135.428401
D89D7B30-E65C-9ED7-1CFA-8DF8F9D0CFD4,ChIJzRt8xLshGWARG04tuA4nkZs,元祖羽村ラーメン マルフル食堂,205-0011,東京都羽村市五ノ神４丁目６−９,FALSE,35.7609419,139.316203
B6FA85E7-5884-1169-6AB0-8060BF189EE4,ChIJVzCORfMpC18RMCeDTRBoVb0,ラーメン 木曜日,064-0808,北海道札幌市中央区南８条西１３丁目３−３５ ビブレ南８条,FALSE,43.0485882,141.3373431
1D176105-7CBE-4123-5336-0D8B80587710,ChIJq6q6SqjzGGARzcBSOM1pYtk,中華そばきび 明大前店,156-0043,東京都世田谷区松原２丁目４２−５ 明大前フラワーハイホーム 1F,FALSE,35.6687073,139.6489787
555F87CB-5D81-5CAC-3AA1-560005927429,ChIJAQCVEtzsGGAR3oYUF9AAQTk,らあめん こそっと,174-0076,東京都板橋区上板橋３丁目９−４,FALSE,35.765185,139.6751163
20312BD1-6B77-1185-722A-AF477F8239E0,ChIJ2Xx_ZQCJGGARof2W3BuF_lw,麺屋 四季~Shiki~,135-0048,東京都江東区門前仲町１丁目１６−５,FALSE,35.6744598,139.7940485
39AE1E11-1246-D467-A3AC-F09C89B18974,ChIJqZeeEGZXGGAR8lU2Cdc1S2A,ラーメン四季福,246-0022,神奈川県横浜市瀬谷区三ツ境１４−８ ヴィラ三ツ境,FALSE,35.4667418,139.5030652
B4969BF1-65F0-4776-03FF-5F5F826533E2,ChIJz2IvAHgeGWARYO-8mBbVlHo,TAMAZOU-86,192-0085,東京都八王子市中町１２−１２,FALSE,35.6585252,139.3348351
D4F3B787-5729-87F1-D005-C0064A21E3EA,ChIJXwEI-XceGWAREQdQRKP9rXA,tamazou,192-0085,東京都八王子市中町9-8 小松ビル 1F,FALSE,35.6591405463592,139.33518433071
68D537A8-1DC7-1103-F9EB-8DC5F0C536F1,ChIJEzPN4TaHHWARXVCyl0V-JU0,麺道 麒麟児 大門店,380-0841,長野県長野市長野大門町５５−１ ぱてぃお 大門内,FALSE,36.6557121,138.1878207
1EECB4B4-2161-A178-823C-ED0D37F3D546,ChIJoVkHGLvnGGARm8zBsoUTZSY,㐂九八 〜エキチカ〜,359-0037,埼玉県所沢市くすのき台１丁目１２−１,FALSE,35.7852895,139.4735248
B7DDE0AA-17EA-084B-CD98-1F05378D065C,ChIJHao1DQCfm18RXcvx-HnbRpY,麺処こし田,030-0912,青森県青森市八重田４丁目３−８,FALSE,40.8281459,140.7997447
F22A711A-D108-87FF-55D8-04A06BAA0400,ChIJIbI8MzKNGGARJNwhei2R9gg,らー麺本間 赤坂,107-0052,東京都港区赤坂４丁目２−３ ディアシティ赤坂一ツ木館 1F107,FALSE,35.6759684,139.7357485
88837C07-6218-F520-6887-59C5333C779F,ChIJF13vKDB-QTUR0hl93W1ITHY,来来（らいらい）,820-0068,福岡県飯塚市片島１丁目３−３８,FALSE,33.6443095,130.6834083
D934DE5B-5957-0AAA-60F9-B2F0CB77B5F1,ChIJJ76FbwBbGGARWvz9_1QRsnU,らーめん 心麦,232-0055,神奈川県横浜市南区中島町４丁目８６−５ 1階,FALSE,35.4240455,139.6016535
0C54056F-7B0F-ED05-93C1-FE5935A89A23,ChIJW4dBcQB_GGAR652TycbzngM,自家製麺 ご藤,273-0003,千葉県船橋市宮本６丁目２−２７,FALSE,35.7000929,139.9941011
A96A8FB2-4302-BB64-BDDA-4B38F40BC720,ChIJnUnVYkboGGAR6jq5eYHRSYI,ぜんや,352-0011,埼玉県新座市野火止４丁目１０−５,FALSE,35.7988388,139.5565273
37630BED-E267-041B-B5E6-7E8526857A95,ChIJYUuPSWRbGGARn60k4F_20-s,弘明寺丿貫,232-0056,神奈川県横浜市南区通町４丁目１１１,FALSE,35.4239511,139.6022337
E6A22664-1BD8-D82E-0B25-02A4C794EB9B,ChIJZyOeIjbfGGARj_1WWoTLewg,武蔵ノ麦穂,358-0011,埼玉県入間市下藤沢１丁目１３３３−１,FALSE,35.821803,139.4119951
E093565B-98EB-7BF1-6283-6F2B7057CB14,ChIJhW2tZgCJIWARiuCmOj3hxBg,らーめん双葉,319-2102,茨城県那珂市瓜連１６２４−１,FALSE,36.503153,140.4464282
664E305D-3D11-5B55-B1AB-962CB32F15E7,ChIJ4V57hGvzGGARM2SOdYGdW40,背脂煮干中華そば 我武者羅 初台店,151-0071,東京都渋谷区本町２丁目５−１５ マツザワビル 1F,FALSE,35.6836119,139.683779
9A412723-088C-A7B9-AE53-33B14A8F04A5,ChIJVyJux_-3GGARPlzonSd5lAo,中華蕎麦あら田,340-0114,埼玉県幸手市東３丁目２３−２,FALSE,36.0724698,139.7276004
7A3362F4-7FC6-F8E2-A70B-2BC47CD08F04,ChIJQyNZytGOGGARWJCNgAKGh3s,吉法師,105-0014,東京都港区芝１丁目１１−２,FALSE,35.6509975,139.7542996
EDA23E39-EBE9-F3CD-3120-C3D08AE352AE,ChIJBV2wFO7jAGARaJ6WppubQfo,KÜCHE,533-0005,大阪府大阪市東淀川区瑞光１丁目５−３２,FALSE,34.7479991,135.5357592
5441E95D-A567-5F5A-3455-0A9EDFEC5804,ChIJRybV4xR1m18RGRDmgMEFMA8,青森中華そばオールウェイズ,030-0122,青森県青森市野尻今田４６−１,FALSE,40.7831347,140.7645698
734609FF-5BB3-1424-BBB9-D55D8F75BAD8,ChIJef6OymV_QTURzirOOIbNSCU,武志,820-0012,福岡県飯塚市下三緒３１１−３５,FALSE,33.6352226,130.7039746
E86707EA-D81B-3CF8-F13A-40393E1E819C,ChIJoeirQDgtAWAR1cITvj3FlS4,麺100％,635-0835,奈良県北葛城郡広陵町みささぎ台６−２２ みささぎプラザ ４号室,FALSE,34.5334345,135.7348942
573BD779-D151-2F43-0A00-C3AAB2929E48,ChIJb2FgcDWLGGAR1tSl7DY5mXk,博多ラーメン 琉,153-0052,東京都目黒区祐天寺２丁目４−３,FALSE,35.6377327,139.6932023
4EC29952-1619-A797-E789-B6E0D7F91FBA,ChIJD1tMwoWLGGARmEUmZXQ5iyY,らぁ麺 牡蠣と貝 築地本店,104-0045,東京都中央区築地3-16-9 1F,FALSE,35.6664453839056,139.771277427002
8315BF22-0102-2374-7A11-4D6BB7839272,ChIJFX_hbgCXGGARgtAKqUgMgIo,肉そば藍,343-0845,埼玉県越谷市南越谷１丁目１５−１ １Ｆ,FALSE,35.8750133,139.7931681
E70C8E38-DD0C-5230-125A-21F982097F25,ChIJPWaiNQCNGGARMmQzyvzu8Ps,九段 井さい,102-0072,東京都千代田区飯田橋２丁目５−１,FALSE,35.6984638,139.7500252
6436E1DD-277E-8143-B349-68DE37D953D3,ChIJq6pufdsdGWARt6qQ088tszk,ら～めん いち,192-0904,東京都八王子市子安町１丁目７−６,FALSE,35.6531193,139.3398589
12ABC773-F188-0760-A7EE-DF66FD3260C5,ChIJaQC4g_DtGGARTHWWoZ1GhvQ,らーめんとこおりのおやつ ねいろ屋,167-0032,東京都杉並区天沼３丁目６−２４,FALSE,35.707155,139.6197772
C3886FED-9FD0-02A0-786A-97B9713A7B16,ChIJVW9gPABhGGARzHu7w9uUY4c,らーめん飛粋 武蔵新田店,146-0093,東京都大田区矢口１丁目１６−２３,FALSE,35.5678535,139.6919438
FC49C47B-5866-BBB2-AB0E-7F9381411DC2,ChIJk5g-GQCNGGAR1beKnOmfD6M,麺 銀座おのでら 本店,107-0061,東京都港区北青山３丁目５−４０ PRYME CUBE表参道 1階,FALSE,35.6667281,139.711545
EA0A4614-45FC-12F8-1F7F-458FE0633319,ChIJsch9XQCLGGARQ5-qy0JPzAE,らぁー麺なかじま,106-0031,東京都港区西麻布４丁目２−１０ 東城ビル,FALSE,35.6581952,139.7232333
94077EAB-B714-6359-F910-C9AF1871DF0C,ChIJtWIh7TWFImARzhrEZyo5tKI,自家製手打ち麺 粋や,260-0033,千葉県千葉市中央区春日２丁目２６−９,FALSE,35.6238641,140.1019659
46074351-8966-2BFE-A38F-565268A91F4A,ChIJM_mjvdODImARVJZh38Yk_9Y,焼きあご煮干しらぁめん はなかぜ～花風～,262-0025,千葉県千葉市花見川区花園１丁目８−８,FALSE,35.6521711,140.0721729
6021E8A2-DAB7-D967-BC99-4B9A92E765DF,ChIJ884Jv7qRImAR7BU2VWXcBBo,中華そば 亀喜屋,265-0045,千葉県千葉市若葉区上泉町 字堂地６１６−４,FALSE,35.6252287,140.235851
8C9A8552-1E43-C6F3-FE6D-A590322100E8,ChIJKRQvJWvuGGAR2g1o5EfOXLQ,佐々木製麺所,167-0042,東京都杉並区西荻北４丁目２６−１０ 山愛コーポラス,FALSE,35.7085532,139.5923579
9663F249-653F-603A-EBC4-1A615D09243E,ChIJ42_wSj7xGGARoM6vIDNRj_4,麺や六等星,214-0003,神奈川県川崎市多摩区菅稲田堤１丁目１−２ コーポフジ,FALSE,35.6336384,139.5355073
EE699CB1-473C-C611-564D-CC76EB70CE93,ChIJaTUb7vgpC18RDQCkCam8XO4,とくいち,060-0011,北海道札幌市中央区北１１条西２２丁目１−２６ 1F,FALSE,43.0705016,141.3202376
83971596-264A-6585-D675-954C829F4AD3,ChIJp8GHcQKMGGARdJuDv_Bjq5c,無銘,101-0042,東京都千代田区神田東松下町４９−８,FALSE,35.6946164,139.7724302
AEA80B2D-BC83-5007-1111-D7508F99C5C6,ChIJJ4kwJSwgGWARZYYPQbmXGW8,中華そば いぬい,197-0023,東京都福生市志茂４９,FALSE,35.7354049,139.3291353
92DBFBAE-1EB8-EA11-12D3-9DA30F21E127,ChIJGcliE2Ez-F8RhYKolDt24E8,金沢 麺つみき,920-0925,石川県金沢市天神町１丁目１８−４ 金沢 麺つみき,FALSE,36.5578935,136.6792669
7D305C1D-8C05-8923-B7CA-B179C32036BC,ChIJC7hifqaDGGARdI-IozE5Gd0,麺屋むどう,270-2261,千葉県松戸市常盤平５丁目１１−２３ インシュランスビル 101,FALSE,35.7979019,139.9649244
95C73E33-70FD-7E3C-D83E-59855EA2F63E,ChIJyczHiHghGWARUhsBVpuCBwQ,一陽来福,197-0021,東京都福生市東町２−２,FALSE,35.7422658,139.3290056
2B4FAB52-5673-7885-06DD-7EDDD7968EEC,ChIJN8ksnli_GWARLZbxlCGLwl0,熱海ゴールデンアイ《ラーメン/金目鯛出汁/極み》,413-0019,静岡県熱海市咲見町１２−８ 1F ビル,FALSE,35.1010126,139.0751257
8B29BCEB-0BD7-085E-2697-1D2B72BAC8D4,ChIJMTLmvGAdGWARckFGhU7NWXY,口樂 城山店,252-0111,神奈川県相模原市緑区川尻４４８３,FALSE,35.6007552,139.2844995
79D21443-CE4B-59D8-0FE9-7672CE40F2D8,ChIJg855SgCLGGARdfhPo9g8dlg,麺や みかん,153-0051,東京都目黒区上目黒２丁目１８−９,FALSE,35.6413448,139.6974494
DF8FC59A-8470-0438-6AE8-055BBF65CF11,ChIJB5jLI917A2AR333tLuhejL0,宍道湖しじみ中華蕎麦 尊,467-0803,愛知県名古屋市瑞穂区中山町１丁目１９−７ パールマンション桜山,FALSE,35.1391226,136.9297232
47E9C135-F9BD-8C2D-C761-A258D214F3E7,ChIJGdg4x8OaGGARqTCKYa4vY4k,SPORTS DINING REGISTA,341-0038,埼玉県三郷市中央２丁目１２−１,FALSE,35.8193726,139.8789674
CAB66DBD-7809-7C40-11B2-9390C84712F7,ChIJbfyHZjBhGGAR-d7WCDRFlTI,煮干 中華そば 結。大森店,143-0016,東京都大田区大森北１丁目２６−５ 浅野ビル 1階,FALSE,35.584993,139.7298017
B0430F89-53E2-892F-082F-3A4FC69B44A2,ChIJ4e1E5sJz9l8R6lfPFkwUSCA,麺屋 あした,949-3116,新潟県上越市大潟区犀潟１１６−１,FALSE,37.2144561,138.3036083
270C5241-4FB8-D56E-097D-2BDCD56C81D1,ChIJkR-qRM8kImARPvnMs7k7FxE,ふる川,310-0847,茨城県水戸市米沢町６００−３,FALSE,36.3365851,140.457724
922F2C44-CE64-C1CE-89CA-4D53D338969A,ChIJlQEyWD_nAGARPzwarwVMqU4,だしかの/だしと小麦の可能性,542-0073,大阪府大阪市中央区日本橋２丁目５−８,FALSE,34.6647055,135.505758
48E7F333-44A0-3114-868A-7FC887037B9C,ChIJtZSxNwDxGGARVxAlf4nCCqQ,中華そばの店 りょうが,157-0062,東京都世田谷区南烏山５丁目１７−１１ 三栄ビル 1F,FALSE,35.6675935,139.6007093
72DB8902-8851-B44E-0BE4-676FA5C4D428,ChIJfbRZGKPRBGARdy7fdlO-MK8,麦の空 GACHI SOBA DOJO,441-8077,愛知県豊橋市神野新田町中道東２４６−１,FALSE,34.7303136,137.3588296
7E2EF0BB-1C16-96A3-82E1-0F7CBF09993A,ChIJm1Nytuw1GmARycyUGEzYdcM,ラーメンABE's GYOUZAYA,420-0816,静岡県静岡市葵区沓谷１３５４−１,FALSE,34.994143,138.4139915
7DF952C0-6F80-ACBB-D824-DF364886EA6B,ChIJKRdDbwCPGGARtke97YqEkow,藤,116-0002,東京都荒川区荒川３丁目６１−６ HANA店舗 1F,FALSE,35.7334082,139.7792962
BAECC9FC-C571-867E-FB15-F351920C66C8,ChIJNUu9UY6BGGAR283LrujH0Jw,らーめんひさまつ軒,273-0116,千葉県鎌ケ谷市馬込沢３−２２,FALSE,35.7431275,139.9910798
3558449D-E878-A6FB-2E34-0E1293C5B0CA,ChIJY8IRrLFfGGARVypHn2ho79M,紬(つむぎ),221-0802,神奈川県横浜市神奈川区六角橋２丁目１０−１,FALSE,35.4869711,139.6232621
20CE4CEC-FF5F-E5FD-0171-999CD7AC9423,ChIJ22gUc0LrGGARFc8ooC2eI24,自家製麺 TANGO,338-0837,埼玉県さいたま市桜区田島５丁目２２−２６ サンシティ西浦和 1F,FALSE,35.8440524,139.6286307
AFCD30FF-C26E-9DBF-2600-36A92A034348,ChIJ__97-daMGGARAWYjwQZtOEg,らぁめん ほりうち 新宿本店,160-0023,東京都新宿区西新宿１丁目４−７ 高野ビル 1階,FALSE,35.6929241,139.6983149
5D8DFFA8-A08C-6E1F-794E-BB82C76DB529,ChIJhYCuliGtGWARzoAy46x_0z4,麺処まるよし,254-0042,神奈川県平塚市明石町２４−８,FALSE,35.3295721,139.3466268
BA258D19-45A4-FFFE-84E3-902784A725CE,ChIJJYWuN1CPGGARAZSBsexjP1A,中華そば一辰,125-0061,東京都葛飾区亀有３丁目３０−１,FALSE,35.7655967,139.8485024
5D697B90-CBD5-83C0-206F-AD0622E50FCE,ChIJN2ll7ALXGGARGzV_iJTNQ9o,誠実,350-2206,埼玉県鶴ヶ島市藤金８７９−２２,FALSE,35.9447905,139.4047085
82C9CDD0-0623-5714-8D30-E7A336EB02A5,ChIJ404gPQDhGGARUl55ujI3t6k,新旬屋本店,190-0023,東京都立川市柴崎町３丁目６−２９ アレアレア2ラーメンスクエア,FALSE,35.6959185,139.4131163
B1CC8985-ABC4-7E8C-7DF0-DA128C341B15,ChIJtdVdHEdx9l8RCUOEOn6C-D0,はな禅,943-0882,新潟県上越市中田原１０５−８,FALSE,37.0952523,138.2371567
BC637D53-F4EF-11C9-476C-9D8476FF63C2,ChIJXWd_0mwlImARCnZ9_LQpElA,麺屋 むじゃき,310-0818,茨城県水戸市東台１丁目５−３１,FALSE,36.3665391,140.493035
451C0E1D-0E85-725A-6E90-55636CCF84A2,ChIJizXFK2HSGGARkLtVK1OYsNg,次念序,365-0044,埼玉県鴻巣市滝馬室２１４−１,FALSE,36.0543686,139.510375
5923601A-7697-3AD3-55F6-7E8C27832D48,ChIJhwq7WQBdGGARUy4qNUYLIg4,つけめん 章,231-0007,神奈川県横浜市中区弁天通３丁目４８,FALSE,35.4475639,139.6385606
89024301-E875-42B4-CCE6-D58B09355865,ChIJ34I9DTKPGGAR9XRoJlvCkQs,Craft Ramen BiT,110-0004,東京都台東区下谷１丁目１２−２５ 舘野ビル 106,FALSE,35.7194214,139.7827189
BC4C681A-934C-F14E-7E4F-F521C8CCDFB5,ChIJ__8vrqeR918Rrjkejcslt58,ドッグ ハウス,939-8036,富山県富山市高屋敷８３３−１ タカサンビル,FALSE,36.6711856,137.2439066
F5CCCC80-D06D-291C-F271-73718C712C41,ChIJbU-SlYENA2ARc-SPFKCKyOg,麺屋伊藤,484-0094,愛知県犬山市塔野地南ノ切１２１−２１ 鈴木ビル 102,FALSE,35.3718492,136.9658236
A9E45915-6005-FAB3-0775-100BE8CEF4F3,ChIJqw37B1WPGGARicMRIaD0Cfg,麺巧 潮 上野製麺所,110-0015,東京都台東区東上野３丁目２２−２,FALSE,35.7110198,139.7791121
5378FBAC-601F-86D0-0F84-B9F84592C614,ChIJczIVGp-RGGARiiSZLTxOWI8,麺や旬香,340-0011,埼玉県草加市栄町３丁目３−２１,FALSE,35.8455933,139.8016004
265E1C47-1F81-0897-0E85-7C71B97BC49C,ChIJFyagDQCNGGARWdwB4nwh47g,笠岡ラーメン 一元堂 神保町店,101-0051,東京都千代田区神田神保町１丁目１ 林ビル 1F,FALSE,35.6958563,139.7603215
8E067301-9709-0F14-63DA-6C9BC2E3C868,ChIJW4DD8DphGGARHE7RFu1oYAI,中華そば 裏慶,146-0095,東京都大田区多摩川１丁目１−６,FALSE,35.5619223,139.7027708
4983EF74-FD79-9B49-DA5E-5508491BC975,ChIJp125Ik2LGGARwHyQZdNLLK4,ROPPONGIつなぐ,106-0032,東京都港区六本木３丁目１１−７,FALSE,35.6631499,139.7329603
B11FD089-5A8D-18CE-B6C8-0D4ABC283951,ChIJt_YJmHvhGGARzyXv-DPekqA,ラーメンスクエア,190-0023,東京都立川市柴崎町３丁目６−２９ アレアレア２ ３F,FALSE,35.6962953,139.41307
F611CB4D-E645-8FD7-6AD1-B9FB44EC9560,ChIJR7CA3iflGGAR3UTL0KJOO2Q,らーめん 暁,183-0014,東京都府中市是政５丁目４−３４,FALSE,35.6570952,139.4886954
685A3D13-0C54-90BC-961E-356370046928,ChIJb1u32fbtGGARHtBh5IFyLiA,らーめん なないろ,167-0032,東京都杉並区天沼3-1-5,FALSE,35.7058474555962,139.622454432447
0D7A9A55-5335-7AEA-D77F-02D0847F1FDB,ChIJPZeMvZkpC18RZkhYL9AN-yA,RAMEN ICHI,064-0806,北海道札幌市中央区南６条西４丁目 プラザ6.4ビル 2F,FALSE,43.0528381,141.3538014
955E46BF-BA94-2E32-5B29-677294087258,ChIJzW7NPgDjGGARDEjmco_Rlp8,麺屋いっけい,191-0061,東京都日野市大坂上４丁目１８−３８,FALSE,35.6738012,139.384961
4C2863EC-9823-3814-7BDE-F057F0941610,ChIJ0WPIQAAfGWARSC46K2UjRPw,煮干しつけ麺 三代目はる,196-0015,東京都昭島市昭和町２丁目１−１,FALSE,35.7131521,139.3614519
787903CB-BF8C-3143-9491-B50B8BEA18E5,ChIJYehdctuMGGARTFyi1FAczHQ,麺や 百日紅,160-0022,東京都新宿区新宿３丁目４−８ 京王フレンテ新宿3丁目,FALSE,35.690966,139.705352
18752E17-FF44-F1F8-F000-220DA3B82A5D,ChIJg8ssjJKNGGARs8MsAdX_HXc,らぁ麺 くろ渦,160-0022,東京都新宿区新宿３丁目７−８ 第2シグマビル 1F,FALSE,35.6910657,139.7059941
FED24B8B-E403-BC36-479A-32C16C41C79E,ChIJ5bXOIeiMGGARv4RpQAsA7KU,小麦と肉 桃の木,160-0022,東京都新宿区新宿１丁目３２−４,FALSE,35.6905205,139.7117471
3B721F3F-D36E-158E-922A-4C14E94834BE,ChIJcUPnkkrzGGARQx2-t1SFQ3o,白河手打ち中華 アサガキタ,166-0001,東京都杉並区阿佐谷北２丁目１１−１,FALSE,35.705091,139.6343828
630A3DBC-1F9A-3C36-C39A-3173894B92FD,ChIJkVKmYQTlAGARKqwrM4ULPWI,中華そば 那由多,532-0023,大阪府大阪市淀川区十三東３丁目２８−１４,FALSE,34.721249,135.4832816
E2C0D402-3207-B920-0CA1-CDA734E13B61,ChIJnbDzVPqPGGARM5hfrBGI9bE,貝出汁らぁ麺 海美風 浅草店,111-0032,東京都台東区浅草２丁目１３−３ ディアリスト浅草 1F,FALSE,35.715336,139.792803
DCDA02BD-3505-C560-B1F9-86F00FA2617A,ChIJtbZq0M2PGGAR33tnyFR2jcE,鬼そば 藤谷,111-0032,東京都台東区浅草１丁目１０−２,FALSE,35.7115663,139.7923478
EEBAD47D-D3E7-5D58-D700-7579806B20FF,ChIJoTY9BpWNGGAR201TKnG1pz0,ガンコンヌードル,114-0015,東京都北区中里１丁目３−３ 板橋ビル(青山ビル 1階,FALSE,35.7364284,139.7500818
53AEDA39-8437-C715-DD39-00F50E762B47,ChIJzfvC_5mdGGARpqXH6WTrIDo,与しおか,270-1153,千葉県我孫子市緑１丁目４−８,FALSE,35.8707073,140.0136863
6A274DAB-41C0-987C-FE27-EC9E89EAAE65,ChIJqeATtoDyGGARWKIMVPNmQfo,ラーメン健太,165-0034,東京都中野区大和町１丁目６６−６,FALSE,35.7090463,139.6515485
B9A3CDA1-114E-1533-86AE-06A8940250A1,ChIJd0xmtarhAGARy00sqTYkqqo,らぁめん 涼虎,535-0002,大阪府大阪市旭区大宮１丁目１７−１３,FALSE,34.7219252,135.5483615
D6E96560-4D11-0732-2F4E-E041AFEA3751,ChIJq6pp2pGOGGAR_PYehAlnknQ,万人力,110-0013,東京都台東区入谷１丁目２４−２,FALSE,35.7212858,139.7863928
2D88E74A-2783-7C13-9345-3DCC886DEF72,ChIJ0QAS0pX0GGARsB0Jhdwf5No,中華そば ふくもり 駒沢本店,154-0003,東京都世田谷区野沢４丁目９−１８,FALSE,35.6324779,139.6684653
BAA7C29A-266D-2180-5D94-7988FD595BCA,ChIJ5aA97miTGGARKfL8pBgKhWM,らーめん専門店CHU-RU-RI,114-0034,東京都北区上十条３丁目９−７,FALSE,35.7615197,139.7167801
E382992D-C8DB-63BD-6BB6-534D54CC2F64,ChIJ0z-CagBZH2ARuHNVyp9QTyw,麺ノ小池,321-4369,栃木県真岡市熊倉３丁目36−２,FALSE,36.4373725,139.9881182
68C43D32-8115-14E5-3314-97AA6B86B435,ChIJkYCnNgDdAGAR50dKilmbEPs,麺時しゅき,543-0052,大阪府大阪市天王寺区大道３丁目１−２９,FALSE,34.6505582,135.5211586
9EAD714B-87A8-EA07-44DD-3128256A195C,ChIJq6rO8lpWUDURUWh3Iz0OpoU,塩そば まえだ,723-0051,広島県三原市宮浦３丁目１７−８ アメニティ宮浦,FALSE,34.3980061,133.0692815
E2D71322-F47C-D17D-A680-89B84A6F9EA8,ChIJObdaJhSMGGARBxqfRHHcNEA,麺屋33,101-0051,東京都千代田区神田神保町１丁目４４ 1階,FALSE,35.6978768,139.7573513
E542C188-51C5-5954-3CE7-E61DF2D0FA65,ChIJsY8XmS8JAWARDWZQLBUo7-0,京都 鶏白湯そば純（本店）,604-0871,京都府京都市中京区三本木町 ４６２−５ １Ｆ,FALSE,35.0163267,135.7606414
54B51599-9176-1023-E46F-26BE63BFCAFB,ChIJoUGlT0mRGGAR70_jTMYT_s8,中華そば 須紗,341-0003,埼玉県三郷市彦成３丁目１２１−４,FALSE,35.8550056,139.8543468
3AD73070-E717-CA70-80C2-762CB63EC13C,ChIJJc6zy7uLGGARJuxjs8jttuw,銀座月や,104-0061,東京都中央区銀座6-10-1 GINZA SIX 6F,FALSE,35.6696006887188,139.764070536252
88EE2DD4-A0AC-9616-6372-2CC89CD3025A,ChIJ59aD53vvGGARCaiXtxVPomA,中華そば下連雀,181-0013,東京都三鷹市下連雀４丁目６−１５,FALSE,35.692569,139.5640144
D15600CA-C0E3-66B5-E270-D2BD5E0D7BA0,ChIJF3T5-6BfGmARYMKyrl_SyH8,御前崎レストランたわら屋,437-1613,静岡県御前崎市合戸４３８４−１,FALSE,34.64029,138.1113087
E45D08D6-C47C-A875-5C43-790E2B638BF2,ChIJkeVvCKL0GGARxvGlb1fC0Tw,麺屋 藤しろ 三軒茶屋店,154-0024,東京都世田谷区三軒茶屋１丁目３７−１,FALSE,35.6425197,139.6709255
C86C850D-EE36-B917-CCBD-A08284234D7E,ChIJ00lwmuCHGGARi09wCbFCX4o,麺屋真星,279-0002,千葉県浦安市北栄２丁目１９−２６,FALSE,35.670598,139.894694
EDF5DD06-8FE4-3726-5DE1-6CA822C6EA0D,ChIJZ2GHPuxhGGARVYXnJFAc9Ag,手打ち麺処 好き酒師,146-0093,東京都大田区矢口１丁目２９−５ 伊藤荘 1階,FALSE,35.5649154,139.6916149
B288B694-5E7E-32AA-8618-B5428015B8D5,ChIJocZ0z9uNGGARX5lAc9WWs6M,らあ麺 もう利 半蔵門店,102-0093,東京都千代田区平河町１丁目９−８,FALSE,35.682114,139.7417412
4D19D5C6-1748-ACE0-74B5-E4DBC819515A,ChIJCRWxBQAhGWAR8ZVu8IizxIk,中華そば みなわ,197-0823,東京都あきる野市野辺４７２−１,FALSE,35.7262991,139.3100901
3899051D-F700-67D3-7BD0-2CF2C2F04B9D,ChIJjaQqk5HiGGARKRpC_fmptu0,分田上,192-0372,東京都八王子市下柚木３２１−１ グリーンハイム,FALSE,35.6297787,139.3797505
1FD6FB90-186A-9555-C8D9-2FB8A3E44683,ChIJd-3ugfvyGGARpne0EqAcrxA,CLAM & BONITO 貝節麺 raik,168-0062,東京都杉並区方南２丁目２１−２１,FALSE,35.6840293,139.6579797
028C8B87-9998-CAD5-1EE5-08758443CEC1,ChIJ7Q_kKRhcGGARKJYSelIq2a4,自家製麺SHIN,221-0825,神奈川県横浜市神奈川区反町１丁目３−８,FALSE,35.4743064,139.6277402
7919C1B5-554E-8580-4D58-59D990944CDA,ChIJl_BLiDbkGGARM3o6bstLGAU,ふうみどう,185-0012,東京都国分寺市本町２丁目１２−１,FALSE,35.7020002,139.4814571
1FC0D9F3-CEB9-0C66-1BD4-69EC3268AB99,ChIJjX4E2J2RQTURlc5rfQysJMU,らぁめん蔵持,810-0012,福岡県福岡市中央区白金１丁目１０−５,FALSE,33.5779594,130.4057411
37E84A77-6432-83FC-40E0-5617BC9F7D01,ChIJJ9pJCEbbGGARTsg1wTHzs3Y,讃岐ラーメン 香麦,350-1150,埼玉県川越市中台南１丁目19−５,FALSE,35.8835332,139.4653992
486C1F9A-E47F-D772-93EC-8716355E53DE,ChIJDy_B4nklImARVSfnoe_p3Xw,鶏soba Luca Life(鶏そばルカライフ),310-0044,茨城県水戸市西原２丁目６−２６,FALSE,36.3912911,140.4371284
A49993A9-6B46-2D56-8A56-AE5135264731,ChIJHX8WMIdfGGARij-z4p8lKFk,なるめん,145-0062,東京都大田区北千束３丁目１６−１０,FALSE,35.6066287,139.6871691
52F35E3F-8458-2696-3C28-3E9D04820C41,ChIJx48PKoJxA2ARhg3OSCAJ-bo,らぁ麺 飛鶏,486-0953,愛知県春日井市御幸町３丁目４−６−２,FALSE,35.2215632,136.9438277
9E01E52C-76F1-BEAF-F358-15C28C435C43,ChIJ0SJ5w6P5GGARkWz-dSTw-tE,鴨だし中華そば 上ノ,227-0062,神奈川県横浜市青葉区青葉台２丁目２６−１ 志田スクエアハイツ 2F,FALSE,35.54786,139.5166915
AFE39F0A-3D17-D62B-D627-726CA1A30F76,ChIJY3_oLbJ7A2AR0FZocGBEAm8,支那ソバ きたがわ,457-0862,愛知県名古屋市南区内田橋１丁目１４−２ コーポ竹味,FALSE,35.1137518,136.9054335
A737DFF1-EDCE-20AE-508B-07DBAD974C93,ChIJo0xQvZyNGGAR6_bDuZx2hyo,鶏soba座銀 神楽坂東京本店,162-0825,東京都新宿区神楽坂３丁目2−１２ 摩耶ビル 1F,FALSE,35.7014116,139.7405459
61F390F2-0320-ADD4-46CA-A774556E6515,ChIJWS-Dr06JGGARLPo0n-pErjE,麺や 紀茂登,103-0025,東京都中央区日本橋茅場町１丁目１２−６ Ff 日本橋茅場町 1階,FALSE,35.6791836,139.7809972
6CA152F9-A4B3-B138-CFEF-99FB5F8F9FED,ChIJUffKIIeNGGARWSTJ_FJK1-k,soba MAREN 渋谷店,150-0044,東京都渋谷区円山町１０−１６ SHIBUYA Limitedビル 1階,FALSE,35.6593329,139.6944018
7EEE7940-0EE7-266E-BFFB-887A4B39D002,ChIJ0VUsTjMdGWARhJ2bhnrc9Wo,らぁ麺 吉凛 橋本本店,252-0131,神奈川県相模原市緑区西橋本１丁目１９−４８ らぁ麺食堂吉凛,FALSE,35.5874729,139.3392776
CE07A829-40A1-AB1E-8050-F578D0E6C832,ChIJuWmlM_2PGGAR-E7tS3O6FZI,Tokyo Style Noodleほたて日和,101-0025,東京都千代田区神田佐久間町２丁目 梅屋ビル,FALSE,35.6985564,139.7771593
EC047949-83F7-BD03-F02F-DBF53072BF1E,ChIJ00SfmI6PGGARNidm3nMc2QE,中華そば 敦,125-0061,東京都葛飾区亀有５丁目４１−４,FALSE,35.7691649,139.8484941
53DAD2DE-884A-26F1-7E3C-9D4629FFFD72,ChIJe3TWVtKRGGARatUFl2HeWjY,博多長浜らーめん 田中商店,121-0075,東京都足立区一ツ家２丁目１４−６ アンスリューム 1F,FALSE,35.7846504,139.8109296
09A8175E-50CC-CC78-B6F3-853D8D264FB7,ChIJTYhvz6CaGGARo1T_nNE6MdU,ハンディクラフトワークス,340-0821,埼玉県八潮市伊勢野１１１−１,FALSE,35.809919,139.8563688
8C9D6EE5-77A9-4572-32DA-3AD0EA1C4881,ChIJtZ0dEraNGGARv5fCkroTO5g,麺屋なにがし,114-0015,東京都北区中里１丁目１６−２ 地ビル３,FALSE,35.7379102,139.7507737
A84D345A-19E3-39AB-F8EA-613722AFD356,ChIJ7XBdxRAfGWARHP0Xo7uRcqg,麺屋よつ葉,196-0003,東京都昭島市松原町４丁目１２−４,FALSE,35.7202613,139.3433262
B15A1A3A-B7DF-5585-4252-F1E243091EBB,ChIJu_tf5NiPGGARnl2Hvb-NOnY,とりジンジャー,110-0005,東京都台東区台東４丁目５−５,FALSE,35.7057956,139.7782869
BB62C839-A24E-CD71-857A-026488230389,ChIJI_z7OsJPGGARWiRuoLU_DMo,MARU喜,251-0045,神奈川県藤沢市辻堂東海岸１丁目９−１,FALSE,35.3260009,139.4534895
E0A5A4A1-B38E-AE6F-7629-7E71EA98BA09,ChIJObsEpTuNGGARCKvqZ9dwWU4,中華そば 竹千代,114-0011,東京都北区昭和町１丁目３−６ ネオグランデ １F,FALSE,35.7468864,139.7554084
570BD7D7-5514-1982-9763-7DBFC398C0C2,ChIJeWVe7IgrC18RUfVSWDofte0,Mari iida (マリイイダ),003-0834,北海道札幌市白石区北郷４条１２丁目６−１９,FALSE,43.0536468,141.4400315
CE1B5209-EBD8-545A-4883-B36FC867A874,ChIJQSLyTHKNHmAROzSXI8LS4Wk,支那そば なかじま,370-0069,群馬県高崎市飯塚町１１９０−４ 高崎市東金井市営住宅 77-A1F,FALSE,36.3400937,139.0085472
C3E32113-A2F3-06AF-A05F-85C5FFDA5B3F,ChIJh4-Duv7zGGARE9aFYvKanLM,麺屋さんQ,154-0017,東京都世田谷区世田谷２丁目１５−３,FALSE,35.6415542,139.643924
DFDDECE9-7EDF-51AA-498A-AF0F9A52B197,ChIJf--xM_n0GGARtKxn3dvifjc,あすなろ,158-0082,東京都世田谷区等々力４丁目１３−２２,FALSE,35.6088843,139.6537501
7BDF7548-933A-4C94-725B-6042262A9472,ChIJf0RfSJrDGGARrlgL5z-tbps,らあめん しらんけど,354-0018,埼玉県富士見市西みずほ台１丁目２１−１０,FALSE,35.8358659,139.5482771
3B649FEF-2A75-BACF-C904-2DAED992420A,ChIJN87RfwFhGGARVqs_9ttVqps,麺匠 さざ波,144-0051,東京都大田区西蒲田７丁目６−９ 高橋ビル 1F,FALSE,35.5637807,139.7146028
1BCFA39F-D936-C7B2-2872-17519ADB68DF,ChIJIb85nd5hGGARV1TIPmVLP9g,和渦製麺,144-0035,東京都大田区南蒲田１丁目２２−１２,FALSE,35.5576226,139.7248215
2060CE42-DD0C-B479-52F5-B8AB49D30B08,ChIJNZ6YLyHvGGARd2JPuYY6oa0,鶏こく中華 すず喜,181-0013,東京都三鷹市下連雀３丁目２８−２１ 公団三鷹駅前第2アパートB1,FALSE,35.6997818,139.5612484
BDB86F7D-A939-D199-8114-54DCEE80F455,ChIJ116TjxyFGGAR30JdcX113vg,一滴,125-0041,東京都葛飾区東金町１丁目１１−４,FALSE,35.7701549,139.8681895
0C036B71-8A21-C381-B5FF-5D1B7645DA5C,ChIJFTqC5EWPGGARkDSG2NQh4i0,北千住煮干中華蕎麦かれん,120-0034,東京都足立区千住２丁目５２−１,FALSE,35.7496423,139.8035011
48803C1C-02A2-C293-1EAB-FA0BF86D782F,ChIJfeUHwpvtGGARbegEeDrTU60,食堂 七彩,165-0032,東京都中野区鷺宮３丁目１−１２,FALSE,35.7232199,139.6439504
33A966E3-BFA3-3674-0DB4-FA4D73D876AB,ChIJMRotRkcHAWARpZbYbnkJPmg,らぁ麺や ふぢとら,616-8076,京都府京都市右京区太秦安井辻ノ内町15−７,FALSE,35.0151892,135.719076
982E47E1-5A13-4C0F-6CDF-177C9E77F9C6,ChIJb40ubOc3GWARBxvV0FoeSXY,麺処しんすけ,198-0212,東京都西多摩郡奥多摩町氷川１４２０,FALSE,35.8068848,139.095429
922D08CC-4AEC-482E-6142-BBA5291E3E65,ChIJ60c1wsuLGGARMD8bJBzOno4,手打ち正麺 Hachimitsu,141-0031,東京都品川区西五反田１丁目３３−１０ 西五反田サインタワー 地下一階,FALSE,35.6240118,139.7213571
4E7B25DE-A659-8D3D-1D6B-13F8918D8D94,ChIJSRpqy-NVUTURhjldEoqLHWU,麺処 おぐら,719-1131,岡山県総社市中央５丁目１０−１０７,FALSE,34.6697168,133.7546651
4A2AF221-6301-9ECD-57AB-727251B18DC8,ChIJG4-SbPQ_GGARswUJyV6-dcA,煮干そば 平八,238-0011,神奈川県横須賀市米が浜通１丁目１７,FALSE,35.2774716,139.6744471
96EC1C22-5F14-6F2C-3CED-4F211DB15625,ChIJVVq8h6ePGGAR9mGOoEgf1uE,煮干ソバと米 今日の1番,131-0032,東京都墨田区東向島３丁目３５−６,FALSE,35.7210803,139.8159489
AC58B52F-C028-4E3E-A1B6-397666CC1244,ChIJq6qlKY8pC18RozmCF8HX7Jw,らーめん 信玄 南6条店,064-0806,北海道札幌市中央区南６条西８丁目８−２,FALSE,43.0522777,141.3475432
828B7BC1-6991-EA60-E6D4-BF29200F072D,ChIJq2p2ff3mAGARVOAHcq-v1gs,中華蕎麦 葛,550-0011,大阪府大阪市西区阿波座１丁目１２−２１,FALSE,34.6813723,135.4950022
198CC938-5012-7EFB-E86F-FC93E0056F1D,ChIJVVVRcV73G2AR63pwMcawPvg,鶏そばAkari,400-0031,山梨県甲府市丸の内２丁目３−７,FALSE,35.6657571,138.5675469
6BE8B87A-6A8F-01A4-5135-533A9418252D,ChIJIZXpGxqPGGARsBWMsWCR8y8,中華そば 政好（まさよし）,131-0045,東京都墨田区押上１丁目１６−７,FALSE,35.7117125,139.8152156
C4EF40C5-0834-69D1-873C-F6ABDC8432DA,ChIJEecMG3GJGGARZ0Hc9LX945o,麺処 にぼし香 (NIBOSHI KOH) 水天宮前店,103-0014,東京都中央区日本橋蛎殻町２丁目２−２ 山口ビル 1F,FALSE,35.6826987,139.7857474
EA45AAA7-2ABF-F30E-1D19-528777258174,ChIJGcLxATzlAGARj4q3OABT_Pg,鯛白湯らーめん ◯de▽ 新大阪店,532-0004,大阪府大阪市淀川区西宮原１丁目５−６,FALSE,34.7328152,135.4941128
519637C4-F4EF-0D9F-2A49-2720A276426D,ChIJHUa7h_PBGGARZLQ7as03oOU,らーめん 自家製麺 廣澤,330-0074,埼玉県さいたま市浦和区北浦和１丁目２１−１３,FALSE,35.8761878,139.6493266
A7AD89AE-8E61-E115-A968-32303240C2AB,ChIJyQFxMCmFImARHLU0eRtkGI8,麦づら,264-0025,千葉県千葉市若葉区都賀３丁目２５−７ ローズビル,FALSE,35.63587,140.1525272
070987D0-D22B-9808-E818-51BA6C9C14E8,ChIJXScEIxOLImARsZIlREuVN5g,らあめんclover,286-0033,千葉県成田市花崎町７６６−２,FALSE,35.7782824,140.3203081
D007C3FE-E3CA-8001-D017-C519F96B797C,ChIJ0d687CiNGGARjgWUzid_HSU,麺屋 二二一（ふじい）,101-0051,東京都千代田区神田神保町２丁目２−３８,FALSE,35.6961031,139.7568739
B4528F11-314A-6757-6E34-6D1B41991605,ChIJB5jO062NGGARNczuYvLI61Q,麺庵 利休,113-0033,東京都文京区本郷４丁目３−２ 鈴木ビル 1階,FALSE,35.7075421,139.7591769
D8F6F924-4022-1AD7-C092-F391CBC781E4,ChIJw4d4lQ6FHWARDf3ns2h-Ppc,麺道 麒麟児 南長池店,381-0024,長野県長野市南長池１９６,FALSE,36.6421482,138.2353294
C76E7E24-3C81-F89E-CF2A-87DC8AB886DF,ChIJRzvOc3iLGGARMghYj_Amt94,六本木 麺屋武蔵 虎嘯,106-0032,東京都港区六本木４丁目１２−６ 内田ビル 1F,FALSE,35.6643665,139.7314895
9B5AFE35-03B7-06E4-D4C3-6D8F5571819F,ChIJW1VxML6FHmARpAoAnOk0lBY,improv.,379-0133,群馬県安中市原市２丁目２−８,FALSE,36.314383,138.8590728
4C538560-8B5B-F0CD-4862-4B6CADC0C0CE,ChIJP81-GKNTjl8RVirlza5GZBc,中華そば 仁平,015-0324,秋田県由利本荘市吉沢向小山田６,FALSE,39.2725794,140.1122326
91D9AB19-60CB-5191-433C-2AB13D794CEA,ChIJs9W3MQBHH2ARPpe8LNMBjqY,めんや天夢,328-0042,栃木県栃木市沼和田町１１−２０,FALSE,36.3688034,139.7313151
8B9E2BAD-BC11-0786-1491-9CC13588C628,ChIJD7FKv_grGWARuYKijVEqD24,らぁ麺花萌葱,350-0321,埼玉県比企郡鳩山町赤沼２７００−７,FALSE,35.9706595,139.3425787
F784AB11-5C0B-F8A3-7831-ED31738EA5FD,ChIJOUtzcINdGGAR9V6TTG2P7nk,らぁ麺松しん,230-0041,神奈川県横浜市鶴見区潮田町２丁目87−３ 本田ハイツ 104,FALSE,35.5038364,139.6846985
E9DCF56C-3D3B-CDC5-09F0-F2B6B5404139,ChIJi2a6SaeTGGARPV6zt0L8Vh8,食撃の琥煌,173-0023,東京都板橋区大山町２５−７,FALSE,35.7487863,139.6983326
5EEE6621-D531-3A5C-90FE-E722C85E7863,ChIJq_YQEQWD918RktWRPCH14Gw,中華そばげんじ,939-0243,富山県射水市下若75−１ 口福食堂げん太内,FALSE,36.7186173,137.0795908
4630A840-7F3E-B238-98E2-E0B0EE0FD962,ChIJWc7mRwU1GmARyG3EokB29ok,らぁ麺 もち月,424-0008,静岡県静岡市清水区押切１４３４,FALSE,35.0287343,138.457349
F80D0C22-4808-C5AC-9515-5BCF0C21E0B9,ChIJnWcIXrWjQTURsikr8-biuBU,夢の一歩 本店,841-0055,佐賀県鳥栖市養父町６５−１,FALSE,33.3805767,130.4988413
E7922F28-129A-57B4-2BBC-B58AE458CA69,ChIJNbMXi1FrBGARy0nyi52Yz-c,特濃のどぐろつけ麺smile,515-2115,三重県松阪市中道町５３０−４ フードパークこむぎむら 6号地,FALSE,34.6231254,136.5160462
2E97AF20-E265-6BE1-4410-9A1CA2D3445C,ChIJ5XGY0F3jGGARRKUNsrHMQH8,らーめん ぱったぱた,190-0021,東京都立川市羽衣町２丁目４５−１１,FALSE,35.6925251,139.4255514
5E85EC36-8BE5-0B91-7B05-10E0C06CEAA0,ChIJM0-7xZijWjURBot-4KYZCJ4,広島牡蠣と和牛ラーメン 衝青天,730-0028,広島県広島市中区流川町８−４ 日宝ミンクスビル 1F,FALSE,34.3892535,132.4644975
B61C964E-3B07-08B4-61B8-0BFD23BCE8D8,ChIJp8KpaLOR918RH-Vukap4vJQ,麺屋つくし 富山駅店,930-0001,富山県富山市明輪町１−９０ きときと市場とやマルシェのれん横丁,FALSE,36.7014573,137.2144834
DD25A7DD-DE03-E1FC-B1B8-06CEC218E718,ChIJoy-83oSQ918RxL7meYlXY6o,まるたかや 富山駅前店,930-0003,富山県富山市桜町２丁目４−２ MELビル １F,FALSE,36.697886,137.2130058
04C41A6C-0B09-7FA5-6B5B-4D4ACE1E7865,ChIJfzGbuL6LGGARmm1MKrT5-H8,長岡食堂 東京ラーメン横丁店,104-0028,東京都中央区八重洲２丁目１０−１ 地下街北 B1階 1号,FALSE,35.6815243,139.7695847
F0D4DC9A-E65C-32B2-B7F0-D9E51FDFCAA5,ChIJuZtjLZCPGGARNQ2WJZ7A38I,日本橋 朱鷺,103-0001,東京都中央区日本橋小伝馬町８−２,FALSE,35.69138,139.7781361
E27C15AE-8E29-669B-35CC-7F212C2B17B9,ChIJFcDXO5v2GGARzdi9q1FwUJs,中華そば 薫風,213-0013,神奈川県川崎市高津区末長１丁目５１−１０,FALSE,35.5935555,139.6028442
0F867BDC-2AEB-F11C-44FB-8C642A63E0DA,ChIJP-EO9jaLGGARmKtT0q4diXo,だしの虜,106-0032,東京都港区六本木３丁目１４−１６ ペンタビル 1F,FALSE,35.6627292,139.7343292
4B62EA2D-AB6F-3F37-7C1A-9A7CA1376987,ChIJazS-bxup9V8RcJsUCLvK3_A,にぼし中華 廣はし,940-2112,新潟県長岡市大島本町２丁目１１−２４,FALSE,37.4435453,138.8248359
CF9558A3-3BB1-9A03-F9BF-9AFDBCAB82DF,ChIJbUH9vT8_UTURIK-6KlXBoHM,中華そば 笠北,715-0019,岡山県井原市井原町３２３−４,FALSE,34.5981802,133.4631935
4754E248-6F36-560F-1D0D-361F3B97A79B,ChIJ5eSxWy4oil8ROIK8bTn2jHk,嘉一 国分町店,980-0803,宮城県仙台市青葉区国分町３丁目８−１２,FALSE,38.2676738,140.8683738
1458C38B-8885-B85E-CE02-780E442CAC5A,ChIJU4IqajhNGGARS6_1zsLP9KA,乗鳥,113-0021,東京都文京区本駒込１丁目１０−５ 牧野ビル 1F,FALSE,35.7244956,139.7508636
EAC4CA79-38E8-6A1A-06DE-89BA39DCE52D,ChIJv9f1dJuFiV8RriPCs0VDu0w,中華そば蒼穹,985-0024,宮城県塩竈市錦町１５−７,FALSE,38.3067325,141.0160756
E71061A9-D5E7-2271-047E-D29431D0DB4B,ChIJM0pfsZoeGWARu8RW8aznb8Q,海友,193-0835,東京都八王子市千人町１丁目１１−７,FALSE,35.658403,139.3142531
CB5F9635-FF80-E785-5476-F22DFE5A9CA3,ChIJ2arpLHkeGWARyDy3xpa20sg,ちとせ,192-0075,東京都八王子市南新町８,FALSE,35.6589269,139.3298979
DFC48B7E-2B27-47F8-49E3-9285EED644F3,ChIJ0fDefihLH2ARIoEWep9P-H8,七の庫,306-0235,茨城県古河市下辺見２２３５−１,FALSE,36.1948013,139.7343093
3CB4DA3E-F333-9FFA-44A3-AE2D87D77C97,ChIJFUmflX2LGGAR72gjQHIiWKM,富喜製麺研究所 六本木店,106-0032,東京都港区六本木３丁目１３−１０,FALSE,35.6627747,139.7336788
5EE08E58-36C0-A0F5-6EA1-8D5BF500272B,ChIJObtL15BPH2ARqkqbTp1btZ0,しじみ中華蕎麦 イツ花,323-0806,栃木県小山市中久喜１１７４−３５,FALSE,36.3184249,139.8461715
7DBFF334-7B85-46CA-79DE-1776C7F306E0,ChIJubymuaRHH2ARgbYLlddxgwg,中華そば とちの葉,328-0072,栃木県栃木市嘉右衛門町２−１１,FALSE,36.3878024,139.7335316
CD4AC31A-47C2-21B7-ABC3-085A58B3A1E9,ChIJc1TBtfxbH2ARZdx2Xt1ctgc,ラーメン専科 竹末食堂,329-0431,栃木県下野市薬師寺３３１１−６４,FALSE,36.4054356,139.8581736
8FEFABA1-4ADF-BA69-6BC4-87F65EBBB3FA,ChIJURqXE2uNGGARHcbAH5lIVaU,RaMen TOMO TOKYO 九段下ラーメン,102-0073,東京都千代田区九段北１丁目９−２ エクセレントビル九段 1F,FALSE,35.6976086,139.7511829
5980DCE6-1E53-8709-DFAF-40250EE35660,ChIJuUP4R1nxGGARRbN_ZdwBkRg,鎌倉だし工房 絹と小麦,248-0006,神奈川県鎌倉市小町２丁目１１−４ 吉岡ビル １階,FALSE,35.3202403,139.5524056
CE95489A-2899-524D-62B6-A199CAE01268,ChIJ54yMhczzGGAR06cN5qD2i5U,むかん,164-0011,東京都中野区中央２丁目２−２４ 大江戸コーポ 106,FALSE,35.6980407,139.6820845
BB007545-05CC-611E-79EB-B308F5B1DA28,ChIJ0QKdcBKv918RmU4DfNDJ0NY,麺と和と、,938-0045,富山県黒部市田家新６９８−１,FALSE,36.8547506,137.4388713
6F778A79-F672-6EC9-7425-399245B145A9,ChIJC_VmoZXrUzURqKwqDf9kWZg,さか枝うどん 本店,760-0017,香川県高松市番町５丁目２−２３,FALSE,34.339807,134.04162
7353F5D4-2C2C-F817-40FD-7C603B21AFD9,ChIJwS-bSr2jHWARgN_XhDcxXcs,麺道 金獅子,386-1102,長野県上田市上田原１１１２−１,FALSE,36.3901661,138.2273652
8E308E91-CEC0-FBAF-07D0-9DBFC7AC59B5,ChIJ-blLJ8LtGGARn4QrGWfhHzU,中華蕎麦 はる,167-0022,東京都杉並区下井草３丁目３０−１４,FALSE,35.722411,139.6247209
CF6D430B-FE58-1B28-336A-D71BC644DC86,ChIJ9x-w6N75G2ARo3q0wuGDnAM,初志貫徹,400-0042,山梨県甲府市高畑１丁目１０−１７,FALSE,35.6527343,138.5619454
8E91AC33-A636-0645-833E-057EB715E45E,ChIJ26FXVdSNGGARemmW4f9Iii0,輝道家直系 皇綱家,171-0021,東京都豊島区西池袋１丁目１８−１ 五光ビル １Ｆ,FALSE,35.7312512,139.7092562
1CA528BA-DE81-A494-9FDD-30FFD9568BE1,ChIJif_PXOqLGGARBvBo-BGnDLI,麺屋 味方,105-0004,東京都港区新橋４丁目６−１０,FALSE,35.664792,139.7555887
DEE5294C-A860-6A60-9192-91B24FD5EE87,ChIJ10h7RgldH2ARaE8tQNAWgYA,麺双 架論,321-0912,栃木県宇都宮市石井町１４６８−６,FALSE,36.5459035,139.9350784
D32C8242-33B8-77A8-938C-9D957C166877,ChIJTyIqTS4gGWAR6r6pFOGIHyk,麺や 田むら,197-0023,東京都福生市志茂143- 7,FALSE,35.7380973,139.3319892
DA863497-8C4C-932A-45E6-884D75D1C7D1,ChIJ5wxjsLjzGGAR89ewsYA5-Qk,OLD RAMEN,157-0073,東京都世田谷区砧３丁目５−８ 2F,FALSE,35.635175,139.6109657
FD3125A6-8EAE-5B06-437B-11E777ED5CE9,ChIJ57DHWdYfGWARci8JEJ6gNok,ベイビーマルソンさくら麺菓SAKURAMENKA,197-0003,東京都福生市熊川１６５５−３ 白鳥第２ビル 1F,FALSE,35.7228122,139.3435764
A48410E5-D9D1-1244-1DF8-6926CBF0122F,ChIJR2Sf-PfRBGARSFz7M6rk5ro,らぁ麺 幸跳,441-8083,愛知県豊橋市東脇３丁目９−５,FALSE,34.753402,137.3702413
F28A5B54-6C1E-13FE-9F3F-FE5926783811,ChIJ81wfPvRlHWARUBNQqFWJdDM,らぁ麺 麦一粒,399-8501,長野県北安曇郡松川村 字赤芝７００２−３,FALSE,36.4170295,137.858552
34BD3A95-BA82-E222-84DE-EF4804DB9BFF,ChIJB9ZdJl79GGAR0a3uAsqpdao,中華そば麺や 六助,252-0231,神奈川県相模原市中央区相模原２丁目３−１４,FALSE,35.5808969,139.3686456
20EE3FBE-C80C-C542-1EFA-8C030B719159,ChIJf1MQr3aNGGARDGzKF7KRuQE,みや穂,170-0005,東京都豊島区南大塚３丁目４８−５ 大明ビル 1F,FALSE,35.7304989,139.7273387
9A3FB215-DFAD-6C4E-BDAE-ED00D2166F05,ChIJOZ01DIyJGGARhmpmUUffEwM,DURAMENTEI,136-0071,東京都江東区亀戸３丁目４５−１５ 鈴木ビル 1F,FALSE,35.7017924,139.8223705
FEA6F1A7-2C0E-F85F-73A5-368B275A2706,ChIJvWK7T_uNGGARskQ668jgncI,らぁ麺 めだか堂,103-0021,東京都中央区日本橋本石町４丁目５−１５,FALSE,35.6888506,139.7709693
502CEE4C-A04A-A69C-4AC8-961BEC996792,ChIJEbH-naGFGGAR8NNO6PUksg8,三つ由,271-0046,千葉県松戸市西馬橋蔵元町１８６−２,FALSE,35.8140403,139.9117949
FFA1732E-B2D7-DABB-4E7E-B1349BB12B41,ChIJ0zKDm86NGGARWksUaorHoGY,そば〜じゅ(RAMEN SAUVAGE),171-0022,東京都豊島区南池袋２丁目１３−１０ キャッスル小林 1F,FALSE,35.7260854,139.7132645
93B46072-3DC2-34A5-5064-E0D157D1F6CE,ChIJDSsEbAwoil8Ri8yPCtEdmoA,仙臺 自家製麺 こいけ屋,984-0073,宮城県仙台市若林区荒町１５３,FALSE,38.2489228,140.8845499
84104533-2662-31C6-BF21-7278841C7169,ChIJvcRTCtuHGGAR1bBelHd4gEk,仙臺自家製麺こいけ屋分店 綠栽／和酒場 深綠栽,124-0024,東京都葛飾区新小岩２丁目１３−４ 佐藤マンション 1F,FALSE,35.7157627,139.861656
020DEF99-3346-196B-9E8E-E17A4D69D3CA,ChIJ3WQAAS-LGGARvxxyMpDSin8,純米味噌らーめん なかむら,153-0063,東京都目黒区目黒１丁目４−１５,FALSE,35.6344896,139.7134967
27876328-8DB6-6B76-990D-1E47A0021EB8,ChIJ4yv1N9iSGGAR0y7hrgTVQnA,うまいラーメン 麺処 さとう 板橋本店,174-0052,東京都板橋区蓮沼町２２−６,FALSE,35.768822,139.702533
F5C6CBB1-F462-D0C2-DC9A-BE8215020FE3,ChIJB_ex63v0GGARTYQ1pmMB2hw,ラーメン 麺処さとう 世田谷・桜新町店,154-0015,東京都世田谷区桜新町１丁目１３−９,FALSE,35.6314494,139.644112
0AFF63FF-01AC-E383-3263-CD831D0C8D9A,ChIJbYuNsByNGGARjJ9jS3Jd9E4,麺や 穂ころび,113-0033,東京都文京区本郷３丁目３３−３ 本郷ビル １F,FALSE,35.7064764,139.760906
55A8E6B5-31D3-ED44-5B33-45AA79F90D44,ChIJfZWc327UGGARO_XWkwiR3qg,ラーメンつけ麺 奔放,355-0035,埼玉県東松山市古凍１２,FALSE,36.0155437,139.432478
A026755D-F30F-A79F-6E3A-94D404D4C885,ChIJxbfJWvvxGGARLy3cjYLi1bQ,中華そば つけめん 甲斐,168-0082,東京都杉並区久我山２丁目２７−１,FALSE,35.6874965,139.6000131
F37C0C5D-F278-0282-39E7-8CEDD497F1CF,ChIJIcJDqkRBImARddobJ0wtuoM,麺や 虎徹,311-3512,茨城県行方市玉造甲６６１−６,FALSE,36.1003139,140.4154094
D4252B9C-4670-EE38-76C6-261D107B551B,ChIJf_xlu78HAWARlh1bscEEApI,山﨑麺二郎,604-8462,京都府京都市中京区西ノ京北円町１−８,FALSE,35.0194889,135.7316414
AE58A015-44E0-75E5-F8C0-96382A684F01,ChIJpaDv6WHmAGARlf2jQOgSl6Y,ラーメン人生JET,553-0003,大阪府大阪市福島区福島７丁目１２−２,FALSE,34.6986086,135.4865983
5F96164E-997B-8086-5543-1B402AA35AC6,ChIJU5FYBJ3hAGARRMhShvejlGE,麺や しき,570-0082,大阪府守口市豊秀町２丁目１−３ エスポワール豊秀ワン 1F,FALSE,34.7383067,135.5649111
5A994B33-01FB-1399-C07E-141F570F89F7,ChIJ01PBNnPhAGARpkIRkuk7ZTE,麺匠 而今,570-0075,大阪府守口市紅屋町６−１６,FALSE,34.7279112,135.5567914
A0C5ADF7-0A00-D356-808C-8BFE67A02407,ChIJ72-SnGXjVDURKSbJ-_NZz6o,中華そば 麦右衛門,671-1561,兵庫県揖保郡太子町鵤４９６−１,FALSE,34.8344316,134.5759236
1C6B7163-85F9-2DED-ABBE-42EDD911AF09,ChIJC2Pfw73mAGARkdMg82J6N3o,総大醤,530-0021,大阪府大阪市北区浮田２丁目４−１６,FALSE,34.710284,135.507706
29B25FB5-5677-1D76-B9CA-1B79FF69BD60,ChIJ5fajLBEHAWAR9t1ja3z_AXs,昆布と麺 喜一,602-8478,京都府京都市上京区西五辻東町７４−２,FALSE,35.0310606,135.7423451
A4FF6FED-31AF-0469-0D90-47395DF81F7E,ChIJYRZ82JcIAWARAx-4yz9KLoE,麺屋 猪一 離れ,600-8076,京都府京都市下京区高辻通堺町西入泉正寺町４６３,FALSE,34.9999817,135.763261
B231385C-DB0D-BDEC-D1EC-DA7207B2DB26,ChIJW3RUsz3kAGARH-LBZeOhYus,手打ち麺 やす田,533-0033,大阪府大阪市東淀川区東中島１丁目２１−２ 新大阪ハイツ 106号,FALSE,34.7329538,135.5040189
FEADD355-02C2-9C4E-8154-60C8A461F6E2,ChIJ_zgtC1WLGGARLOeXeuORjxw,うさぎ,150-0045,東京都渋谷区神泉町８−１３,FALSE,35.6557027,139.6934934
8E10833A-26A4-D1A0-5DC7-68717996E8EB,ChIJ6YM_5KmNGGARigrbxFpDAmI,鯛担麺専門店 恋し鯛,101-0061,東京都千代田区神田三崎町３丁目１−１８,FALSE,35.6992163,139.7533925
F74EAEA7-2183-B71F-58AF-70B7EB6C7B0E,ChIJFbX7_byo9V8RwK6Zjs1NPK8,青島食堂 曲新町店,940-1103,新潟県長岡市曲新町３丁目１２−２２,FALSE,37.4216486,138.8452438
9FF9A3E3-6462-D69E-FE51-59E976E2BD86,ChIJR7brFbBzA2ARqdffKZ4CL20,麺や たけ田,485-0039,愛知県小牧市外堀２丁目２３５,FALSE,35.2785994,136.9102039
028149EB-9093-977E-22B7-37A1741308AE,ChIJh-pyaVCFGGARKxjom3Mk-xU,ramen club トトノエ,125-0041,東京都葛飾区東金町１丁目２０−１４,FALSE,35.7699569,139.86891
0416953E-E16E-FBA3-12B0-C89B5AF37355,ChIJRRvxPHSFGGAR1Nfono42Re4,金町製麺,125-0042,東京都葛飾区金町６丁目２−１,FALSE,35.7679875,139.870842
5A78434C-CACB-1125-D7B1-035AAA4CFBE7,ChIJFXsBuIrvGGAR36WE2Hgblio,ワンタンメンの満月 三鷹店,181-0013,東京都三鷹市下連雀４丁目１６−１５ 東洋三鷹コーポ 104号,FALSE,35.695664,139.5610592
D2A46B95-C39F-8A0A-B081-4F79B860863B,ChIJMx0zgy3lAGARIG3ucfiGitc,中華そば ココカラサキゑ,532-0004,大阪府大阪市淀川区西宮原１丁目７−３９ メゾン第２新大阪,FALSE,34.7335483,135.4906991
1EFA4A66-5A26-AA96-A137-D0D134DA9C09,ChIJw4QnL9HpGGARhNHRAfynhic,めんや正明,353-0004,埼玉県志木市本町５丁目２３−２８ 本町カトレア,FALSE,35.8244419,139.576145
3D89ADBA-1131-AE95-5CED-AE5FF8941C62,ChIJQT3bd_ftGGARWsDz5iwjGzc,中華 マツマル,167-0051,東京都杉並区荻窪５丁目２２−１１,FALSE,35.7031141,139.6204809
CA277F7F-EF2D-26E5-01AA-E540E54BFD9E,ChIJpw40klZgHmARgvgFIKy30rg,伊勢屋坂下店,377-0008,群馬県渋川市渋川坂下町８９８−５７,FALSE,36.502705,139.0043781
F109860A-118F-EF0C-5CDD-8C83D9EDB936,ChIJw0FFtmeMGGAR0F7bhsBTRLo,黄金の塩らぁ麺 ドゥエイタリアン 市ヶ谷本店,102-0074,東京都千代田区九段南４丁目７−１７,FALSE,35.6918057,139.7390225
25217C92-6E18-2150-8F1C-57651CBDD866,ChIJ97SwcVICGWARzgQejN5tvko,麺工房 隠國 愛川本店,243-0301,神奈川県愛甲郡愛川町角田７６８−９,FALSE,35.5371235,139.3280964
4AA8DA3D-EFB1-B0B4-85EC-7E4172D478D7,ChIJvUOpbywnImARpgYceujEE04,かたばみ,311-0117,茨城県那珂市豊喰１４１−２,FALSE,36.4309648,140.4625285
750C974D-6518-4654-2692-EC20F9D043AA,ChIJI9r0ssOOGGARAT7HzZVGfb4,らーめん弁慶 浅草本店,111-0033,東京都台東区花川戸２丁目１７−９,FALSE,35.7151857,139.8007913
1AE16C1D-5105-91C5-750F-BB9DB1A2239F,ChIJndSxN3TzGGARuhrT_zM2BuI,勝や,154-0022,東京都世田谷区梅丘１丁目２２−１１,FALSE,35.6555122,139.6533497
DC9816E6-F55C-D312-EBCE-A42B5A8E6484,ChIJwU8XyfUJAWARF-qBYr05Eg8,Gion Duck Noodles,605-0073,京都府京都市東山区祇園町北側３２９ ３２９ 1 階D号,FALSE,35.0043193,135.7767872
E147F84B-E6FB-24D2-0C4C-818C75439661,ChIJR9dQc-JwA2ARqdJzZ5wk5fY,徳川町 如水,461-0023,愛知県名古屋市東区徳川町２０１ 日幸ビル １階,FALSE,35.1830412,136.9283988
BAE15646-F2E1-B95E-8373-EF5B1BC21B87,ChIJAQDUY3gfGWARLC1fCpMbOuY,らーめん 五ノ神精肉店 煮干編,197-0822,東京都あきる野市小川東３丁目９−１３ 森田ビル,FALSE,35.7200877,139.3237833
F8FA0DA2-EBBE-4D8D-1E40-E259757C947A,ChIJr7X-WRM0-F8RamORYLHQkDU,自然派らーめん 神樂,921-8033,石川県金沢市寺町１丁目２０−１０,FALSE,36.5456384,136.6576416
278293CA-ED2A-5894-06BA-7F01F34496CB,ChIJ0ZvtSJHcGGARBucZY9vguSg,麺屋 英,356-0058,埼玉県ふじみ野市大井中央４丁目８−１３,FALSE,35.8599448,139.5020109
9AB96CD0-499A-0515-45EA-3FA8AE70492E,ChIJv4hfwngfGWARFCnQEL7lGFs,鶏白湯そば 界,193-0835,東京都八王子市千人町２丁目２０−５,FALSE,35.6571944,139.3126288
2928590A-59DB-2886-8836-E49C7C888E39,ChIJb1izVbiBGGARM66xUNlGnTk,支那蕎麦 大丸,274-0807,千葉県船橋市咲が丘１丁目５−２０ カマガヤテラスハウス,FALSE,35.7576252,140.0182962
478CD81F-33DA-6C60-C728-61D2CCD1CC80,ChIJMZklGNgdGWARs3IhDxsROeA,一麺,192-0084,東京都八王子市三崎町５−１３,FALSE,35.6577197,139.3354988
E35B6803-9FF7-37FC-5EC9-FEF09EC9535F,ChIJBfQW4TSLGGARLgqW7d1tPo8,中華蕎麦 無冠,141-0031,東京都品川区西五反田２丁目６−１,FALSE,35.6268804,139.7220461
E01A3FE1-00EF-EBE7-2547-F988FDD686EA,ChIJQSq3Yj5xVjURSIWRHeqHkd8,牛骨ラーメンたかうな 琴浦本店,689-2316,鳥取県東伯郡琴浦町下伊勢５２７−６,FALSE,35.490279,133.6974198
1DB6F475-CAD2-3BB0-BCB7-2C8FE1B7E0DA,ChIJdS5lyYj0GGARQ0cDU0JIaPA,煎り酒と麺 しもきはら,154-0012,東京都世田谷区駒沢３丁目１４−２,FALSE,35.6308406,139.6550203
599DAFC6-8434-0DA2-7DDF-ABC6734A3A4E,ChIJn29zlsX1GGARPbK_xLXNZRk,らぁ麺 みうら,213-0004,神奈川県川崎市高津区諏訪１丁目３−５,FALSE,35.6068068,139.6229599
A545D6E8-C315-5554-A62B-FF71037ECF4D,ChIJZYNMykv1GGARE_fZSt2l4QU,らぁ麺 浅川,223-0066,神奈川県横浜市港北区高田西１丁目１６−２０ サンプラザ綱島,FALSE,35.5533268,139.6111122
67664F65-DDED-A511-6439-9CA6364D43A8,ChIJP-nVt7MfGWARiihuFBqB64Q,ハイデン.コッコFACTORY 戦慄のワコマチカ,193-0835,東京都八王子市千人町２丁目１６−６,FALSE,35.658533,139.3107209
641339C9-1E24-32A8-476E-A8371385D1FA,ChIJRVC9tp9PGmARTdBi_o7g10U,ちっきん,426-0012,静岡県藤枝市田中２丁目１３−６,FALSE,34.8728953,138.2778542
073C7DB1-2EC4-91D1-2522-66FD17D218EF,ChIJl6tjRLDhGGARC4dRNlQc-iA,らーめん カッパファクトリー,190-0011,東京都立川市高松町３丁目１４−１４,FALSE,35.7028432,139.41624
EB1A5921-24D2-AA95-CE85-735F45CF6D2E,ChIJy3TQXJ37GGARnRc2OyH7dek,しおらーめん 進化 2nd,195-0062,東京都町田市大蔵町３３７−１,FALSE,35.5874584,139.4688579
A9D0BAF9-C7E4-948E-78B9-4EDBF4FBD0C9,ChIJ1ymOh8SNGGARP4Ry0X3Zfxs,なかご,107-0052,東京都港区赤坂３丁目１６−３ 1F,FALSE,35.6747101,139.7370055
0CFDB5D4-A7D2-494C-E4A7-A3EE69358A88,ChIJG3S49RXvGGARcD_jKxglbZA,中華そば 一丸 KAZU-MARU,202-0022,東京都西東京市柳沢６丁目１−２,FALSE,35.7282751,139.5525959
77FAD845-718D-0B7D-252D-82A6D4A9162B,ChIJKzMTuzjHBGAREJKyYq9ZEdY,だし・麺 未蕾【みらい】,443-0059,愛知県蒲郡市本町１−２５,FALSE,34.8270392,137.2280511
64D76DD4-DCE0-E088-7B27-F48C63DD4E86,ChIJRTR3sJTiGGARpyhbQX02kmg,口樂,192-0372,東京都八王子市下柚木２丁目９,FALSE,35.62803,139.3850511
A99123DD-7B40-991E-9F75-387822B50DA9,ChIJv-jK1gwMImARUFPXaNxVENg,煮干中華ソバ イチカワ,305-0005,茨城県つくば市天久保２丁目９−２ リッチモンド2番街,FALSE,36.098365,140.1083905
42B996BF-11DC-3030-77BD-CD4457F59243,ChIJwV9puiJcGGARNC-GYUTUjqc,らぁめん夢,221-0823,神奈川県横浜市神奈川区二ツ谷町１−２１,FALSE,35.4761054,139.6307657
700A3403-71AF-9CDA-DA48-4C70C2E6E05E,ChIJUcSwwUZ6A2ARQjun_aSVYO8,らぁ麺や 汐そば 雫,467-0827,愛知県名古屋市瑞穂区下坂町4-15 スターリア1F,FALSE,35.122967979368,136.925779984649
8AB40FBF-6226-6229-416B-9A88D2493768,ChIJg0FUFfrdGmARVOSUd63axi0,麺創房 一凜,430-0811,静岡県浜松市中央区名塚町２３５,FALSE,34.7023152,137.7576332
8BDC99F9-9773-BDD8-0D0B-0F74957FD8C2,ChIJnbyfBayLGGARxMi14t9jo0M,真鯛ラーメン MACHIKADO,150-0013,東京都渋谷区恵比寿４丁目８−１０ コンフォート恵比寿 1F,FALSE,35.645669,139.7133768
825B8E0C-9554-10DF-E557-DBD8AF6B0F33,ChIJ0ZvxinONGGARtJju-zbK-b0,中華蕎麦ジンベエ,170-0001,東京都豊島区西巣鴨３丁目１９−９,FALSE,35.7423164,139.7265911
636DBA53-BEC8-0498-6C3E-AFB99CC78DAF,ChIJ4dZ4QqSPGGARKP6xionjKfI,麺屋 木ノ下,130-0002,東京都墨田区業平１丁目９−９ 第一町田マンション,FALSE,35.7082487,139.8110535
11481D1F-0CDC-CEB6-7F9D-96A998FD03EF,ChIJS6bGpwniGGAReMXPMYBDUcI,中華そば専門店 あさひ軒,191-0065,東京都日野市旭が丘６丁目５−１ レスポアール旭ヶ丘 1階,FALSE,35.659711,139.3679971
5B7A2F2C-0D4D-160E-0A0E-76E40C28E55E,ChIJ669C02-PGGARHGIjY2zGXjo,ストークメゾン業平,130-0002,東京都墨田区業平２丁目１６−１１ ストークメゾン業平 101,FALSE,35.7091576,139.8111694
7E325DEC-4909-FDA6-8630-AD1668B7C46B,ChIJf8G9350lImAR8VYfDWCOjjI,らーめん コットンポット,310-0801,茨城県水戸市桜川２丁目５−７,FALSE,36.3691435,140.4797942
A7EE86BA-E127-3234-715D-EA88986CAD16,ChIJU2SOsKPnGGARNKIOu_vxRV4,中華そば と,187-0045,東京都小平市学園西町２丁目１３−２０,FALSE,35.7228821,139.4775779
D18C8803-D925-B47F-24E2-F158053B813F,ChIJZQAJl9d8A2ARmsDJDYV_qZU,酒楽亭 空庵,458-0917,愛知県名古屋市緑区武路町１２２,FALSE,35.061759,136.9705568
B9EAE91D-E913-4360-4AAE-0E3C2347FFE8,ChIJAQAsyXNQGGARl1-Z4SgRxAc,自家製麺 カミカゼ,245-0062,神奈川県横浜市戸塚区汲沢町１２０２,FALSE,35.3890358,139.5207817
20216C77-78CA-FB04-7E29-54FBAE4FCFF9,ChIJ0VwBOb3xGGAR8rkfKmzR_B4,支那そば めでた屋,182-0002,東京都調布市仙川町１丁目２５−２,FALSE,35.6608327,139.5874371
6966DF38-8175-5650-02AA-BA2D4B53C695,ChIJ1TcmmkyeLxURtOBH4E4-7XM,麺道 麒麟児,381-2224,長野県長野市川中島町原６５７−４,FALSE,36.5839697,138.1501025
374C2C7A-BE37-B9A6-96D1-494D75D4B90A,ChIJS4O50RkPHWARpkMr4IoCWkM,小麦そば 池,390-0811,長野県松本市中央１丁目２５−１ 犬飼ビル D,FALSE,36.2336819,137.9648184
9316A283-E12C-98FF-B431-291FA2EEB102,ChIJ8xr7mF2NGGAR5rcpjzy0SlU,頑者 TOKYO UNDERGROUND RAMEN,171-0021,東京都豊島区西池袋１丁目１−３０ 東武ホープセンター内,FALSE,35.7303009,139.7097911
D8FBDCA5-D4D9-A9E8-DA41-7DFB54A3D3DC,ChIJGQ-F6EuCGGARaTv5yuxVR3s,13湯麺（かずさんとんみん）,270-2213,千葉県松戸市五香５丁目１−１,FALSE,35.7943203,139.9821692
EFD400C5-67E6-1957-4156-269EF7C30283,ChIJ3b6QCNrdGGARaANGyRpD7hk,所沢大勝軒,359-1111,埼玉県所沢市緑町４丁目５−４,FALSE,35.8065897,139.4524086
F74C13D0-BDC6-DADE-1160-5E751B5DDE3B,ChIJN0Efs41cGGARIUNhXTt5rRw,麺屋Ｍ,231-0057,神奈川県横浜市中区曙町４丁目４５,FALSE,35.4392388,139.626545
6FBF897B-4BA7-AED5-3D87-C9F3FBB03DF5,ChIJ5ytgiijtGGARyIpEMZUu_TY,麺屋 喜楽明人,174-0074,東京都板橋区東新町１丁目８−１０ パッション,FALSE,35.7599691,139.6820436
53D98D75-F442-7F87-2FCE-4B41939A6B8D,ChIJgat-KSH1GGARnx4sFaUvO0I,中華そば なかはら,145-0065,東京都大田区東雪谷１丁目８−１,FALSE,35.5993854,139.687239
A70F50C8-A3E1-298B-9D56-DA90514450F5,ChIJd8b-Bs2DGGAR-fE5WKGCHt0,麺や木蓮,273-0121,千葉県鎌ケ谷市初富３０−１７,FALSE,35.7806641,139.9753311
FFF2C3B7-97AF-B97F-3167-01BFA881E5C5,ChIJy7-TGHnzGGARcqMqvBPl1ts,ラーメン箕輪家 中野本店（RAMEN MINOWAYA NAKANO）,164-0001,東京都中野区中野５丁目５３−２ １F,FALSE,35.7090359,139.6665787
C3610959-5A44-93A6-A4B6-4E3241FD26AA,ChIJH9oOinFVGGARa1IXHTzjBWs,製麺食堂 あぶみ,252-0826,神奈川県藤沢市宮原３４１０−１,FALSE,35.3990456,139.4091893
106CAA35-5A01-5A99-7DAC-0BF5965D43D2,ChIJaXVy12X1GGARfc5tzJWB62c,麺うらた,152-0035,東京都目黒区自由が丘１丁目１２−５ 美観ビル 1階,FALSE,35.6079096,139.6696441
E2618AF1-9D05-957A-D786-16972F46939F,ChIJw8WezPP3GGARcVEyOTApRQY,白河手打中華そば こすが,225-0003,神奈川県横浜市青葉区新石川１丁目１９−４,FALSE,35.5684476,139.5561032
87D780F7-08CE-680D-8E04-0E707B8B0095,ChIJi5XetdTfVDURomYj2gXRySE,麺 昌まさ,672-8002,兵庫県姫路市北原１１３９−１,FALSE,34.802665,134.704239
D70565C0-1CF2-7989-7D8A-5BF7B5F8CE27,ChIJ5blhe0iEBGARaiZdF3-Qa7Q,麺屋 さくら,475-0903,愛知県半田市出口町１丁目４５−１６,FALSE,34.9022614,136.9243311
2C370152-72AE-1D67-BFB5-B324D70FB602,ChIJU_vi2Wv1GGARCLKhgOQhHkM,中華そば 千乃鶏,154-0001,東京都世田谷区池尻２丁目３６−１１,FALSE,35.6482266,139.6805505
223BC9D6-0293-C0D6-30D5-7A22DAC030B4,ChIJky92Xav0GGARixja_bu_8VU,麺屋 和利道,153-0042,東京都目黒区青葉台３丁目７−１０ クロスワン,FALSE,35.6513068,139.6899333
974EBD45-89AF-3C18-B2E3-AFF428085BA3,ChIJWf-3m1nLGGAR7jokioi6g-w,麺屋みつば➕クローバー,349-1114,埼玉県久喜市河原代６７７,FALSE,36.1086469,139.6994729
6271D2C0-6CAA-0290-490E-E49D6C148C17,ChIJ3Y2xRzYHA2ARsoigtoo1b_0,貝出汁ラーめんクラム,504-0911,岐阜県各務原市那加門前町３丁目３９ シャトウ'88 1F-B,FALSE,35.3993442,136.844169
1DE03D77-27A6-74BA-ABC6-C2FE484317E0,ChIJbUw-xwh0HmARdZ0pYjaqi-4,らーめんダイニング庵 -Ramen Dining An-,377-0533,群馬県吾妻郡中之条町折田２１９８−１,FALSE,36.6074692,138.7952376
13A23E86-B203-E3C5-2E64-3CCC60EE13F9,ChIJrVLAl0-FImARjjP2dHgUFCM,(株式会社scLabo),260-0013,千葉県千葉市中央区中央３丁目９−１４,FALSE,35.6091268,140.1238859
C64CC1F7-743B-5FA0-E501-C27FFAB52696,ChIJc_ipGl8HAWARgX4i2cpPKno,中華そば 麦の夜明け,600-8881,京都府京都市下京区西七条掛越町12−５,FALSE,34.9926711,135.7313003
DBF8855C-FFDF-C7BC-1070-603E020AAF7A,ChIJZyEI2eRZIGARDffi4EY7akQ,さんくるげ,963-3602,福島県田村市滝根町神俣梵天川52,FALSE,37.3243097,140.6580124
A570BCC4-BFB2-E6FE-1751-307031598F3C,ChIJWYsKh0btGGARZgbrW3jlYTM,麺や 金時,176-0004,東京都練馬区小竹町１丁目２−７,FALSE,35.73832,139.678286
DCF81367-C325-7812-DE6E-E24AD60E13B2,ChIJ_fjqAsqPGGARLmhhVOWVW58,ヌードルボウズ n坊,111-0053,東京都台東区浅草橋１丁目３３−５,FALSE,35.6986941,139.7849329
9B0060CB-6B78-FA1D-3021-AF144A326ED3,ChIJvwPOGKufjl8RdPzvcwjXl0A,花鳥風月 酒田本店,998-0875,山形県酒田市東町１丁目３−１９,FALSE,38.9074798,139.861831
298411DA-78BA-F77A-EB93-93501B416BBA,ChIJEToizGpFGGAReqW_4KBsdVI,Ramen Free Birds,247-0005,神奈川県横浜市栄区桂町１８１−１２,FALSE,35.3616183,139.549433
EE2DE21A-48BC-E287-6E80-8CEC6AA30499,ChIJu2Rb2oyOA2ARex9EQw0KCEM,鉢ノ葦葉,510-0823,三重県四日市市城北町１−１２,FALSE,34.9653262,136.6119055
F6452B48-06E0-5D92-9046-C6D660BE32BD,ChIJ1WqgE9QdGWARWkUwl9X7pDs,でうら,193-0931,東京都八王子市台町１丁目６−１２,FALSE,35.6521553,139.3286827
AD05393E-E4A0-A09C-56C4-E2719A92BA07,ChIJy9xhCv1WGmARzWMVzk8ND1k,めん奏心,428-0017,静岡県島田市金谷栄町３５３８,FALSE,34.8308341,138.1292153
3ACA2042-19C5-810B-6B84-58B6EF43EF35,ChIJM11GvYeNGGARXzH_AdH6g_0,こいけのいえけい,112-0011,東京都文京区千石４丁目２５−６ 夏野マンション 102,FALSE,35.7302701,139.7394863
35A842EF-E87E-2365-BFDA-8474D2B80D35,ChIJh3LFIFmJGGARidGkIUUvfGw,HIMIT ヒミット (by Menya Ikuzo Tokyo),103-0023,東京都中央区日本橋本町４丁目１１−１０ 日本橋さくらビル １階,FALSE,35.69059,139.7761208
1520F495-A101-4444-617D-31F3A90E2A66,ChIJwVYf6ku1GGARzZTQ8-7_GIg,麺堂稲葉,306-0052,茨城県古河市大山５６０−１,FALSE,36.1486928,139.7158171
FE32F7F7-70A5-6FE9-3FD9-92A54DE03F2E,ChIJpY091jrzGGARza-CR8ML1Ok,生姜醤油専門 我武者羅 幡ヶ谷本店,151-0072,東京都渋谷区幡ケ谷２丁目１−５,FALSE,35.6779234,139.6784588
68665C05-304D-01B9-CCE1-2A242D6B1033,ChIJMTdkILrsGGARmMNtAlTA2qw,らあめん 元,174-0043,東京都板橋区坂下２丁目１６−１１,FALSE,35.7842804,139.6796446
4F021728-747D-8B4A-1F68-376EBDA6C8D2,ChIJqfmG0A_uGGARWcYAsjEgjXw,はつね,167-0053,東京都杉並区西荻南３丁目１１−９,FALSE,35.7034621,139.599795
D9CDB350-DFEC-D99D-0841-F03FFB0CF56E,ChIJKWBQsI6LGGAREPnSbrYMmaY,麺屋 おやゆび,105-0014,東京都港区芝２丁目３０−９ プロシード三田 １Ｆ,FALSE,35.649795,139.7521537
15FF3815-9720-6C93-6056-BF3042AC7997,ChIJNbnsrkiOGGAR7bktdCCg3fg,麺屋 音,120-0034,東京都足立区千住３丁目６０ 土井川ビル 1F,FALSE,35.752104,139.803592
27E3DB48-080D-36FB-6D42-0D4E50EC7B71,ChIJVUO_2eZTGGAR2LL7wG76aKU,らーめん まつや,253-0006,神奈川県茅ヶ崎市堤７３−５,FALSE,35.3671285,139.4337105
2DC6676D-FC95-7388-6112-D84A4D5E3B18,ChIJ3a7YM8oCAWARl4RgtIKqMs4,彩色ラーメンきんせい 高槻本店,569-0802,大阪府高槻市北園町１８−１,FALSE,34.8499249,135.6216766
397CA970-DEA8-D70A-139A-A9B831ED289F,ChIJX4wyA8KDGGAR4teeAo3ENJ8,とら食堂 松戸分店,270-2221,千葉県松戸市紙敷１丁目８−６,FALSE,35.7759798,139.9578273
AA8EA5B7-5440-C55F-2B4E-1B41F0D245AA,ChIJKyBSaWmdHWARup9oHMhXnik,麺処 浮き雲,389-0821,長野県千曲市上山田温泉２丁目２４−２,FALSE,36.4791453,138.1417567
2AC08E9C-6023-909C-3392-B583E0F40E0D,ChIJiQnVWpojImARoAJMGPjRTrs,中華そば 鈴乃家 本店,310-0911,茨城県水戸市見和２丁目２２０−５,FALSE,36.3732683,140.4300242
2A2DA99D-7ED9-1181-5E5D-8B92A3A7BACD,ChIJz0ilA8dPGGAR7bImzOOFAVo,麺場 飛猿,251-0032,神奈川県藤沢市片瀬３丁目１−３６,FALSE,35.3157363,139.48598
E88AFA1A-9F16-56CD-57F1-447790271CF8,ChIJFcbK79LfGGARYYlLwkshfnM,Omiruk,359-1163,埼玉県所沢市西狭山ケ丘１丁目２３５−５３,FALSE,35.8050919,139.4073831
3B6976B5-0F2B-9F8F-3F9C-12388322F38A,ChIJK_GBEL-PGGAR2Y3H9iR_6t4,麺道 六善,125-0061,東京都葛飾区亀有２丁目６８−５ 105,FALSE,35.762493,139.852218
63BE32AC-FC9F-A506-0525-9B0B4F1B7E95,ChIJ43cJN1oFGWARfFB-NCysS60,Cafe WILD CHICKEN,243-0111,神奈川県愛甲郡清川村宮ヶ瀬９５１−３,FALSE,35.5265874,139.2254733
7EF9A124-1BFA-20DE-28BB-921FE7AD38C7,ChIJM4gscck3AWARBgRkEXe5JTw,せんいち,632-0016,奈良県天理市川原城町８０１,FALSE,34.5997864,135.8308223
57A34667-C030-B2F9-8CD6-AD7698158DE4,ChIJXdzvEdFPGGAR4CNafmhOLjs,鮮魚鶏出汁麺 沢むら,251-0002,神奈川県藤沢市大鋸９９９−８,FALSE,35.3498179,139.4940096
F4C91F37-D0A6-0928-91AB-FFD9444C241B,ChIJf-G-Hxjk9F8RINzRNCec5J8,杭州飯店,959-1288,新潟県燕市燕４９−４,FALSE,37.6752866,138.9130057
69714B1E-EFB0-D4AE-2A41-BFA636EE03E9,ChIJT2TZB04ZTjURU-jnfe0oo3U,拉麺一方 やすきや番地,780-8052,高知県高知市鴨部３丁目３４−７,FALSE,33.5452627,133.5006922
7CF1BF32-08C4-A700-AD83-34BF9B7C0B50,ChIJH_2Bq-eLGGARiXT0XSRoJos,自家製麺 伊藤 銀座店,104-0061,東京都中央区銀座６丁目１２−２,FALSE,35.6692929,139.7648908
89C07737-2939-FAB7-B2DD-9B8411AFBF84,ChIJ2V0jz83vGGARskNinTrm-LQ,麺屋YAMATO,181-0001,東京都三鷹市井の頭２丁目１５−８,FALSE,35.6926699,139.5871334
7E251C9E-E277-729C-5554-294A0ED0CFF5,ChIJ30gpU0WNGGARXXbhAnz5bGE,麺屋 翔 みなと -Menya Sho Minato-,163-0590,東京都新宿区西新宿１丁目２６−２,FALSE,35.6931586,139.6950708
46FA010F-2609-7545-5DFF-090D38A0FC93,ChIJ2773gzlRGGART78Hz7JI8Lo,あぶみ商店,252-0802,神奈川県藤沢市高倉７１８−１,FALSE,35.4094204,139.4716564
E7D25A4C-2C08-FB66-875A-ECDCDADE7D22,ChIJwflS4KdPGGAR2DHHnUlO3f4,本格鯛出汁らーめん うしお,251-0052,神奈川県藤沢市藤沢1006ｰ1ｰ105,FALSE,35.3419051,139.4833286
98161980-EDED-7E52-B94D-7207B5DEB80D,ChIJabxY2ymNGGARqMvGb64011o,はな火屋,160-0023,東京都新宿区西新宿７丁目１５−１７ 井西ビル 1F,FALSE,35.6952195,139.6981317
71FC6CFF-388F-1B72-B8C7-F8BF11DB97E3,ChIJd4kfSeGLGGARpcid5cr__rA,共楽,104-0061,東京都中央区銀座２丁目１０−１１,FALSE,35.6721155,139.7682417
B496D21B-A72B-2526-35C1-6771E47C430D,ChIJM4wmGFqNGGARmsrtZvGXUU4,長尾中華そば 神田店,101-0052,東京都千代田区神田小川町１丁目７−１０８,FALSE,35.6940516,139.7658463
7AAF1A6F-6B75-BC44-C739-3652DD9D0AA5,ChIJ__9vE4RyHWAR83MpRHNyfJI,ラーメンいっこく,399-7103,長野県安曇野市明科光２０４−１,FALSE,36.3309093,137.927415
EDA46EDE-38A8-4DA3-367B-BDA1E7C07912,ChIJl4rHY4HBGGAR4l3oizhAEt4,手揉み中華そば 中村,330-0844,埼玉県さいたま市大宮区下町１丁目３０−３,FALSE,35.9036363,139.6271487
2660C174-ED71-D126-2ADA-B875FA38694D,ChIJDQ3T9S02GmARNTtsY6H4B7o,麺処 汐のや,422-8036,静岡県静岡市駿河区敷地１丁目１０−２２,FALSE,34.9519838,138.4091088
0354BEC5-A3B3-B516-015A-5A5ED6654745,ChIJkRR5u-cpC18R-NXOfY30SeA,王道家直伝家系ラーメンMEN-EIJI EAK (メンエイジ－イエケー),065-0041,北海道札幌市東区本町１条９丁目３−３０,FALSE,43.0745071,141.3970997
4A7019AE-1AA5-5BF3-28C2-274685836529,ChIJ8TFXK3SpA2ARYlMhn2JsEMA,麺 㐂色,501-6001,岐阜県羽島郡岐南町上印食９丁目１０１,FALSE,35.3896865,136.7852656
E3DA09BE-FA26-D3D0-5A72-4A1F4ABFCFCC,ChIJoetoP0TvGGARMW6_kj-o-Tk,麺匠ヒムロク,188-0011,東京都西東京市田無町３丁目９−１０,FALSE,35.7301106,139.5420469
1C4C2E3E-51BA-428B-AD16-97A98442A87D,ChIJAzuYptl5UTUR06Xtf6GaTcA,一生麺a.k.a.ラーメン森,769-1508,香川県三豊市豊中町下高野４９０−２,FALSE,34.1602813,133.6881975
BD9BD9DA-7E4A-D715-DD4D-E0DF92A03F9E,ChIJoeHGtFTmAGARW1G6B0hBckE,中華そば カドヤ食堂 総本店,550-0013,大阪府大阪市西区新町４丁目１６−１３,FALSE,34.6760951,135.4838409
804A1CB9-0DC4-B86A-5A67-BBB2619EC69F,ChIJf-__Ek1hGGARpp4D0G0Kmdw,NIBOSHIMANIA,144-0051,東京都大田区西蒲田８丁目２−１ 西蒲田スカイハイツ １０８,FALSE,35.5609271,139.7140616
4BB8AB25-8CE2-8218-F2C9-113A60A1A76F,ChIJb1pype5hGGARpCBilhvZ98s,らーめん亭 ひなり竜王,143-0014,東京都大田区大森中２丁目１４−１７,FALSE,35.5673472,139.7356291
4AA176D8-79C7-6443-3A89-51916CE9A81A,ChIJRceqQkTvGGAR-s0n7SekGHc,麺屋 瑞風,188-0011,東京都西東京市田無町３丁目１１−１３,FALSE,35.7295616,139.5414764
95AB13F5-4466-9FC9-396D-8B422E397151,ChIJuTuF16ONGGARv5DJ2JKTgwo,RAMEN and TSUKEMEN Number.6,170-0002,東京都豊島区巣鴨２丁目１−２ ブラウンタワー 1階,FALSE,35.7340396,139.7383368
26E8A5D2-C19F-31CA-0953-5C8FE09C17AB,ChIJb-u9C6MeGWARg6aN2pw8kYs,大分とんこつラーメン 八作,193-0831,東京都八王子市並木町１４−１９ 井上ビル,FALSE,35.6516779,139.3008142
826D3DE3-E69B-51D5-C305-87DFDEAC25EC,ChIJSZdPaMeLGGARBoiKhTIZZUs,中華そば いづる,105-0012,東京都港区芝大門２丁目１−１８,FALSE,35.6565927,139.7531633
6B99214E-10B1-5371-A150-8820B1321A92,ChIJgQ5kFY2SGGARQtXt84Kpuxo,大ハマ研究所,114-0034,東京都北区上十条１丁目１９−７,FALSE,35.7593539,139.7231565
AC3E2EC9-14BB-EF06-AC33-E0EE69267811,ChIJf5Ydvd-PGGARZ1vdhDvKWcE,中華ソバビリケン 浅草店,111-0034,東京都台東区雷門２丁目４−１,FALSE,35.7090374,139.795754
6C1A9430-8B76-C558-63CA-7B38814401E1,ChIJeRJ0g3Y0VTURa7qZUJ3QuOs,紫川ラーメン,679-0212,兵庫県加東市下滝野１丁目１０５−１,FALSE,34.9386635,134.9488831
D829DC92-BC7D-6AF1-A815-EFE2A4128D9B,ChIJufyODr4IAWARNVu7xBbRG2w,麺屋 猪一,600-8033,京都府京都市下京区恵美須之町５４２,FALSE,35.0013284,135.7669639
751E42D3-2F49-E32E-EC10-C0323B33BD38,ChIJtbi6aHolImARxxq4K7hpIbk,旬菜麺屋 雅流,310-0845,茨城県水戸市吉沢町１８７−２,FALSE,36.3330231,140.4627803
5EBAFBE1-3016-DD48-0FB8-1D2A64626D17,ChIJc2kabv2NGGAR8cPei7G4Sps,デイトセイ高田馬場店,169-0075,東京都新宿区高田馬場３丁目４−１８,FALSE,35.7145274,139.7030403
E2D4B94C-C795-1530-DD14-68C4811F75FE,ChIJb3Jd9_J3IWARTL_L_8lv-wg,自家製ラーメン アイリー,318-0001,茨城県高萩市赤浜１３１２−１,FALSE,36.7405043,140.7252214
9D8F5BBB-53EC-07D4-D17F-F12EE2975319,ChIJp-azbPqMGGARAO33Xfh19Bc,中華そば 葉山,162-0063,東京都新宿区市谷薬王寺町１６−１,FALSE,35.6981302,139.7256255
A4BFF917-89A8-63D0-FE63-BC9B194452FB,ChIJ3R5OTp4eGWARJaKWwjjYNKg,ラーメン専門 トモエ 八王子店,193-0832,東京都八王子市散田町５丁目１８−１３,FALSE,35.6489916,139.3074924
CD60AFEC-B368-AD49-A703-54018D3A6B97,ChIJ6wmQSGLqGGARJsKi8yXx0rk,まかない へきる,336-0021,埼玉県さいたま市南区別所７丁目１−１４,FALSE,35.8460115,139.6494715
9CC83E23-4E35-1F52-6F8F-AA3CC9C0DE91,ChIJNUgx8YPqGGARAa2lRay3Emk,自家製麺 鶏そば 一瑳,330-0055,埼玉県さいたま市浦和区東高砂町６−１,FALSE,35.8570558,139.6592641
6016CD6B-932D-B16F-2CF6-7AB832292D76,ChIJq6qaaqLqGGARr9S6lw78eqQ,佐野ラーメン たかの,336-0015,埼玉県さいたま市南区太田窪２丁目６−８,FALSE,35.8623643,139.6719565
2564DB65-CFBB-8EAC-4EA1-B9EE02B03F3C,ChIJ54O9QTeLGGARdh84LWKuZq8,拉麺はま家,103-0001,東京都中央区日本橋小伝馬町８−５ 新日本パレス 1階,FALSE,35.6916395,139.7780303
3A16D394-50C9-0C70-9A37-FAE516F7F291,ChIJT-0jr1L1GGARAbRttApvqOk,Dad's ramen 夢にでてきた中華そば,152-0035,東京都目黒区自由が丘３丁目７−１,FALSE,35.6091837,139.6655758
1B42C61D-E586-40BD-BD39-05B2892CB7B0,ChIJlY3axkXnAGARaQYbRU695o8,らーめんstyle JUNKSTORY 本店,542-0072,大阪府大阪市中央区高津１丁目２−１１,FALSE,34.6670048,135.5142932
BFC51168-550F-77E4-C84C-DDE60ACE616E,ChIJS5aEuwAqIGAR_9eMcK_YTJQ,店内製麺 さくら,329-3133,栃木県那須塩原市沓掛７０５−１,FALSE,36.9520849,140.019736
C3BE33DA-3EE0-5B14-9879-838F7B0AA067,ChIJy3rOzsPtGGARgz-Xr2908Tw,麺や 河野,175-0093,東京都板橋区赤塚新町２丁目２−１３,FALSE,35.7711542,139.6419371
95C8077A-5679-0760-9AEA-D799F9832337,ChIJn7suUsA6IRUR1Z9QUwbZBQ4,湖麺屋 リールカフェ,401-0502,山梨県南都留郡山中湖村平野４９３−１１１,FALSE,35.4102658,138.888016
C7F3063C-9D67-EE2B-D9E3-86622E0DBEE2,ChIJIcxUMuuHHWARUJd1B_lXw5Q,麺社 あし鷹,380-0935,長野県長野市中御所４丁目３−１０,FALSE,36.6360101,138.182023
5E1FFC51-1B3E-0FFC-107E-A81E53F4E124,ChIJ34CgHASMGGARG5poMVhiB1w,塩生姜らー麺専門店MANNISH 淡路町本店,101-0047,東京都千代田区神田司町２丁目２−８ マガザン神田 1階,FALSE,35.6931852,139.7676098
4070E016-B0BE-4618-9B13-FE9CEC4172EF,ChIJIfnddwONGGARMwXEZ6yl0AE,らあめん あじるく,170-0004,東京都豊島区北大塚１丁目１９−１,FALSE,35.7329487,139.7305815
0FE38E87-BA2D-0F39-6D5A-1DF684968AFE,ChIJ51HFPBQjImARZHPkOZ1yvoY,鶏's麺処諭吉,311-4152,茨城県水戸市河和田２丁目２４−１２,FALSE,36.3770074,140.4059856
D59177F5-418D-F978-5D3A-3E6A49FB4EDF,ChIJl3A-8Zw6IGARe4FXrhHhV7I,火風鼎,961-0885,福島県白河市鬼越４４−１６,FALSE,37.1085504,140.2119613
8CA22F0B-DD11-C2A7-8AAA-EA1CB5A81CF0,ChIJaxf_qiTeAGAR9nxlE2evY1E,麺や 福はら,544-0001,大阪府大阪市生野区新今里５丁目１−８,FALSE,34.6617393,135.5489174
05086E67-77EC-F218-811B-3E28F2FBE168,ChIJLSLY4g6PGGAReqFVA8_ZJss,中華そば 麦笑,130-0001,東京都墨田区吾妻橋２丁目２−４ フェスティワン １Ｆ,FALSE,35.7083743,139.8034377
28387FE8-D4BA-7B80-567A-948D80E3D8E4,ChIJPfXvegeNGGARodH5g4Axyhk,江戸麺 GOODLE,169-0075,東京都新宿区高田馬場４丁目１３−１３ 東海オリエンタルビル,FALSE,35.7129776,139.7011383
4E6D5C0D-9803-B699-CF79-1A9FEBC9F73E,ChIJ__-auVT8GGARrCNHsGGfyGI,麺屋 歩夢,252-0202,神奈川県相模原市中央区淵野辺本町３丁目２９−１３,FALSE,35.5740958,139.4067206
AE3534A8-F82F-1B6C-09F9-F44CC3196DA5,ChIJ-Uvjl8u4GGARrKldD-lxp8U,オランダ軒,339-0005,埼玉県さいたま市岩槻区東岩槻６丁目１−４,FALSE,35.9632596,139.7141044
E9D15B3A-75EE-7148-5D55-D21CAF1A85F4,ChIJO3sQyC2JGGARhCM_6GYx4lM,麺屋ルリカケス,135-0016,東京都江東区東陽３丁目６−２,FALSE,35.6696841,139.8101211
9BCFE4FF-14F1-365B-DA89-3AF379BE9DA4,ChIJ_br2HHuLGGARN3EWHWF7bBY,かおたんラーメン,107-0062,東京都港区南青山２丁目３４−３０,FALSE,35.6621914,139.7235313
EE8F1C48-B698-6A49-CC54-482D34AAC1EB,ChIJmfmCJ0b2GGARYTcKyxBsJpU,らーめん くじら軒 横浜本店,224-0015,神奈川県横浜市都筑区牛久保西１丁目２−１０,FALSE,35.5586438,139.578965
E09D311B-44BD-5D49-2D12-C65E49C898AD,ChIJ4eWkEBT0GGARSIvmbZ3EuAQ,鮎ラーメン 二子玉川店,158-0094,東京都世田谷区玉川３丁目１５−１２ 玉川三丁目マンション 102号,FALSE,35.6150946,139.6254295
C63898A9-9BF6-1475-D152-D8D5029A012E,ChIJ__-LBJrrUzURBcu2cCyU7t8,らぁ麺 すずむし,760-0051,香川県高松市南新町４−１１,FALSE,34.3400025,134.0489374
7D3024D0-FBFF-16A1-0280-3A548FDB549C,ChIJJ7OVq2vPGGARZzRCzdRRvhA,中華そば よしかわ 上尾店,362-0002,埼玉県上尾市南９７−５,FALSE,35.9958225,139.5865661
2020EF46-3EA1-C56A-DF85-CF9714E753E9,ChIJcyLiKtaMGGARGlb3Io-Rf3w,創始麺屋武蔵,160-0023,東京都新宿区西新宿７丁目２−６ 西新宿Ｋ－１ビル 1F,FALSE,35.6955679,139.6986477
C65648F3-3D63-7999-9043-BA1C19C2BC78,ChIJOWl8h3a9BGARC1ts5aeyFy8,自家製麺 公園前,444-0837,愛知県岡崎市柱４丁目８−１６,FALSE,34.922725,137.150324
628CE84F-8BBF-05CF-0E75-3E454CBBDE5C,ChIJQTsHSOqaA2ARYYSrV1LwcRo,らぁめん 登里勝,511-0039,三重県桑名市京町３９,FALSE,35.0633413,136.6934409
05008C29-1970-8838-B90D-8E91B8E262CB,ChIJq6oaCJNQGGARZA3_-Ba5ARw,味噌ラーメン 雪ぐに,245-0013,神奈川県横浜市泉区中田東２丁目６−１３ 爛爛,FALSE,35.4124265,139.5124945
AC33709F-3F4F-004E-B296-918F2F00D5FA,ChIJDQeRykHtGGAR73xqbnJTG5I,煮干し中華そば 江古田 三四郎,176-0006,東京都練馬区栄町４−７,FALSE,35.7376047,139.6718867
150A45D1-AC0E-C730-407C-96CF98A58061,ChIJJeG-E_aNGGAROzsfuurDAuc,味噌ラーメン 三ん寅,162-0801,東京都新宿区山吹町３６２ プレステージ３６２ 1階,FALSE,35.7092382,139.7303965
FC5923E8-2446-5444-5468-40FD21E27729,ChIJf2cIZAKNGGARaz9qx8iEDTs,麺屋鈴春,113-0033,東京都文京区本郷２丁目２６−１ 福重ビル 1F,FALSE,35.7048757,139.7608154
A198E2C9-3660-1856-4EF3-91A951CCC6CB,ChIJ5VR8VnFSjl8R_6lqwX392XQ,麺饗 松韻,015-0011,秋田県由利本荘市石脇田頭田頭１００−５,FALSE,39.3905809,140.0301442
4C05FCC1-D9ED-D474-BACD-ECEFD2B7BB3A,ChIJx5vbObHvGGARZAUAQKM4cks,らーめん文蔵,181-0013,東京都三鷹市下連雀３丁目２２−６,FALSE,35.7008444,139.5621584
D04ABCCC-A923-80A6-0968-624A03316ECC,ChIJx3cslVmLGGARmkTEsCF8YCA,創龍 produced by 野方ホープ,104-0061,東京都中央区銀座６丁目４−１８,FALSE,35.6716001,139.7616453
66AD64F0-5407-B25C-CF45-1DF1ED0E2C7B,ChIJN-X4KMRZGmARA7W0TVJKfAU,らぁ麺IZANOW,439-0018,静岡県菊川市本所３３９−１,FALSE,34.7660687,138.0980892
771342B4-6388-39D0-2979-123A7C83CFE4,ChIJgYE3lPqTGGAR54Lji5U0iWE,オールドラーメンショップ 逆流,115-0056,東京都北区西が丘３丁目１−３ 102,FALSE,35.7636157,139.7127252
34131772-E730-DBB0-D7CC-1C3FAF81945E,ChIJ_xGSS92cGGAR3wZ40rgRNmg,AKEBI,277-0005,千葉県柏市柏３丁目６−２６,FALSE,35.8606326,139.9742503
E9499FD9-3F2A-C1FB-01B0-0642E1C6B8BA,ChIJSe7is5aGGGAR3LIaQcg_Zgk,一兎,272-0035,千葉県市川市新田５丁目５−２３,FALSE,35.7311279,139.9113749
67BF20E0-10AD-3EA4-CA46-0BA4427F004B,ChIJl7P6pCwgGWARiEmM7bXU-rI,トマトラーメン カッパ64,197-0005,東京都福生市北田園１丁目６−９,FALSE,35.7328705,139.3255424
83750CCF-28D3-2740-3BCF-1379255E88AF,ChIJ5_kEroKLGGARU4NlyGSJt8Y,AFURI 六本木交差点,106-0032,東京都港区六本木４丁目９−４ ＵＦビル ４ 1F,FALSE,35.663669,139.732601
E2F9E916-1142-3913-C7CF-2B152F27DE4A,ChIJHdMVfHyLGGARtFTG7WzMig0,銀座 篝 六本木ヒルズ店,106-0032,東京都港区六本木６丁目４−１ メトロハット／ハリウッドプラザ 地下２階,FALSE,35.6615483,139.7296634
B5027C8D-F012-8243-8A7B-A064BFE7BE30,ChIJVUCbyV1gGGAR9CHlMHJ8D_c,北海道らーめん奏（かなで） 蒲田店,144-0051,東京都大田区西蒲田８丁目２２−３ インペリアル蒲田 1F,FALSE,35.5602541,139.7138828
4D17F58E-5159-6A7C-D194-89B674549551,ChIJnW2egI4TjF8Rlz4OIDy4YJ8,中華そば処 琴平荘,999-7463,山形県鶴岡市三瀬巳３８１−４６,FALSE,38.7062173,139.6620548
C54A56D9-C5E8-1D4B-9FE3-E0C58A27076C,ChIJ3fv25MBNH2ARxIsQ7Qc0rlQ,らーめんはるか８６,323-0813,栃木県小山市横倉５８５−１５,FALSE,36.2814191,139.8308859
71AD7F44-E763-73C2-4904-D11A71AF92D1,ChIJoY8po-mKGGARxC5BRkFvC5w,らーめんえにし,142-0051,東京都品川区平塚２丁目１８−８ フジイビル 2階,FALSE,35.6158213,139.7137174
3961822B-F702-2740-CED9-F61950E27708,ChIJ95hIaEYvImARGyt2XaldaZg,らーめん和なり TRIO,312-0052,茨城県ひたちなか市東石川２８９７−１,FALSE,36.4109335,140.5361535
D4BB56FB-9915-2F9D-E74B-E5E298C4589A,ChIJnzTlLgoZTjURwHxZKgknioU,鶏と魚,780-0870,高知県高知市本町３丁目２−４８ 鍋島ビル 1F,FALSE,33.5590736,133.5357362
E9D5434D-62AD-24F3-7271-7E5C537BFB67,ChIJV3SH_X6NHmAR2h8r8HH3Ns0,らーめん つけ麺 けのひ,370-0065,群馬県高崎市末広町４−８,FALSE,36.3317447,139.0063948
0CA71243-3196-C586-C859-C7D472207582,ChIJUdGUyquJGGARomDfQPIpwk8,しののめヌードル,136-0071,東京都江東区亀戸３丁目４５−１８ 1F,FALSE,35.7017294,139.8218046
3697965F-BE4E-3343-3519-55B8FAAC1758,ChIJ1YbIq7GLGGAR9RPDqnTzJjg,貝出汁らぁ麺 虎武,105-0003,東京都港区西新橋２丁目２−３ 西新橋ビル,FALSE,35.6676813,139.7516121
833C9BA2-C505-C771-452F-A9139DB34B55,ChIJ-1gZzJngGmARaw7juqcvgf4,麺屋 龍壽,435-0052,静岡県浜松市中央区天王町１４０７−１,FALSE,34.7405223,137.7692956
DA2323B4-631B-92E2-7284-85C54D341942,ChIJVVUUvFNVGGARXMdx24wDKsU,mojamoja,243-0002,神奈川県厚木市元町７−１３,FALSE,35.4464377,139.3687528
30BEA38A-1B99-9555-20F9-A1A31F346126,ChIJpR7UKHTyGGAR2moFCU3F4BY,だれやめや,166-0004,東京都杉並区阿佐谷南３丁目３４−１０,FALSE,35.7038625,139.6347018
E9D5BC09-7CD1-C677-90D6-7AFC605085D3,ChIJuYtWE0OMGGARPinpgRrTtfs,飯田橋サクラテラス,102-0071,東京都千代田区富士見２丁目１０−２ 飯田橋グラン・ブルーム サクラテラス 1～3F,FALSE,35.6989789,139.7436278
F6838A0A-5957-2777-7CB4-F3A419E5307A,ChIJq6p9H3tOH2ARlPUZr_cN0lA,麺童 豊香,323-0812,栃木県小山市土塔２２８−３６ グレイド 1 101,FALSE,36.3018557,139.8211608
B3CC4E6C-389C-C433-88BA-7B7EA2D190EA,ChIJW-n4kFFPH2ARiMtzgxAf-qo,中華そば 卯月屋,323-0822,栃木県小山市駅南町４丁目２５−６,FALSE,36.3000431,139.8114491
D30F140B-3B37-9D32-5F2A-DC65623F090C,ChIJHYqyoubtGGAR-FrkRRFGtF4,らーめん 鳥繁,167-0043,東京都杉並区上荻１丁目６−２,FALSE,35.7049628,139.6213831
740E1E35-E35C-4747-0F33-0D3E70687CC4,ChIJq5RyKtnMBmARmQJ44AR3vCk,麺屋いちびり,634-0063,奈良県橿原市久米町５９３ 小柳ビル 1F,FALSE,34.4830487,135.7924047
9B606272-EB4A-7F54-9C05-DD64CA94E4A9,ChIJK_UqZHHfGGARHaSY_5j_d9U,Ramen611,358-0014,埼玉県入間市宮寺６１１−１,FALSE,35.7925801,139.3801156
0A3222E8-6518-EF4E-B073-F015B224EF26,ChIJ3S5lPtclC18RajKsnbxIRo4,麺屋くりた,002-8071,北海道札幌市北区あいの里１条６丁目２−２ クリーンリバーネオシティあいの里Ｂステージ 1F,FALSE,43.1560795,141.3993972
FA2CC5E2-A804-BBC8-6975-D5F4AF4CA149,ChIJAWRZDVyNGGARo7MKj2vB40g,MENSHO SAN FRANCISCO,160-0023,東京都新宿区西新宿１丁目１−３ 新宿ミロード 7F,FALSE,35.6894637,139.6996523
1D2A8E59-7890-E4EE-70F4-306527DD324A,ChIJm7nWvl6NGGAR_r3OLXwgmV4,秋刀魚中華そば 生粋,170-0014,東京都豊島区池袋２丁目１２−１,FALSE,35.7322465,139.7074897
9B38EF06-7BDA-6ACD-B5DE-50FD104778FA,ChIJb4k86lXfAGARURFghzkBQCc,上方レインボー,543-0043,大阪府大阪市天王寺区勝山４丁目６−３,FALSE,34.6547906,135.5259001
8520E709-5145-DCFA-DA18-6FCDF03ED965,ChIJ1ytU5iIlImARDiVW5BylFAU,中華そば ふじ野,306-0432,茨城県猿島郡境町下小橋２０１−１,FALSE,36.0987777,139.8107697
14BB0712-60B8-0DC6-8B82-2BC76E1C6B65,ChIJV4goyRWMGGARKjwdXMoOJp0,海老丸らーめん,101-0065,東京都千代田区西神田２丁目１−１３ １Ｆ,FALSE,35.6986716,139.7565143
1F9E31C2-9B44-89FC-BF57-BC262B7966A6,ChIJnZwn8OmHGGARIGFjltfup2g,麺屋yoshiki,124-0023,東京都葛飾区東新小岩１丁目３−７,FALSE,35.7190948,139.8582543
0A4F5032-BBC1-5BCF-3234-DF0DE8DE8E79,ChIJNxQA1wDlImAR8-H9cMH7NfE,麺屋 いとう,289-2144,千葉県匝瑳市八日市場イ２３７０−１,FALSE,35.7029352,140.5500971
8DE0D235-EBC0-D30F-0E5F-D9A323779080,ChIJXxf9yoweGWARg8-lX2vAWCo,初富士,192-0041,東京都八王子市中野上町４丁目１７−４,FALSE,35.669674,139.3181541
3BA6D45E-464A-BC8A-A96A-96424DB52997,ChIJVVVuLWbmHmARnSyh7IRVHSo,自家製麺 燵家製麺,379-2235,群馬県伊勢崎市三室町５３２２−４ イーストビレッジ,FALSE,36.3300111,139.2340521
0B6987CB-C90F-A275-CED7-010CE3B360A0,ChIJAQBE0nqNHmARrLOEJNyg51Y,中華蕎麦 あお木 second,370-0047,群馬県高崎市高砂町２４４−１,FALSE,36.3332763,139.0108383
C4DD9981-D81A-DD2A-34E6-520AEF834FEB,ChIJx20ALKtNH2AR2pGaI1kFCv8,YOKOKURA STOREHOUSE,323-0813,栃木県小山市横倉５９６−７６,FALSE,36.2816164,139.8288285
7D486617-4C44-C8B2-A865-08A13A78F753,ChIJ0dCM5LDjHmARtYkvjzjsq8A,らーめん 芝浜,376-0011,群馬県桐生市相生町１丁目３０３−１,FALSE,36.404019,139.316719
37EC1E45-AD90-59FF-4A45-6206E25CAF10,ChIJdayBFDM7ImARzkTelhAHzuE,中華蕎麦みうら,310-0846,茨城県水戸市東野町３６１−１,FALSE,36.3259558,140.4486333
9A715D90-E06F-8054-D16E-FA2C33D26452,ChIJ0e7S8OXLHmARtPJP_YT5DQY,らぁ麺 大金星,368-0072,埼玉県秩父郡横瀬町横瀬４２７８−１,FALSE,35.9907849,139.0945703
3E7D2A0D-5968-97F9-FD01-97EB2DE3FAD9,ChIJpxlACTDkAGARLn011bvjnKs,らーめん鱗 西中島店,532-0011,大阪府大阪市淀川区西中島４丁目５−２２ 第３新大阪ビル 1A,FALSE,34.7273279,135.4966895
6169139D-735B-8828-3D07-B2171E40BA43,ChIJcaltO3bbHmARhl_4hUxoEnM,麺処 青野,369-1221,埼玉県大里郡寄居町保田原２１５−１,FALSE,36.1184335,139.2109047
5C0A56D2-76C5-1AE1-458A-51FFF8689147,ChIJD48PsmeBGGARJ1bUNrRKeVY,麺屋 咲,273-0036,千葉県船橋市東中山２丁目３−２ 東中山駅前ビル 102,FALSE,35.7151029,139.9536956
606C87DE-E695-0168-847D-2FF54F6EBA80,ChIJZ6PRPfe3GGARFURZPx0ZqvY,中華そばイデタ,340-0114,埼玉県幸手市東2-20-40,FALSE,36.072108422091,139.720755815923
8B328AB7-8A9D-6E70-52A6-EA56128785C8,ChIJUcjHg9GBGGARXVKae0Cba1w,とものもと,273-0005,千葉県船橋市本町７丁目２３−１４ 文平ビル 101,FALSE,35.7066935,139.9818116
2E739F20-ECC3-2DD8-2323-7011070ECBDB,ChIJDX1eBBWLGGAR8CYZOa5nPuE,麺屋 焔,140-0014,東京都品川区大井１丁目５３−５,FALSE,35.6046684,139.7341146
4A63D0FF-9135-275A-7697-4110C9B6D41E,ChIJmw_rfLCLGGARxLK2a5RMjgk,かね田,100-0005,東京都千代田区丸の内２丁目７−２ B1階,FALSE,35.6797327,139.7651638
D4F77389-FA0B-9AC8-CF25-F7BE15EAB300,ChIJFZpVe32TGGARROmugIye7Jg,あさひ町内会,173-0004,東京都板橋区板橋３丁目５−１,FALSE,35.7501033,139.7121578
9AB88A45-7448-C2A5-87D5-F400FF22EE44,ChIJ27Vj6Z99AWARZ65bEW83cA4,麺屋小路,529-1411,滋賀県東近江市五個荘河曲町３３７−１,FALSE,35.1694595,136.1851725
01B25ECB-FDE2-1CE1-51BB-40680DF59A13,ChIJ-cuz_HiLGGAR7Utg_34EHL8,天鳳 TENHO,106-0032,東京都港区六本木７丁目８−５,FALSE,35.6650391,139.7296069
28D91905-DA45-7369-E4F3-8A122DDC9DCB,ChIJg8jLJA7uGGAR-uI5Ei2UfCg,支那そば いしはら,167-0042,東京都杉並区西荻北３丁目２２−２２,FALSE,35.7047967,139.5999603
A0C8358B-87E9-E340-1F1F-A041A4399409,ChIJl06XwYeKGGARD11LWyuApzY,丸 中華そば,140-0014,東京都品川区大井１丁目２０−２０,FALSE,35.6065403,139.7306057
0F7D6F20-46D3-B5FF-A266-EDDE86CE0C40,ChIJqz9OAGlgGGARxDF91UKfHoc,インディアン 本店,144-0051,東京都大田区西蒲田６丁目２６−３,FALSE,35.5651868,139.7091712
6C35490C-A8E5-16D7-F42E-48D0E5238999,ChIJ93u2uJvFGGARwCKlMvzMUdo,麺処ろくめい,362-0048,埼玉県上尾市川２５９−２ ゆりが丘ハイツ,FALSE,35.963023,139.575449
2F98BAE9-13EC-AFD5-C1E0-9562BD107BF4,ChIJfweafRHiGGARr7ap6htdDhE,毘沙門天,191-0062,東京都日野市多摩平１丁目６−１,FALSE,35.6624993,139.378451
AA051899-155D-F51C-A486-E3E71978A279,ChIJmYjq-fgfAWARwWHIWqV1YpU,麺や而今 大東本店,574-0043,大阪府大東市灰塚６丁目７−９,FALSE,34.6991138,135.6075311
95781468-1332-1F01-2346-255EF5084019,ChIJBfXF73knGWARhZk3BI_SZew,中華そば大咲,358-0054,埼玉県入間市野田６４２−６,FALSE,35.8458595,139.3559265
B46A3ED8-5A2E-4ED9-7A4F-F77BCE89C074,ChIJYeOKDcWNGGAR7M4jQtwl79I,神名備,113-0022,東京都文京区千駄木４丁目２１−３,FALSE,35.7310903,139.7607268
DBC1FD21-DDC9-B717-CF0D-81FFEB1373AB,ChIJ3RyZ7OuLGGARds7nozGZknE,酒肴場 屯 (TAMURO),105-0004,東京都港区新橋２丁目８−１７ KIビル 2F,FALSE,35.6675587,139.7563401
013DA650-F2BB-7A07-37A3-1F77827B151D,ChIJ-Z9gCkq5GGARWKnXIJ2mBmQ,金狼,344-0067,埼玉県春日部市中央１丁目５３−１８,FALSE,35.9774451,139.7525103
0EF5AE01-610A-30F9-2F27-DFF8B8CFA4EE,ChIJ-fm5QWrBGGARhjY512b8um0,狼煙 大宮店,330-0844,埼玉県さいたま市大宮区下町１丁目２５,FALSE,35.9034228,139.626209
119AB5B1-F3E1-8058-7A85-5EB8B431E831,ChIJw8cdU7LGGGARUtHfIal3_2c,つけめんらーめん 狼煙 本店,331-0814,埼玉県さいたま市北区東大成町１丁目５４４,FALSE,35.924004,139.622154
32EC54BC-4F50-658E-0B72-E092A3263B6B,ChIJ-_zwY31SGGARdXVR0YElaUQ,立ち吞み OKAWARI 茅ヶ崎店,253-0056,神奈川県茅ヶ崎市共恵１丁目５−１ 茅ヶ崎第2skビル1F,FALSE,35.3283463,139.4061636
B610484B-1FB3-6064-B8A2-53C564541291,ChIJg5iRKFaLGGARCQ7Bkf7UXKo,渋谷 麺屋武蔵 武骨外伝,150-0043,東京都渋谷区道玄坂２丁目８−５,FALSE,35.6586532,139.6982586
ADD5385B-F922-12FE-5DB0-CB6819ECD162,ChIJxUwX4GcfGWARPGIe1tCTN8E,中華そば専門店 麺楽,193-0931,東京都八王子市台町４丁目３０−７,FALSE,35.657425,139.3188569
E2351181-9A47-CABE-5440-A7D65DA4F3DA,ChIJd37fSimNGGARH7mMto2KCOw,麺屋 悠,169-0073,東京都新宿区百人町1-23-11 土田ビル別館 1F,FALSE,35.6996690606602,139.697299723481
7FE9EA02-AF04-1E2D-A7A1-83A6AFFAFBD8,ChIJvVQ0YfQhGWARbd1Vm5m5stg,太公望,197-0804,東京都あきる野市秋川１丁目２−６ エスポワール秋川 1F,FALSE,35.7283287,139.2881573
9339FF99-264C-E2A3-7F95-B73BD796BACA,ChIJlyTVMveJGGARcWfHtzvagkg,ツキとシュウマイ,104-0045,東京都中央区築地７丁目１５−５,FALSE,35.6651214,139.7751423
BD0925E7-ADEF-E697-2EF0-FBBF1CACCEBA,ChIJ-xLv1NSOGGARKMIShXneH0I,すっぽんラーメン 光福,130-0003,東京都墨田区横川１丁目９−３,FALSE,35.7040774,139.8109784
A3F1FC1F-B2D4-69A4-DEB5-B2FB0C353C56,ChIJAUxUi0fzGGARIa284djsr_w,清湯豚骨白醤油拉麺 LABO麺,164-0001,東京都中野区中野３丁目３６−５,FALSE,35.7051011,139.6646773
FEC2A91E-28DA-EFBD-F29D-890F395CE580,ChIJ3T9Dk23mAGARZkLf5iAfKRU,中華そば 無限,553-0001,大阪府大阪市福島区海老江５丁目５−１０ 前田ビル,FALSE,34.6966027,135.4722006
BF97BED8-205B-69EA-371B-EF080B14E185,ChIJD2-x3DXnAGARb6Q8qg6UPkU,中華そば うえまち,540-0005,大阪府大阪市中央区上町Ａ−２２,FALSE,34.6768658,135.5210564
5F7C6786-7D62-25B3-ED63-F3FDEAE66B95,ChIJlyAQ8_k6H2AR3Rw0WV9tR4g,麺屋ようすけ 本店,327-0031,栃木県佐野市田島町２３２,FALSE,36.2910722,139.5641597
E6B44E88-72DD-05F6-848E-530FEBB999DA,ChIJzz7bcW-TGGARJnIFDv2cSHY,自家製麺 竜葵,332-0017,埼玉県川口市栄町３丁目５−１５,FALSE,35.8037363,139.7186236
C9861C21-882C-5927-8275-B5D031CF768D,ChIJla-0JqjrGGARLPgjJpmNdCI,中華そば葵,333-0851,埼玉県川口市芝新町２−１９,FALSE,35.8292119,139.689816
88B7AA6B-D5C0-E7BF-B9C6-AED405A0A803,ChIJPbNYnKiLGGARr7Bk6Tmwu5g,麺屋 智,153-0042,東京都目黒区青葉台３丁目２１−1 0,FALSE,35.6491306,139.6920311
72299054-5788-95F8-D93D-92E1409019AC,ChIJj26iJHXxGGARjcTWg5iAY88,麺処 絢,182-0004,東京都調布市入間町３丁目１−１,FALSE,35.6501194,139.5900417
3BBE4681-BFEC-4E49-4F29-A00B397070D7,ChIJd2U9oxt3ImAR_L7NlVTCzPM,煮干しだし醤油ラーメン 桂,270-1147,千葉県我孫子市若松１７０−６,FALSE,35.864588,140.0251439
772CFE6C-7CB8-54F8-0D18-D2B4E87E9884,ChIJQeHeBsWIGGAR7VoAcu4Wb5k,亀戸煮干中華蕎麦つきひ,136-0071,東京都江東区亀戸５丁目１３−２ スクエア三報１Ｆ,FALSE,35.6990589,139.8262806
A71F41D0-5F12-C5CF-0AC0-B0E6B6248579,ChIJ36x9rz2NGGAR69ucFjfRTB0,渡なべ,169-0075,東京都新宿区高田馬場２丁目１−４,FALSE,35.711922,139.709637
8E51EB1B-252D-68B8-7D4A-367886B99542,ChIJ43z7ZByLGGARAfjTdoCJWmQ,麺や 維新,141-0021,東京都品川区上大崎３丁目４−１,FALSE,35.6341915,139.7187601
71343F82-590B-155F-D2A0-18A83A8EBAF2,ChIJizAJEViNGGARfD70OfhYppE,麺処 篠はら,171-0014,東京都豊島区池袋３丁目１−４,FALSE,35.7330216,139.7021994
DC4B8402-97E8-B39C-D380-999A7C9030A0,ChIJE7th1xK8GWARQxVxqKFd6S0,らぁ麺 飯田商店,259-0303,神奈川県足柄下郡湯河原町土肥２丁目１２−１４,FALSE,35.1446163,139.1097555
0658F196-7F34-D392-773F-4FEE61687A19,ChIJNVwspS1gGGARaMfnKZoYeyY,六厘舎 大崎店,141-0032,東京都品川区大崎２丁目１１−１１ ウィズシティテラス1階103号,FALSE,35.6170268,139.7293655
F0818D74-1598-6E88-E6B1-B68ECC08F6DB,ChIJq6qWE-byGGARtuQb6iApn3c,純手打ち だるま,166-0012,東京都杉並区和田１丁目１８−３,FALSE,35.6909424,139.6665226
7F7AB81D-782C-825D-0369-A3B7AB9DB10F,ChIJUw3I7gCJGGAR6TjWq52Kz5c,麺屋 吉左右,135-0016,東京都江東区東陽１丁目１１−３,FALSE,35.6684679,139.8103078
9FCE7CF1-2D53-A849-F389-1B98623AEF4C,ChIJX6zXeu5cGGARmL5p57C155M,地球の中華そば,236-0016,神奈川県横浜市金沢区谷津町３４７−１０１,FALSE,35.3427436,139.6228164
5B88F039-CA53-0827-E6F0-6524D4771F5E,ChIJSxfZNl6MGGARSSjQ4gU5rDg,麺や庄の,162-0843,東京都新宿区市谷田町１丁目３ クレセントビル 1F,FALSE,35.692804,139.735334
54EA0316-358F-8A8A-8CCA-56E151648E8D,ChIJzccVhu2MGGAR1gY02ePPmbQ,一条流がんこ総本家分家四谷荒木町,160-0006,東京都新宿区舟町４丁目１ メゾン・ド 四谷 106,FALSE,35.6892802,139.7215294
5E967F3D-0798-824F-7F96-3BF24AD440DB,ChIJuRYS-bqPGGAR3FoQkMYp3Uw,陽はまたのぼる,120-0005,東京都足立区綾瀬２丁目１−４,FALSE,35.7580447,139.8261419
1DC5596B-8348-097B-92BF-417DBC06EE05,ChIJQ-HEEFftGGARRkV6O0tf2ZM,カネキッチン ヌードル,171-0052,東京都豊島区南長崎５丁目２６−１５ マチテラス南長崎 ２F-A,FALSE,35.7290311,139.6827286
86B15D9D-DD81-5D01-68A5-6CAE5E0E7B9C,ChIJCZxqGkGLGGARzYuQxLXD_3I,おおぜき中華そば店,150-0021,東京都渋谷区恵比寿西１丁目９−４,FALSE,35.6470435,139.7080121
2D75F93D-6A25-742D-05AD-54A8D649842A,ChIJE9Yo0sWHGGARQZJlii7i9e0,大島,134-0091,東京都江戸川区船堀６丁目７−１３,FALSE,35.6795813,139.8699804
0A2C2A7F-A0F9-B821-4925-BDC0FB075F32,ChIJNTtq03TyGGARaeZ1PsfVfpw,RAMEN CiQUE,166-0004,東京都杉並区阿佐谷南３丁目１０−８,FALSE,35.7020798,139.6297359
42C65508-2D96-96E1-F4F7-25F8023A48C2,ChIJeS5N6hiMGGARefJMORLgr68,ラーメン大至,113-0034,東京都文京区湯島２丁目１−２ 佐藤ビル 1f,FALSE,35.7031066,139.7663559
003467A4-7141-5704-E727-EC79A2CB72CF,ChIJXV5hWRGJGGAR1i3peFEXj6o,らーめん こうかいぼう,135-0033,東京都江東区深川２丁目１３−１０,FALSE,35.6753009,139.7988027
429F551F-1D8E-2756-941A-06922D65903B,ChIJLd4Zh5nyGGARGJTguye1QtE,麺屋はし本,165-0026,東京都中野区新井１丁目２５−４,FALSE,35.711832,139.6657309
D2ACF1F5-6821-D850-DE0A-E0E44F6F196E,ChIJD2qUuCeJGGARQotL14V9siY,中華そば 満鶏軒,130-0022,東京都墨田区江東橋２丁目５−３,FALSE,35.6940232,139.8120935
79FE8CF5-4926-0C00-08D6-0C515D8CB5ED,ChIJAQBsRlaLGGARSeks6oq_SSs,らーめん はやし,150-0043,東京都渋谷区道玄坂１丁目１４−９ ソシアル道玄坂,FALSE,35.6573251,139.6979826
FC075DF8-AE1C-D41F-ECDE-271C583C6275,ChIJIw3yvWqMGGARbCCkAr5tCB4,トーキョーニューミクスチャーヌードル 八咫烏 CHIKARABO,101-0061,東京都千代田区神田三崎町３丁目７−１３ 三大ビル B1,FALSE,35.7014424,139.7520923
0B1CE5AE-3974-1748-90A6-4CA5D91F5CFE,ChIJZ1X3QYeKGGARodHE45AjC7s,中華そば 和渦 TOKYO,140-0001,東京都品川区北品川３丁目２−１,FALSE,35.6218926,139.7384385
5C1B39E6-7702-851E-00CE-3B2F3C4B5B43,ChIJ691ZlvOSGGARMgy5saZdwmA,燦燦斗,114-0032,東京都北区中十条３丁目１６−１５,FALSE,35.7645796,139.7257922
8305507B-ABB5-71B8-DE20-FB238C0D6200,ChIJzYoMvPWSGGARilHNJ1fBkhQ,我的中華そば 机上の空論,114-0001,東京都北区東十条３丁目１１−６,FALSE,35.7671442,139.7310774
E940A156-3D0B-2F70-0CD9-CD404F35823E,ChIJ3-Kq8YbtGGAR6TgyTuR_AHs,中華そば 麺壁九年,167-0023,東京都杉並区上井草１丁目２４−２２ 小山ビル 1F,FALSE,35.7234877,139.6140451
2844B788-930E-4099-CF0C-F15F77098383,ChIJ86NksdGNGGARe6Je_SozBes,麺や ひだまり,113-0022,東京都文京区千駄木３丁目４３−９ 麺やひだまり,FALSE,35.7285885,139.7643494
903EEF22-6B02-0B69-414B-EA90F0FAE1C4,ChIJCV4ZyEX1GGARzKGv3O3VDCM,らぁめん 葉月,145-0067,東京都大田区雪谷大塚町１１−８,FALSE,35.5901361,139.678973
9D398F14-5D61-26C4-A249-6898B6715F9F,ChIJMaNYZ0_1GGARK6gR9RKCV08,つけ麺 たけもと,145-0066,東京都大田区南雪谷２丁目１２−６,FALSE,35.59113,139.6813027
D503E769-FF4E-143B-9C1B-1983571CCB2F,ChIJZwe9PAmLGGARsNSpSk5whpI,中華そば 竹むら ラーメン 目黒,153-0063,東京都目黒区目黒１丁目６−１４,FALSE,35.6344742,139.7118134
981CF949-6102-9807-892F-DD01E1E03A77,ChIJE10Bwyj6GGARWiION8p7jN0,手打ち中華そば 竹の助,195-0054,東京都町田市三輪町１６５−２,FALSE,35.580742,139.495628
7CDE783C-34AA-1AE5-FD02-070786DE5CFD,ChIJzZh60inDGGARZGDav0UDd1k,寛,354-0024,埼玉県富士見市鶴瀬東２丁目２７−２７,FALSE,35.850243,139.5353454
82570C9F-96D9-69EF-9C83-9E496C13F857,ChIJp4swKyLpGGARNs77-P3FSRU,入鹿TOKYO 本店,203-0053,東京都東久留米市本町１丁目４−２８,FALSE,35.7592129,139.5321462
AFAD0C0A-2050-3725-EB55-059AF56EC73F,ChIJVVUB0qeNGGARk7lzKprcocw,生粋 花のれん,112-0012,東京都文京区大塚３丁目５−４,FALSE,35.7195961,139.7342497
CC9BCA69-4F2E-1CE9-917F-71CDCEEAE1FD,ChIJk50nSz2MGGARb5pL28kghWM,雅ノ屋,113-0033,東京都文京区本郷３丁目５−１,FALSE,35.7039577,139.7625376
510393C9-134B-C8EE-0AB9-4093FD5AA80B,ChIJqfLk3RfuGGARf-mIXtcGB6I,Tombo,180-0003,東京都武蔵野市吉祥寺南町４丁目１６−１２,FALSE,35.6986707,139.5894393
DFEED96A-7434-6032-7297-284ECA662B2B,ChIJdYI7ar2OGGARRKn-x8zrLF8,らーめん稲荷屋,111-0041,東京都台東区元浅草２丁目１０−１３ 島田ビル 1F,FALSE,35.7108155,139.7844807
5C9A8384-9090-5D13-BC46-42C2A55B26E1,ChIJYXI0-PuEGGARXIOhhARUK5A,中華蕎麦 とみ田,271-0092,千葉県松戸市松戸１３３９ 高橋ビル,FALSE,35.7818,139.9009632
66E3BA25-AAA8-5D1A-4589-EE7995C15E7F,ChIJAQAAAPuEGGARlSYWiv9zJjQ,松戸中華そば 富田食堂,271-0092,千葉県松戸市松戸１２３９−１ 関根ビル,FALSE,35.7832199,139.9014648
84D7C3B2-9469-5A60-AB30-EAA0121B0477,ChIJo4nIH63YdF8RNLF6RC1NDmg,麺や 麗,066-0035,北海道千歳市高台４丁目２−１０,FALSE,42.8368981,141.6524734
CB5A4D31-0CBE-7341-D8DE-13588C650B95,ChIJ8UhigdyMGGAR94C95ofdIuY,煮干中華そば 鈴蘭 新宿店,160-0022,東京都新宿区新宿３丁目１１−１２ 永谷テイクエイト 1F,FALSE,35.6916866,139.7067141
01F50028-A336-BEF6-4051-D6FC7DEDD696,ChIJVRXWQKH0GGARgDT-Z2POo9s,めん 和正,154-0004,東京都世田谷区太子堂２丁目６−２,FALSE,35.6457752,139.6748422
5FFC462A-5256-15D2-46D0-BB0F5C9767E0,ChIJ0UUNYKaOGGARACJvO2mvdXE,ラーメン食堂 粋な一生,110-0015,東京都台東区台東１丁目２７−２ 竹善ビル 1F,FALSE,35.7016422,139.7767599
984855FC-82D6-89A3-9765-D1E944CF6478,ChIJuzaE0_2MGGAR0vGbxPyqcao,としおか,162-0851,東京都新宿区弁天町２０−１０２ ロイヤルプラスパー １階,FALSE,35.7047168,139.7265282
762DD08C-8741-8217-63DE-3175CC1DEE60,ChIJB4uMH7HvGGARQmD2S8VmNto,みたか,181-0013,東京都三鷹市下連雀３丁目２７−９ ニューエミネンス B1F,FALSE,35.7010036,139.5612164
E6629508-F1C5-83A1-000A-9148A3DA690B,ChIJqbfXqtPlGGARE9vsr5cfuFk,ラーメン 焼きあご煮干しらぁめん 碧猫 府中 分倍河原,183-0021,東京都府中市片町２丁目２１−１７,FALSE,35.6688762,139.4687343
215552D2-02D7-37A5-5C85-75794AC16389,ChIJlQWJNeqLGGARYs6ppukFLhI,新橋 纏(まとい),105-0004,東京都港区新橋３丁目１３−２ IKENOビル １Ｆ,FALSE,35.6657726,139.7562741
9CF3140D-7BDE-260F-2B35-C3A67702FFAD,ChIJmenfWN2LGGARgV38phOeUxw,麺処 銀笹,104-0061,東京都中央区銀座８丁目１５−２ 藤ビル 1F,FALSE,35.6662251,139.7634212
83126507-F7E4-C966-7672-78D7A817CA8B,ChIJkw8PTRCoAWAReJtuZpIHKLQ,らぁ麺とうひち,606-8007,京都府京都市左京区山端壱町田町８−６ 京福修学院マンション 1F,FALSE,35.0500201,135.7914224
F1F60EE6-30EA-6B2A-0194-F26D2ED260DA,ChIJsQ5zFHD1GGARWGD9r6ARsP0,麺や でこ,211-0063,神奈川県川崎市中原区小杉町１丁目５２０番地６ カサ·コルデロ,FALSE,35.579726,139.6595073
4C6BB13C-13DD-8E01-BBB1-685DE09EE47D,ChIJLWi7IDOXGGARvN0c8iTq2gM,煮干中華蕎麦 舞〜Mau〜,342-0041,埼玉県吉川市保３７−１,FALSE,35.8812388,139.8414952
536C0BA9-9584-7340-A312-232E7E90854C,ChIJt2Wr0UeNGGARKm2GSiGLpt0,麺創庵 砂田,170-0002,東京都豊島区巣鴨４丁目２４−６ 富士ビル 12,FALSE,35.7373869,139.7336064
3F795217-6D3F-7D61-8723-A8F2515B39B3,ChIJ7TH0dEclImARjv4IeTR-HdQ,中華そば 先崎,310-0851,茨城県水戸市千波町２３５６−４,FALSE,36.3579536,140.4479799
36343DE3-013A-955E-5F99-36EC18E00120,ChIJwRuk6MOSGGARH4dqt9gbZfc,麺庵 小島流,173-0001,東京都板橋区本町３２−１２ サンライフ本町 101,FALSE,35.759446,139.7075147
3ADE3F6D-D873-F80C-0C0B-CC2EF2FB6B93,ChIJHXhYUpuPGGAR5AVpWUjpDRA,自家製麺 純,124-0012,東京都葛飾区立石８丁目３−６,FALSE,35.7387233,139.8506087
84C8D891-B536-7488-B315-1AFC46170AA1,ChIJ_-tvkp-OGGARIZiWsWYZ2Ok,焼きあご塩らー麺 たかはし 上野店,110-0005,東京都台東区上野４丁目１−５,FALSE,35.7082788,139.7743022
6315D34C-716F-949B-CFE8-4896753F5419,ChIJf4V1vGiNGGARNjYFjH4YHAs,麺処 花田 池袋店,170-0013,東京都豊島区東池袋１丁目２３−８ 東池袋ＩＳＫビル １F,FALSE,35.7292897,139.7155645
E72AC793-F783-8D62-93F0-81B7C2CAEF41,ChIJ49tXz1PtGGARIlvW5mJPmx8,寿製麺 よしかわ 西台駅前店,174-0046,東京都板橋区蓮根３丁目８−１４,FALSE,35.7859088,139.6747265
6FBF7B81-B1C5-2870-4110-BDF3C1E1C718,ChIJwzfITHCNGGARUdlB5hN5k18,志奈そば 田なか,170-0013,東京都豊島区東池袋２丁目１９−２,FALSE,35.7307866,139.7234231
1237B40B-000A-7A4C-32B8-0C6F1D4FF6A0,ChIJp0jr3UodGWARcSS-SAVgHNc,麺処 そら亭,192-0911,東京都八王子市打越町３３４−５ スカイマンション北野 1F,FALSE,35.6437167,139.3549618
43A4451B-79C2-9490-5396-B4C1FF931037,ChIJQ-Bq5Y_J9F8RTnCTR3XAqCY,らぁめん 倉井,951-8061,新潟県新潟市中央区西堀通８番町１５７６−１３,FALSE,37.9256784,139.0444878
1D11714A-77AF-87C0-E099-0FEE8F28C344,ChIJAyOyEOKLGGARz0szOUKPsBI,麺屋 彩音~Sign~,141-0031,東京都品川区西五反田２丁目１８−３ グレイス五反田,FALSE,35.6264119,139.7214881
9D8CBCE7-E952-2B7B-1D76-35CAD984CC37,ChIJSXcA7tmKGGARNhOGbU07azA,ボニート・ボニート,142-0062,東京都品川区小山４丁目１−８ いつみハウス １０１,FALSE,35.6195493,139.7025125
BE150DC1-4257-2C4C-6FEE-2C1BBABBA1B0,ChIJj1x0OxmLGGARjv96F1NcxnM,麺屋 藤しろ 目黒店,141-0021,東京都品川区上大崎２丁目２７−１ 109,FALSE,35.6341181,139.7149078
5DC6EAB5-3921-4F4B-83E5-EF132B1F4FC7,ChIJ19vTbCuPGGARbVZ0j398a84,竹末東京,130-0002,東京都墨田区業平５丁目１４−７ フラーリシ押上,FALSE,35.7081435,139.8176397
0EA526FA-FD8E-BE6F-E0FC-633B4E2EABCF,ChIJHegNlQ7tGGARjEk-HOVAitI,RAMEN GOTTSU,176-0001,東京都練馬区練馬１丁目２９−１６,FALSE,35.7394109,139.6568335
1E909C9A-E225-2C23-E849-AE5474CA81C4,ChIJ2a1x6_CNGGAR-6hQSwPIlTY,破壊的イノベーション,169-0075,東京都新宿区高田馬場１丁目３−１０ 曽根ビル 1階,FALSE,35.7106489,139.7096487
7120FFE1-FA53-3FAF-0E43-9167A42E119C,ChIJHcBubmTzGGARmzMGTMW0ZM4,らーめん処 くろ助,166-0001,東京都杉並区阿佐谷南３丁目３４−１５,FALSE,35.7041215,139.6351995
A4F5FC74-6D88-C728-0623-4020913D0F91,ChIJYQqqmSPgGGARaPExYyGbGNU,UMA TSUKEMEN,190-0034,東京都立川市西砂町１丁目３−１５,FALSE,35.725045,139.372454
884E6F46-90BA-9C02-57F9-0E63A6F38301,ChIJCR7ZUTL_GGARzhvw1cHYT-M,奨,242-0007,神奈川県大和市中央林間３丁目４−７,FALSE,35.5082389,139.443433
9415377F-11B5-45CD-53F5-E945F6571867,ChIJo7Iz5DX_GGARl76_9C57MT8,つけ麺 ながおか,242-0007,神奈川県大和市中央林間１丁目１１−４,FALSE,35.5010518,139.4420248
B811231E-5A04-8B3A-26ED-3DA31190874B,ChIJwSkE8Y1hGGARqflsCb9aDp8,Homemade Ramen 青麦,143-0016,東京都大田区大森北２丁目４−８ 宏和ハイツ,FALSE,35.5847533,139.7321709
283CEC0C-07A2-4BCE-3490-25F7A0EE774E,ChIJVd_-DcCKGGARBvQ54PMkQqg,ラーメン 井田商店,142-0053,東京都品川区中延２丁目１６−８,FALSE,35.6092722,139.7107664
A8868DEE-57E9-7355-70BE-F8CD2DFFBE3D,ChIJcUMoCZCOGGARY3nowNQnMPk,麺処 晴,110-0004,東京都台東区下谷１丁目１１−７ リベール入谷 １F,FALSE,35.719648,139.7834013
C01DA53C-61DE-9F4B-D814-3443BB5ED57E,ChIJSeiAFTcdGWARzYi5q4fzHMA,麺や 菜かむら,252-0143,神奈川県相模原市緑区橋本２丁目８−１２,FALSE,35.5957915,139.3412019
4D826BF4-1DA2-8B17-03E4-7B3771CBDDED,ChIJw1wIbxIdGWARS-5xUgGd4qk,濃厚煮干しそば 丸にたちばな,252-0143,神奈川県相模原市緑区橋本６丁目４−２０,FALSE,35.5965666,139.3454872
FA17BB49-4F1F-52EE-3233-6BA8ADD1CE52,ChIJFeXlIuCNGGARvnRJsPZybv0,麺庵大和,162-0066,東京都新宿区市谷台町１８−５,FALSE,35.694522,139.717129
0EB560DF-EC2E-74D2-A054-52F1F8ECE85B,ChIJjykJZCCLGGARMx5vYqRsWYI,銀座 篝 本店,104-0061,東京都中央区銀座６丁目４−１２,FALSE,35.6712211,139.7613736
CCE6AD84-D215-1F38-CF49-BA6CFD213311,ChIJ18fPXS5RB2ARTpIZ3CXuvBI,和 dining 清乃 本店,649-0314,和歌山県有田市野５１０,FALSE,34.0786178,135.1314121
C7F23B7D-F0FF-19C5-2A94-FCF8F9BF78E0,ChIJ7x3v7h8hGWAR-tui-ibnKug,らーめんいつ樹 本店,198-0024,東京都青梅市新町９丁目２２１１,FALSE,35.7811716,139.3239656
CFB84C94-158B-530D-D796-A7F526B9EB5E,ChIJ8ecosMomGWARmKeH8bBvs44,ラーメン㐂九家,198-0021,東京都青梅市今寺５丁目１８−４９,FALSE,35.7929935,139.3051264
63F28EEB-06C4-C1D8-57A4-5E166179744A,ChIJqzwaM7kdGWARyx3thGVc9KM,えびす丸,192-0914,東京都八王子市片倉町２３４８,FALSE,35.6391609,139.3398456
A29FDA15-2397-F8DA-371D-66FA14092980,ChIJl90lIKUdGWAR3HY7Nc7qoxs,小川流 八王子みなみ野店,192-0914,東京都八王子市片倉町１９１９−７,FALSE,35.6309208,139.3375636
348013E5-9201-43DA-0D3F-EC1D561F0CF9,ChIJiS8yNRHhGGARM--01AtOkP8,横浜家系らーめん 思道,196-0033,東京都昭島市東町４丁目１１,FALSE,35.7018808,139.3901227
7C19BE8C-AB10-E214-4A49-C64C523BB51F,ChIJC7h21Z2OGGARr7WCcWGjng8,六厘舎 上野店,110-0005,東京都台東区上野７丁目１−１ アトレ上野 １階,FALSE,35.7121834,139.7750484
2ED12E50-90C5-D955-E5F3-B914BB934E2B,ChIJF76mKjzJGGARkJ2L7jYNV0I,食煅 もみじ,346-0025,埼玉県久喜市樋ノ口584ｰ4,FALSE,36.03999,139.6502917
2904B2DD-3270-4405-5A1D-84A1CA5BCBB7,ChIJq6qFxQrsGGAR1kp6SWd5TCE,中華そば べんてん,179-0071,東京都練馬区旭町３丁目２５−２,FALSE,35.7761494,139.6292782
058F333F-8AD9-1378-3EB0-8F5D20935A4F,ChIJHRcGvGskGWARFsuabEk3vDk,三玉家,198-0084,東京都青梅市住江町５４,FALSE,35.7893935,139.2606433
C2C45728-A413-5D52-DB12-5D9DD7546F74,ChIJObYDEcb-GGARrQGmnt-97vM,つけ麺 中華そば 清勝丸 相模大野店,252-0303,神奈川県相模原市南区相模大野３丁目３−１,FALSE,35.5302374,139.4351459
076306BD-96C8-2019-90A3-A156CFB3D248,ChIJoSmJYzaLGGARMB0Ji0WLP4s,MENクライ,105-0014,東京都港区芝１丁目３−４ 山谷ビル,FALSE,35.6524822,139.7550299
01E10E31-8107-E839-A2C2-C5F591F3EAA8,ChIJu5F_FMf-GGARr1Wo6w2gu4E,家系ラーメン クックら,252-0303,神奈川県相模原市南区相模大野５丁目２７−５,FALSE,35.5321503,139.4328405
61322BDD-973C-F14E-38E0-3E2F55C60B31,ChIJAYNb0OveAGARYDTB8fC1Cro,麺処 ほんだ,547-0033,大阪府大阪市平野区平野西５丁目９−２８,FALSE,34.6195312,135.5483133
915870A4-46F6-FB6A-8C12-6EE5A38821C0,ChIJe2IrjxdcGGARH9GufOJohLU,ラーメン星印,221-0825,神奈川県横浜市神奈川区反町１丁目３−４ ルミノ反町,FALSE,35.4740738,139.6280961
2BBA971A-3760-AFBA-5006-74D75CC633D0,ChIJu79RpuuLGGARJVh4fWYxEk4,濃厚鶏そば 麺屋武一,105-0004,東京都港区新橋３丁目６−１３,FALSE,35.6662161,139.7552572
D24AD6BA-F5A0-EDC6-35D1-4A264DD24AD2,ChIJq2ul2YyJGGAR__jMW2iw8FA,noodle art gallery Ryota Tezuka,103-0013,東京都中央区日本橋人形町２丁目１７−９,FALSE,35.6852188,139.7856013
FAD5B668-3511-1136-0741-6D8FF3BB9A9E,ChIJJRU6lT6NHmARdzN2ptq3Vxg,中華蕎麦 鳴神食堂,370-3524,群馬県高崎市中泉町142番地1,FALSE,36.3741394,139.0008065
1A24B057-66B5-E178-0DC5-25C261223287,ChIJL2DM51-IGGARgPbInGFmLgs,ラーメンとうかんや,132-0023,東京都江戸川区西一之江１丁目１２−７,FALSE,35.700997,139.8771873
015C4274-E7CE-ADF8-D3F6-3210CD582589,ChIJcdqtPK7zGGARnKvYjnj8jvs,麺匠 ようすけ 鶏煮亭 用賀店,158-0097,東京都世田谷区用賀４丁目９−５ 地下 一階,FALSE,35.6272705,139.632637
4DBB004B-54E9-2745-E966-6EF986A6CFFC,ChIJc26MdJT3GGARmSHxzIn8nlo,貝出汁中華そば 麺匠 遊や,216-0004,神奈川県川崎市宮前区鷺沼３丁目１−２２,FALSE,35.578402,139.5727967
F11F1AAD-0CAC-DBDC-7B08-62FEC2EF33B0,ChIJEWgs-zCJGGARV77R9oNBonc,yagu-noodle,135-0013,東京都江東区千田５−１０ 青木ビル 1F,FALSE,35.6801699,139.8158709
8FD92622-55C3-29D6-1EE5-576CE640CC96,ChIJsapHjI2NGGAR5p6gCBphvTg,瀬戸内いりこラーメン 古田島,101-0047,東京都千代田区内神田３丁目９−６ 大原第６ビル １F,FALSE,35.6910816,139.7692274
C54F2A59-2034-F171-E921-3041E43D69CE,ChIJaXqjjj3nAGARxZjXwNa2GdM,燃えよ麺助,553-0003,大阪府大阪市福島区福島５丁目１２−２１,FALSE,34.6963581,135.4868588
A436992E-194B-C968-9BC1-AA38EE79173E,ChIJfdWo96khGWARlynAWXb0_fU,勝来軒,205-0011,東京都羽村市五ノ神２丁目１−１１,FALSE,35.7611932,139.319504
01E8D261-4673-FC78-B538-AB2B62685B94,ChIJUSoOWy_iGGAR0sk32RhKJq0,こえもん,191-0011,東京都日野市日野本町３丁目７−１１,FALSE,35.6780905,139.3962939
F11CD821-49EB-9B4C-E2C1-6E71ADA98DA2,ChIJRwCoTylgHmARleErmgbOOwE,麺処 いち林,377-0005,群馬県渋川市有馬２２９−１,FALSE,36.4729432,139.0066136
1444CFDF-03ED-606F-1D1F-7322021AB5B2,ChIJ8_AY8k6RGGARS8Pi6IQtAmc,煮干し中華そば 山形屋,121-0813,東京都足立区竹の塚３丁目５−１,FALSE,35.789309,139.79831
973ACD81-6430-5B9B-F223-DF20C2A21FEF,ChIJ8QG0UxhcGGARZD_dCTcjc3c,ShiNaChiKu亭,221-0825,神奈川県横浜市神奈川区反町２丁目１５−１４,FALSE,35.4761075,139.6275818
8A071CA0-A53F-B34B-1A8A-FD77390C2C58,ChIJ98ttnU-pA2AR2rdwJzXy9iM,丸デブ総本店,500-8876,岐阜県岐阜市日ノ出町３丁目１−１,FALSE,35.4189848,136.7568482
2BCFA2A8-F129-181B-2530-3C1FD33F0A8E,ChIJU72t9xNfH2AR4EWePzH7Tbk,三和 中華ソバ店,321-0912,栃木県宇都宮市石井町２００９−１,FALSE,36.5432126,139.9412459
88BB1FD5-1B3E-B2E0-5955-1E8FF21E7062,ChIJf1wgfvcpIGAR8KpVDri9ZfA,手打 焔,325-0026,栃木県那須塩原市上厚崎３７４−２,FALSE,36.962025,140.029028
329A68A7-D9CA-0CA6-544D-A80FA172100B,ChIJ83GRCYjXGGARuqWgdae4J70,中華そば すばる食堂,350-0233,埼玉県坂戸市南町１８−１ 中島マンション 106,FALSE,35.9558172,139.3956448
F28A7B23-9969-84CF-A13A-46B772CC4C1A,ChIJL85mABSMGGARZ5qPibIpDnk,覆麺 智,101-0051,東京都千代田区神田神保町２丁目２−１２,FALSE,35.6964271,139.7571029
1AB76FBE-D276-D3F7-8C6F-7204021C861D,ChIJx_AduuohGWARk0-FyLukEe8,らーめん ニューカッパ,205-0001,東京都羽村市小作台１丁目１１−６ ＮＴＫビル,FALSE,35.7776698,139.3029792
ED76C31E-AF12-200E-5F1B-957974FF6677,ChIJy3Kug4HL9F8RYsKWtEyl18o,麺屋 玄洋,950-0036,新潟県新潟市東区空港西１丁目１５−１０,FALSE,37.9474506,139.0943349
0B09AAB2-BB1C-7DA4-081F-A256E1C55BBD,ChIJ_yy_F8uNGGARaManCg1QG_Y,つけめん金龍,101-0048,東京都千代田区神田司町２丁目１５−１６ サトウビル 1階,FALSE,35.6939084,139.7664996
98EC0BCE-A64A-CD42-1DB8-1F3C1208B0C5,ChIJ_WifkmBdGGARuS11ScmNESE,中華そば 水嶋(ミズシマ),231-0013,神奈川県横浜市中区住吉町２丁目２４−２ 住吉２４ビル 1F,FALSE,35.4457247,139.6379484
A368ABE9-9F6F-5F34-3101-59289D8E4D48,ChIJNZWUZUGTGGARorqGXH27L2U,キング製麺,114-0022,東京都北区王子本町１丁目１４−１ 高崎ビル 1階,FALSE,35.7534071,139.7338205
9512997D-DD31-A23F-8383-B51FB4FF2DBD,ChIJm1h2Oy_yGGARCR_MSCNpYlc,函館塩ラーメン 五稜郭,167-0032,東京都杉並区天沼３丁目２８−７,FALSE,35.706614,139.620142
92F1F691-6429-733D-F288-F63A732D2A29,ChIJSyX_MGCEGGARBCukVbJeqZw,味処 むさし野,270-2241,千葉県松戸市松戸新田１３３−４,FALSE,35.7826614,139.9180756
01DCEAF5-0EAB-B608-7310-48C2441A8792,ChIJe2M7MODQGGAR4gRw120Yd9E,中華そば四つ葉,350-0158,埼玉県比企郡川島町伊草２９８,FALSE,35.9682693,139.4689447
2EF3693E-91C2-A797-2614-F57725024B27,ChIJjdjwb_jzGGARMo3rqBZzgT0,らぁ麺 時は麺なり 経堂店,156-0052,東京都世田谷区経堂１丁目２１−２２ ショップ経堂B店舗 1Ｆ,FALSE,35.6500562,139.6367299
9F74FF65-0E3C-52BE-9894-3B3CDE511195,ChIJHS8Vi9KNGGARPcMp59xBpUo,ROCK'ANDO 六感堂,171-0014,東京都豊島区池袋２丁目２３−５ サンフェニックス山田 1F,FALSE,35.7329614,139.7041086
F8DD1922-73C5-2211-5315-1C2BE55C8EF6,ChIJ8SVpymiNGGARg6vSbwGpt4U,塩そば専門店 桑ばら,170-0013,東京都豊島区東池袋１丁目２７−５ 関口ビル 1F,FALSE,35.7291612,139.7164466
0B9FCE1F-7C24-1783-F595-BAE4232335C0,ChIJqTcNcaLnGGARiH6c5eSkLZI,麺丼Dining 夢者,189-0001,東京都東村山市秋津町５丁目１３−１７ 武藤ビル 2F,FALSE,35.777592,139.494045
89B55486-0C91-0984-2DFD-7E1CD75D23F6,ChIJ2564E9OTGGARlNuMO3ARlSw,中華そば 半ざわ,170-0001,東京都豊島区西巣鴨４丁目１３−６,FALSE,35.7445908,139.7288626
1B90832E-CE78-E2AB-AC54-A30B148BF77B,ChIJu3R8ABSMGGARyqJOpMmNvns,神保町 可以,101-0051,東京都千代田区神田神保町２丁目２−１２ サンエスビル１Ｆ,FALSE,35.6963645,139.7574015
61B80CDD-F59E-FF48-DA4C-671893990627,ChIJSeZ3_8-NGGAR7riaRGOeyb8,まるえ中華そば 巣鴨,170-0002,東京都豊島区巣鴨１丁目１４−１ プラトー坂 1階,FALSE,35.7329475,139.7406286
418BE55C-42BC-445A-6CFD-CABD271C221E,ChIJwUwNvfKLGGAR52zgjYPJDLE,煮干しNoodles NiboNiboCino,142-0064,東京都品川区旗の台２丁目１３−１４,FALSE,35.6056029,139.7035187
F76B3B19-72A4-2DC6-A9BC-B11E77A966D1,ChIJXVaif6ReGGARpdo-ygFQPA8,くり山,221-0802,神奈川県横浜市神奈川区六角橋１丁目１７−２９,FALSE,35.4889289,139.6246961
9CCD9090-5B41-97B5-DA45-7179DCCBA713,ChIJMRH7LC_zGGARw_-BPIz6Eb8,覆めん花木,164-0003,東京都中野区東中野１丁目３１−８ 井上ビル 1F,FALSE,35.703969,139.6827026
D54BE458-1C3B-14FD-15B9-695FF919BE34,ChIJSyfs4oDlGGARz9XqYURXPq4,くじら食堂 nonowa東小金井店,184-0002,東京都小金井市梶野町５丁目２−1 1102,FALSE,35.7016779,139.5248642
2438A4C0-D7B4-B802-7DE7-5D172394C918,ChIJcYmgSLmNGGAR0VKbc24wuTc,三馬路 東京店,101-0047,東京都千代田区内神田２丁目９−６ 祥司ビル １F,FALSE,35.691052,139.768203
4902040A-B198-BF71-38E0-B883E939ABC6,ChIJ3YkWuAjkGGAR5Jpd23eohXc,中華そば 初代修,186-0004,東京都国立市中１丁目１４−４５,FALSE,35.696737,139.4426133
BBEDD36E-C4A3-19B2-DCB4-788748546955,ChIJqYAg4NtZGGARgezsPMMsyU0,成CH,224-0041,神奈川県横浜市都筑区仲町台１丁目１４−２０ ウィスタリア 1F,FALSE,35.5344187,139.5906984
08279616-6042-97A6-40A8-9B516BA7010F,ChIJwfmnlBzhGGARzfaw9qKmg2c,麺屋かなで,190-0022,東京都立川市錦町１丁目１１−１,FALSE,35.696157,139.419505
8E48F10B-BE71-FA8D-A338-E62DCC9BA619,ChIJYY41fGmNGGARk7joa5x0Yrw,麺や麦ゑ紋,160-0023,東京都新宿区西新宿７丁目４−６ ストーク新宿井岡 101,FALSE,35.696129,139.698369
76072456-A727-83BB-9848-555220597B72,ChIJoxVEnecYGWARuAS1imLBD2w,中華そば専門店 味幸,192-0153,東京都八王子市西寺方町２３−３,FALSE,35.6727444,139.2631897
11E00310-D8BF-82A0-6DE3-740D99D416C5,ChIJAZ6yEANPGGARQaeoAwdqcVs,鎌倉大勝軒,248-0033,神奈川県鎌倉市腰越３丁目１７−３,FALSE,35.3101807,139.4905243
361CC8DC-9822-6BD7-ECA5-147A31ADA795,ChIJAQDbSVzfGGARDHqfPx-DNB8,Miya De La Soul,358-0014,埼玉県入間市宮寺２２８３−２,FALSE,35.7959793,139.3706278
3D7399A0-AB59-A16B-23B6-C2355CE4918A,ChIJt_3i62F3A2AR5Zdhy6e-e4Y,らぁ麺 紫陽花,454-0054,愛知県名古屋市中川区八剱町４丁目２０−１,FALSE,35.1268,136.879544
3D74334C-846B-561A-EF03-B97DD3D51ECD,ChIJn97NvEbp9F8RJB7aNlO8wA4,中華蕎麦 采ノ芽,953-0041,新潟県新潟市西蒲区巻甲４１５８−２,FALSE,37.7580651,138.8923211
8722352F-BB6C-8122-2277-88605B753602,ChIJCxGKxVIhGWARtty8mTFvtbg,ハイデン.コッコFACTORY サマンサ・タマサ 青梅店,198-0032,東京都青梅市野上町４丁目９−２８ グリーンハイム 1F,FALSE,35.786893,139.2926102
7CD378CF-4041-45B3-C39B-5FF52B3C3685,ChIJgapApw9WGGARnppU8PGmQdQ,うまいヨゆうちゃんラーメン,242-0029,神奈川県大和市上草柳３丁目１５−１５,FALSE,35.4763546,139.4543113
8DCB6308-FE6D-9B65-0070-824CAF40D783,ChIJP07hNK1RGGARSYf5mJ8mmn0,53's Noodle,252-0804,神奈川県藤沢市湘南台２丁目１−１ 田中ビル 2階,FALSE,35.3970968,139.4651125
CD9D26ED-92E7-B422-3155-ED8BC897E9C8,ChIJm36kiBvlAGARg2ZOOiZoJ_Q,らーめん 彩哲 isato,564-0027,大阪府吹田市朝日町５−２４,FALSE,34.7619074,135.5248574
BA842058-5783-BEE3-C391-E80A07A0B4B3,ChIJz0lP02OBGGARh-XfLzVv17I,温故知新,273-0005,千葉県船橋市本町５丁目３−２,FALSE,35.7020893,139.9866088
4506893D-8675-01CA-890E-3C1920725758,ChIJ80tXpEceGWARQ42YfW-EkKQ,らーめんなぶら 左入店,192-0012,東京都八王子市左入町４０６−３,FALSE,35.6874767,139.3433034
9C9DAC70-324F-09B5-5DE8-2AFBF40ECF14,ChIJ1ToyQIw9RTURrsvHipaVvgg,ぶっとび亭,742-0021,山口県柳井市柳井１３４−２４,FALSE,33.9572815,132.1338592
C348953D-6374-7383-1547-36755AFE5DA0,ChIJYUbOLdbfGGARVcdUk5uiRnI,ラーメン 一樹,358-0002,埼玉県入間市東町６丁目７−１６,FALSE,35.83023,139.4036748
50A39D2F-1DD8-3D25-B8E8-93A306A72ECC,ChIJUddMmHCjHWARdFBOFaEAHoY,麺道 千鶏,386-1103,長野県上田市神畑２５４−１,FALSE,36.3889931,138.2132231
409E51A6-C4F0-D376-8CC1-486B253A4104,ChIJ_Z4C4pltAWAR0C6VZVP7gsY,煮干らあめん じんべえ,525-0072,滋賀県草津市笠山５丁目１−６８,FALSE,34.9827659,135.9514319
9F8CAC6B-CA63-1697-096B-C207BC9A51B9,ChIJ1bJx9EdhGGARdgNwxDN8eQ4,中華そば 梟,146-0094,東京都大田区東矢口３丁目１−１１,FALSE,35.5642481,139.7083935
D1D17401-56DD-F39B-297F-75AE8FB4B2A7,ChIJz1uq8ZxaGGAR7JgtcXjnJj8,麺酒処 ふくろう,244-0003,神奈川県横浜市戸塚区戸塚町１４５−６ 奈良ビル,FALSE,35.3968628,139.531352
52FF1C82-B7CA-9043-F597-7258E064772C,ChIJHTq3ZLeOGGARfSjZdgQ5SJc,らーめん 改,111-0051,東京都台東区蔵前４丁目２０−１０,FALSE,35.70444,139.7901561
B8AFCFAE-C9DF-EC42-EF16-AAFC0DA6B8EE,ChIJMRu40XLvGGAR9w2SXx3eDig,支那そば あおば,180-0014,東京都武蔵野市関前４丁目１６−６ 新関前ハイツ,FALSE,35.7156262,139.5479393
BB18CE7F-6AD1-5CCC-C765-D26EE61EEBB5,ChIJN8LHOqWUGGARdPlRNnhGlDk,麺処 有彩,332-0021,埼玉県川口市西川口１丁目８−５,FALSE,35.8160601,139.7032268
3EC60048-3587-8C98-57C8-67C849DF500B,ChIJ5WoFJUoIAWARPOhySS861d8,恵那く,606-8185,京都府京都市左京区一乗寺高槻町２０−２,FALSE,35.0442525,135.7858189
03B7F44F-ED74-8D8C-88D0-F94B558D47B1,ChIJFYPDCE3vGGARGBpAV3ryQww,三鷹 らーめん酒場 SAL,180-0006,東京都武蔵野市中町１丁目２１−９,FALSE,35.7031822,139.5619832
FC1F9254-9180-6AEC-907C-293EDF7530EC,ChIJ11w-GpGNGGAR0z19_ZkYg64,醤ラーメンくうかい 高田馬場,169-0075,東京都新宿区高田馬場３丁目３−２３ 1F,FALSE,35.7141596,139.7028044
A5B98D6D-1F5E-4DC2-4B18-FEA2D92A4F63,ChIJ8XVZMm6TGGARpZSwuuTPqG0,支那ソバ おさだ,173-0024,東京都板橋区大山金井町３８−１,FALSE,35.7474964,139.7041908
269538E7-3513-6A42-F372-848B6C6CB902,ChIJV1ZQXczBGGARO4Mq9aVT0kM,柳麺 呉田,330-0061,埼玉県さいたま市浦和区常盤９丁目１６−７,FALSE,35.8707214,139.6471917
38B17913-54C1-2FC5-2E24-4AAC0EE2DA6A,ChIJ4cHN2JbbGGARegESqtCUH7Q,寿製麺よしかわ 川越店,350-1151,埼玉県川越市今福１７３８−１４,FALSE,35.8760338,139.474462
6CCBB70A-4F51-44C5-EC49-F5745AC95A57,ChIJUQ220O7XGGARBqW_zkyXYjI,麺屋 真心,350-1215,埼玉県日高市高萩東１丁目１５−２,FALSE,35.9086568,139.3783532
52A5D703-8E66-EDA1-13AA-F9DC5A5D7D88,ChIJZRSMGXDEGGARK2hEkosL-8w,麺屋 扇 SEN,331-0047,埼玉県さいたま市西区指扇１０８５,FALSE,35.9128347,139.579865
042694A3-3C44-659B-9164-4C11EE3BC424,ChIJc4NEs4DfGGARdDa-fXU0qLE,麺屋 幸生,359-1141,埼玉県所沢市小手指町１丁目38−１６ 第１１北斗ビル 1F,FALSE,35.8043047,139.4397567
F8C9FA5A-9882-8599-34F3-CD2B4DF1E249,ChIJe9SNNaH0GGAROPHDyGkzGf4,麺処 竹川,150-0044,東京都渋谷区円山町７−２,FALSE,35.657992,139.6948532
1116AD70-C006-66EB-3E60-E21A69C12E49,ChIJNYc1gbDrGGARxgg0h7oRkiY,麺処はら田,336-0017,埼玉県さいたま市南区南浦和２丁目２８−１３,FALSE,35.8492981,139.6713171
F3863607-9634-98E8-9C3A-A65FFEAF3690,ChIJnYLVHR2TGGAROPuyvptFmm4,麺処 夏海,115-0045,東京都北区赤羽１丁目１８−４,FALSE,35.7797412,139.7201883
A1FE908B-6BE3-884D-01BF-84BDD1846E2B,ChIJ11f58aiOGGARGWufdp37kFw,らーめん紬麦,101-0027,東京都千代田区神田平河町１−１ 第三東ビル 地下1階,FALSE,35.6977363,139.7760159
3A3F2D78-391C-0FD8-4962-3F49988C03A2,ChIJJ-e_Ha7VGGARsKilK_IZD4I,中華そば 深緑,355-0042,埼玉県東松山市今泉２９７,FALSE,36.0061747,139.4363631
F0A1DB3E-B093-162B-332E-653CF3A593A5,ChIJQYq_vOqLGGARZ8v_EIaw2jM,麺恋処き楽,105-0004,東京都港区新橋５丁目２４−５,FALSE,35.6631522,139.7534614
4EBED146-D59A-B6FA-C56B-78D1077A57F0,ChIJQR8NrPobAWARbvtBtyFWyg4,麺麓 menroku,573-0146,大阪府枚方市大峰元町１丁目６−３０,FALSE,34.8129253,135.6855944
60F3B41B-3734-1863-2A86-FD1A88CE86D4,ChIJw6l4CNeUGGARA3-P6UrTZNQ,煮干らーめん 川むら,333-0848,埼玉県川口市芝下３丁目９−２１,FALSE,35.8402296,139.6994601
ED2DF8BC-2AA3-D6FE-D3A3-78FF90C70A05,ChIJG7MBLAWNGGARn0fFGWT7afc,炭火焼濃厚中華そば 海富道,101-0045,東京都千代田区神田鍛冶町３丁目３−２,FALSE,35.6933421,139.770846
E8C5D0E1-9C15-A9FB-102D-00B29CDF6BA7,ChIJL74PL5jhGGAR8lTS-byoF0s,あかつきほじなし,190-0011,東京都立川市高松町３丁目２６−１６,FALSE,35.7015848,139.4173572
B519F272-853B-CF42-CBAF-00B889C848E7,ChIJoWGH6EKHGGAR4u70Vi4dSGA,支那ソバ 小むろ,272-0121,千葉県市川市末広１丁目１８−１３ 1F,FALSE,35.6838087,139.9180706
33BA83F2-980E-21FA-3CEA-5D23F65A2717,ChIJCVIYVMofGWARMg79TYNpmWs,しゅんやっちゃん,193-0845,東京都八王子市初沢町１２７７−８,FALSE,35.6414105,139.285832
2917AAC5-D5B5-DD7C-9908-ECDE7819BAA4,ChIJLVavNVz1GGARX6XeIkMWoVo,だし麺屋ナミノアヤ 上野毛本店,158-0093,東京都世田谷区上野毛４丁目３９−１２,FALSE,35.6191323,139.6347978
F3BD67CB-ED0F-97D8-A72E-961B01B1A12D,ChIJUbo9MvOMHmAR5NnRw1vBCkA,地鶏らーめん翔鶴,370-3521,群馬県高崎市棟高町２０８８−２,FALSE,36.3788025,139.0077514
AF164FA3-77F5-116C-10A1-7C72E0FB435B,ChIJ0dKm0rf0HmARXnfbAfj3tU0,地鶏らーめん翔鶴 前橋店,371-0047,群馬県前橋市関根町２丁目７−１３,FALSE,36.4317562,139.0489009
9A937DCE-A4C4-8B5F-4698-21F8F44C30B8,ChIJK02FLAbMGGAR_GWRL9gwVkc,榮ラーメン,346-0106,埼玉県久喜市菖蒲町菖蒲５１２−１,FALSE,36.0700724,139.606709
4DAD4E23-2D98-FBAF-C3C3-F36D75ACDF0E,ChIJBS_z5vWSHmARbQOWHLJ_ixo,煮干拉麺 小烏丸,370-0006,群馬県高崎市問屋町２丁目７,FALSE,36.3479986,139.0117988
02A4425B-FEC5-40E0-CF17-6F203AE1C300,ChIJg2yGHeGLGGARsE4Ws0Tl51g,中華そば 萬福,104-0061,東京都中央区銀座２丁目１３−１３ 久保ビル １階,FALSE,35.6712812,139.7694876
E54A03E8-ABE6-DBDD-4253-C41C1BB7FD36,ChIJxSSLziGNGGARTSm4csf7eZM,サーモンnoodle3.0,162-0825,東京都新宿区神楽坂６丁目２６ カーサイオキ 3 102,FALSE,35.7038528,139.7364522
F06DB20C-03B2-45CB-2B02-E3C11443B44D,ChIJxdMnU0soC18RzyaQaX_hJLE,中華そば スパンキー,063-0803,北海道札幌市西区二十四軒３条５丁目８−２５,FALSE,43.0727865,141.3086263
F4AAA203-80E4-C961-4207-3449D4735B9D,ChIJ7b4k4ovfHmARQS4f4V13HiA,塩らーめん 千茶屋,373-0055,群馬県太田市大島町１２７−１,FALSE,36.2972431,139.3600722
3943C4CF-A60C-B52D-0EF8-BCBD61DB26DF,ChIJGQi6H0kfGWARCJUZkXIUj8Q,秦山屋,192-0016,東京都八王子市谷野町391ｰ11,FALSE,35.6859662,139.3262947
CE10D570-72CE-AB44-0A04-D7ADFD636DA1,ChIJ4Q4n6di9GGAR9YeFFF4SyTA,中華そば十目一八食堂,343-0032,埼玉県越谷市袋山１４２０−６,FALSE,35.9232806,139.7779239
424A85A2-0708-C014-08AB-50AAB86A110F,ChIJX8hJIaOPGGARWPBBd7__z5s,つけめん さなだ,120-0034,東京都足立区千住３丁目６−１,FALSE,35.7514129,139.8008294
943EF942-B2C6-FDF9-4B19-FAA4D0F3EB08,ChIJgxmOlMfhGGARnZXc1joTlwM,麺屋 ひとつなぎ,196-0034,東京都昭島市玉川町１丁目２−６,FALSE,35.7049081,139.3846497
07758AE6-F4F6-23E3-E55D-4B576EF7EA74,ChIJDah1WtDzHmAR48xAhXMG0gc,ANDORE KANDORE (アンドレカンドレ),371-0021,群馬県前橋市住吉町２丁目８−１４ 住吉ビル １Ｆ,FALSE,36.396349,139.0723513
E2E07CE2-30DC-B1A4-6627-CE975C35E1B1,ChIJZzpNvdDvAGARrTs5W9LvU9I,ロックンビリーS1,661-0012,兵庫県尼崎市南塚口町３丁目２９−１３ 2F,FALSE,34.7482088,135.4209356
DB4A4562-5DB7-0F08-80BF-5D742C591A35,ChIJp21I4d8oC18RgBkIVikIkBM,ラーメンマルエス食堂,065-0023,北海道札幌市東区北２３条東１丁目４−１７,FALSE,43.0902209,141.3497967
8076DA96-A66D-8532-F5D5-580F77F03256,ChIJp6flawOMGGARUjOe-cACTSY,栄屋ミルクホール,101-0046,東京都千代田区神田多町２丁目２,FALSE,35.6932127,139.7698478
DCF6F404-C5E8-9F4E-0D56-1CEA307871CA,ChIJh8Q5ZwA3GWARVmJmaXAqlHk,奥多摩清流中華そば 三つ杉,198-0212,東京都西多摩郡奥多摩町氷川195 Super Ogawaya 1F,FALSE,35.8083883397096,139.097035110503
372CFE74-BE8C-83B1-E390-54AFA4F6CF71,ChIJq6qzfbxgGGARMEXKDNZG3xo,自家製麺 麺屋 利八,210-0012,神奈川県川崎市川崎区宮前町２−４ ホーユウパレス 1階,FALSE,35.5283436,139.7039147
801FB867-74B1-1DAC-3567-2FCF91CA9806,ChIJ2ZGVStFhGGAReHwSrXbcf80,宍道湖しじみ中華蕎麦 琥珀 東京本店,144-0056,東京都大田区西六郷２丁目１−３,FALSE,35.5512472,139.7111871
AE756756-9B8A-2449-1B46-443761803D80,ChIJ0RY6KAAdGWARpQtNbNwCYEQ,釜玉中華そば ナポレオン軒,192-0081,東京都八王子市横山町７−１０,FALSE,35.6590531,139.3376217
EA4910F5-5DC5-3ABA-594E-BEB509E8ED01,ChIJzeyBviGLGGAR8VtKm8vw3mw,支那ソバ かづ屋,153-0064,東京都目黒区下目黒３丁目２−４,FALSE,35.63123,139.709122
E02222AC-33BD-1F30-41C6-2644DED35368,ChIJ8ZomUwDvGGAR4iOc3-Wy1BU,中華そば 樹々 kiki,180-0022,東京都武蔵野市境２丁目３−２０ 1F,FALSE,35.7056589,139.5439176
F4807655-C5B7-C9FE-9143-737C8F433A93,ChIJ57l-bp2DGGAR5EPpvyCw6ag,柏 濃麺や ３９名,277-0054,千葉県柏市南増尾２丁目３−１３,FALSE,35.8170311,139.9700087
04AE288C-93E2-B69C-7380-A89E3E4C552E,ChIJd-uYaWrjGGARiVFSWNIquWg,らあめん花月嵐 多摩野猿街道店,206-0001,東京都多摩市和田2000−１６,FALSE,35.6430929,139.4297043
6D038F76-4437-BA05-D70C-EBDBB8D372AC,ChIJv9VqZ2rjGGARTFs4pTiztMM,本流たま家姉妹店 ８３１家,206-0001,東京都多摩市和田２０００−１３,FALSE,35.6429441,139.4292134
D2FD9E88-ADAE-83F0-463F-4B1BE8A943C3,ChIJkzlXv-yLGGAR9ryZDR_o4A4,渋谷かっちゃんラーメン,150-0031,東京都渋谷区桜丘町３−４ 渋谷サクラステージSAKURAサイド 1階104,FALSE,35.6561968,139.7023617
7D75CA0B-57BA-904F-1EB6-F75225261546,ChIJ54R9tAuLGGARPxj0frdUFoA,麺屋TAMOTSU,150-0002,東京都渋谷区渋谷２丁目７−１３ 大一ビル B1F,FALSE,35.6604306,139.7077056
BB8F032F-CCD0-33F2-938A-AE38E064D8FB,ChIJsxJ7dgAdGWAR2tsmcDDSbVI,中華そば えにし,192-0903,東京都八王子市万町３４−１,FALSE,35.6531283,139.3332003
5AD150EB-B067-57DB-CBB2-816FDC81097F,ChIJ7eD4UVmtjl8RHJcRtQLZ7rc,煮干中華蕎麦あらた,996-0023,山形県新庄市沖の町３−２０,FALSE,38.7619374,140.303442
CBC0E5AA-7BD7-DAFC-4536-677F63E8101B,ChIJ6S8yE92LGGARR2ACbTS9H_Q,ハちゃんラーメン,105-0013,東京都港区浜松町１丁目１５−９ コンシェリア浜松町Ⅱ 101,FALSE,35.6581398,139.7571742
4FED0583-D6DA-0C2D-0C88-D8501E44FAB9,ChIJmwUI1kuGImARJ4vhy01DwqI,魚介醤油らーめん 和屋,285-0854,千葉県佐倉市上座１１８５−４,FALSE,35.7278244,140.1597587
1E8BAEFF-3C7F-DE90-1F64-08403ED1F65E,ChIJ0ctrIeGGImARXjnPER4qszc,中華ソバ 篤々TOKU-TOKU,276-0023,千葉県八千代市勝田台１丁目５−２７,FALSE,35.71472,140.1242586
93EDB9A0-00DE-FC63-0815-50107F0C56EC,ChIJqSThFXGBImARCfUapqBAKrE,煮干し中華蕎麦 彩葉に（いろはに）,276-0032,千葉県八千代市八千代台東１丁目１７−８ 1FB7 八千代シティプラザ,FALSE,35.7013066,140.0929134
0E6A3B0E-6263-3F78-BD7A-B96ACF6F9120,ChIJAQDFhSmNGGARFjICR3zt2F4,麺屋翔 本店,160-0023,東京都新宿区西新宿７丁目２２−３４,FALSE,35.6965935,139.6966006
F5BDDE5E-4680-3A71-6F73-AA7390F297EE,ChIJK1rK1YxYGGARDGhos4gfyWU,支那蕎麦屋 藤花,224-0053,神奈川県横浜市都筑区池辺町４８００−６,FALSE,35.5180589,139.5760483
CC2EB8C2-FCE3-AC0E-DD62-0CD4BC17E374,ChIJX6CqA14fGWARJtMc6nktYQ4,中華そば 麺や 八八,192-0062,東京都八王子市大横町１３−１,FALSE,35.6623058,139.3290641
3647B3C0-BC92-4C3B-F4D1-43337EF0DCA3,ChIJU7VXGAAfGWARBIR7R6Gj_Yc,らぁめん赤ふじ,192-0062,東京都八王子市大横町１−１１,FALSE,35.6619204,139.3292798
E301B3A8-EF22-4952-6D19-3BCE5D318B16,ChIJ7Vz-GyyLGGARH49aczFdLIc,NIPPON RAMEN 凛 RIN TOKYO グランスタ東京,100-0005,東京都千代田区丸の内１丁目９−１ B1F 八重洲中央口改札 内 グランスタ東京 銀の鈴エリア,FALSE,35.6810759,139.7678102
890D02F9-17DA-4870-01F2-57CCAC0EE50A,ChIJtxODuv6LGGARnELlksWTmZo,六厘舎,100-0005,東京都千代田区丸の内１丁目９−１ 東京駅一番街 B1 東京ラーメンストリート内,FALSE,35.6800592,139.7678465
215E02B4-B0A9-B02E-7549-4CD06C00749F,ChIJxZX_UwDxGGARl5Fhbgki4Xc,華塩,157-0062,東京都世田谷区南烏山６丁目５−３ 101,FALSE,35.6679296,139.6000066
5EB23635-D2B2-0944-D7E5-9397E4A20E36,ChIJ3_O2L1eLGGAREwZ0Tsyd4ZA,らーめん 穀雨,150-0031,東京都渋谷区桜丘町２９−５,FALSE,35.6550656,139.6993425
8D7D0F4E-F398-BBEC-2DFD-A2A4278B9312,ChIJoTLkEgCNGGAR6b0BHly4zM0,麺庵いぶし,170-0013,東京都豊島区東池袋３丁目７−５,FALSE,35.7326733,139.7170072
57AAB9FE-A600-F8FE-980C-B9D073BECBF0,ChIJiWUtkzopC18RH1HgmtRs8vc,Japanese Ramen Noodle Lab Q,060-0001,北海道札幌市中央区北１条西２丁目１−３ りんどうビル B1,FALSE,43.0634679,141.3542911
A5D963DA-CC7D-DEFC-94C3-AD103F549178,ChIJgRsQWACJGGARN7U_zCbUZ4Y,燎~kagaribi~,104-0041,東京都中央区新富１丁目９−５ SOPHIA GINZA 1階,FALSE,35.6721011,139.7742761
981E7F85-9DEF-266E-4242-E499A942D58C,ChIJ-7qWIBGNGGARpR5IkZTTXpY,狸穴,170-0013,東京都豊島区東池袋１丁目３２−２,FALSE,35.7325849,139.7160504
6BEAD5AD-5058-C1B9-53B2-DFE9FEC1A953,ChIJQeQRfMOJGGAR6RgS0D-fV9Q,手打ち 蓮,130-0025,東京都墨田区千歳３丁目１６−２,FALSE,35.6914545,139.7959078
99A64B12-6264-EAA6-7BD4-BA51154FED2C,ChIJU0cGvdpfGGARgUOm8gvSqjE,中華そば 髙野,221-0002,神奈川県横浜市神奈川区大口通１３５−１１,FALSE,35.4913383,139.6460091
595FC02C-B5FC-82E8-F557-ABDFE9DC0966,ChIJ7czhGjjxGGAR_lg3h8IIOCs,らーめん梶原,157-0062,東京都世田谷区南烏山６丁目５−７,FALSE,35.6684224,139.5995707
A60DB84A-4BBF-BB56-034C-20B097E9E5AD,ChIJUUSZCgCNGGARA-b3HD64Ibk,瀬戸内食堂ねいろ屋,160-0023,東京都新宿区西新宿７丁目１−４ ゼンコウビル 1階,FALSE,35.6940574,139.6991474
9E7BC02E-9893-586F-06AF-6CF95FBFE3B6,ChIJIzew35aRGGAReEJCyic91T0,つけ麺 和 東京本店,121-0822,東京都足立区西竹の塚１丁目１２−９ 共栄ビル 1F,FALSE,35.7938111,139.7894366
EEEAF3C7-9E2D-41C0-50CF-4769247930AD,ChIJgW5tBg_fGGARw6u7-WM8Co0,自家製手もみ麺 鈴ノ木,359-1161,埼玉県所沢市狭山ケ丘１丁目３００３−８３,FALSE,35.8097057,139.4158005
F9CA7DCC-6B77-225E-1BA9-67E3C10ED1F2,ChIJJaEo6dGMGGAR7pbjgxwlNQc,銘酒居酒屋 頑固おやじ（がんこおやじ）,151-0053,東京都渋谷区代々木２丁目２０−１９ 新宿東洋ビルB1F,FALSE,35.686599,139.697217
D342B234-A54A-F032-C995-BC00630CBBE9,ChIJCdBMqTORGGARj8NKHTkMY6c,麺屋 いちょう,340-0806,埼玉県八潮市伊草２丁目４１７−９,FALSE,35.8293578,139.8265565
C3C6C0EE-2AC0-BA4B-8CFE-D54BF6017EAC,ChIJJZan6dqNGGARb3NCYOZ2KUo,麺宿 志いな,160-0004,東京都新宿区四谷４丁目３０−１５ 市川ビル 1F,FALSE,35.6886977,139.7143515
55608A42-9D02-029E-3AC9-FC0FE8188A75,ChIJ1cRuUgCNGGARwIqQiJcaOSM,麺場78/麺BAR78,160-0021,東京都新宿区歌舞伎町1-1-5 パレスビル 2Ｆ クリシュナ,FALSE,35.6943778666933,139.705092144181
3F5B8E8B-0E38-32BC-A943-841D7BB068F5,ChIJl-HO85v1GGAR4Y8j-9a2uAQ,麺楽 軽波氏,213-0014,神奈川県川崎市高津区新作６丁目９−４１ シャトル新城 1B,FALSE,35.5864482,139.6281348
D0DD3081-75F0-A89B-46D1-0926B3DF9CDB,ChIJGQudTwCNGGARmCwuiexRL7k,渋谷煮干し中華そば かわ嶋,150-0044,東京都渋谷区円山町１−１９ 竹ビル 1F,FALSE,35.6598451,139.6952978
36E024D5-DC84-BA18-6183-37EA39CAC639,ChIJ8zGDRQCLGGARVi58iI41Eaw,Ramen Jazzy Beats,153-0051,東京都目黒区上目黒３丁目５−２５ 中目黒高架下59,FALSE,35.6428156,139.6972423
AFB424B2-ABF5-2260-4A28-68F06B64B2DD,ChIJB_Je0fsdGWARwEpZvAxbfBk,日本油党八王子支部,192-0083,東京都八王子市旭町８−５ タキザワビル 1階,FALSE,35.6575799,139.337647
5C42CFDD-5DCD-AD3F-3B50-9C782FFEA2C6,ChIJd7z9QNcdGWARNXQz4cZerF8,壱発ラーメン 八王子本店,192-0903,東京都八王子市万町１９−１,FALSE,35.654434,139.333748
7568C82A-D6CB-5703-6692-F977F6D347FD,ChIJWeLKPwDzGGARYPaqJlmVlsE,MUKAN78,151-0071,東京都渋谷区本町２丁目７−１２ キッチンゲート No3,FALSE,35.6838269,139.6832111
7F55D399-CC2E-0B8A-D44C-6C43B76BC48F,ChIJE2Ni3sf-GGARm80SOobRgQc,鈴木ラーメン店,252-0303,神奈川県相模原市南区相模大野３丁目１８−３,FALSE,35.5334254,139.4362192
A5A84E8F-710F-58EC-88F1-CD4543F5E1C4,ChIJz7jHGQD9GGARU6IVuB-aQ_o,中村麺三郎商店,252-0239,神奈川県相模原市中央区中央３丁目７−１０ 小野ビル,FALSE,35.5708145,139.3717083
272DC733-1142-22BE-BA4F-AB05AB8D7068,ChIJPXTTFoVcGGAR17hiQlCVvmU,鶏喰~TRICK~,232-0014,神奈川県横浜市南区吉野町４丁目２０,FALSE,35.4351692,139.6183973
835F5C94-650E-C760-7BBF-E745A1BA4B2B,ChIJydfjy4VcGGARl5VOsmlzGjE,流星軒,232-0011,神奈川県横浜市南区日枝町４丁目９７−２ グレイス南太田 102,FALSE,35.4370503,139.6174663
3E9D2AC6-D78C-03ED-DD7D-E47275159B65,ChIJMfgA0Y8fGWARAwBWu6psSV0,らーめん寛（かん）,192-0012,東京都立川市曙町１丁目３０−１３ あら井鮨総本店裏,FALSE,35.6999685,139.4117006
00B250A0-909A-47B6-E2AE-7D8ED4B6A8E7,ChIJCUz2DeUdGWARzWy3v5vM9po,らーめん 尾又家,192-0046,東京都八王子市明神町４丁目７−２ 一階,FALSE,35.6578542,139.342205
ED06F628-2A6E-DF8F-0147-394279F2BCFC,ChIJhZsJeMGLGGARwz2n6rJjOeg,家系ラーメン 革新家 TOKYO,100-0005,東京都千代田区丸の内１丁目９−９,FALSE,35.6804515,139.7680284
2DF73E23-6AF7-AD3B-FF48-B6CA44514E34,ChIJF6cCGAAdGWARG0lWEykWjho,麺笑飯店,192-0046,東京都八王子市明神町３丁目２１−７ タバタビル １F,FALSE,35.6574625,139.3430207
6D0B0299-3D74-9A2D-B2B8-A60233599A25,ChIJmwAUXgDlGGARcO-YCGyhHyU,手打ち陰日向,183-0045,東京都府中市美好町３丁目９−１０ ロゴス府中,FALSE,35.6716489,139.4670787
CD419F07-CD25-16F5-83EA-C5B36E414ECE,ChIJ_04cvQGNGGARbP63Ltd0Ojk,キッチン きらく,101-0051,東京都千代田区神田神保町１丁目 5 M2 神保町 1F,FALSE,35.6955715,139.7593992
6B5C29C4-603E-B763-C8E7-926317B1A6B3,ChIJI13Rk9kdGWAR120gHZ6R2DA,呑めるラーメン屋 百馬,192-0072,東京都八王子市南町３−１７,FALSE,35.6586038,139.3339902
6EEC08E9-4253-6475-7F6A-C3D20AA07284,ChIJmVyIu1vvGGARCzshhfaQw9o,つけ麺専門 清麺常藤,178-0063,東京都練馬区東大泉４丁目１−５,FALSE,35.750149,139.5851632
BCCCF6FD-E198-2B67-7D0E-905FFF300527,ChIJtXqG6czhGGAR51Ow5rGkA6g,中華そば たまや,196-0022,東京都昭島市中神町１１６１−６１,FALSE,35.7116917,139.3790278
B1239A56-A37C-4E3C-4582-42B740440900,ChIJf8HTu2XhGGARhdfvn8m1iyE,らぁ麺 ととホンテン,196-0025,東京都昭島市朝日町２丁目１−２１,FALSE,35.7095532,139.3735725
5197C0A0-AD37-9BA9-9B3C-5FD87B06D927,ChIJ0QW5bjr_GGARJJKS21YoxaY,RAMEN TSUKEMEN YAMATO,242-0007,神奈川県大和市中央林間５丁目１−３,FALSE,35.5088369,139.443472
7BC69A9A-0B03-B63C-8255-54DFED834C87,ChIJG966AzcdGWAROPzTzDfEYdA,自家製麺 二丁目ラーメン,252-0143,神奈川県相模原市緑区橋本２丁目２−１３,FALSE,35.5952197,139.3420425
7AE27B55-24A4-39E9-5FB9-3713D2CF9852,ChIJq0lyU8nyGGARLIiHuAXkOr4,かしわぎ,164-0003,東京都中野区東中野１丁目３６−７,FALSE,35.7042828,139.6856481
90475E3C-E722-06C1-83A4-39C190D05518,ChIJybjC5KvzGGARZHV7eaoUqi0,豚骨蒼翔,166-0012,東京都杉並区和田３丁目６０−１０,FALSE,35.6975024,139.6602157
1E32F894-C803-6AAA-853D-7C0F036FDBB5,ChIJGQeNTOzxGGAR02ldN46NGMY,中華そば TORICO（トリコ） ラーメン 千歳烏山,157-0062,東京都世田谷区南烏山５丁目３２−１４ アルファビル,FALSE,35.6674134,139.600635
FD14E571-5840-D658-E7EC-78E7F9FBDAD0,ChIJv61UWQDzGGARQuDlPJcHEaA,煮干そばHIMAWARI,168-0073,東京都杉並区下高井戸２丁目４−２ 椿ビル,FALSE,35.6678765,139.6376875
39BDCD99-6043-9E58-225E-32F0D27D08C4,ChIJoWUx5TvtGGAR2D2FcqOFKFA,there is ramen,167-0032,東京都杉並区天沼３丁目１０−１６,FALSE,35.7074087,139.6183522
B0705AEE-4C5F-896B-D295-670797447497,ChIJuQh54PbtGGAR80imTXlsXSg,春木屋 荻窪本店,167-0043,東京都杉並区上荻１丁目４−６,FALSE,35.7050568,139.622389
4432BFE5-292A-9EC6-EB5F-30250D8307C0,ChIJw433RESLGGARouzrzt0jg_A,手打 親鶏中華そば 綾川,150-0013,東京都渋谷区恵比寿１丁目２１−１８ ライツ恵比寿 1F,FALSE,35.6465702,139.7136561
0848FEFD-272E-A813-4CFC-3F1A990DCB53,ChIJqf2BoE-LGGARsQYv1si7iWc,新橋はるちゃんラーメン,105-0004,東京都港区新橋２丁目２０−１５ 新橋駅前ビル1号館 1階108号室,FALSE,35.6662135,139.7595377
E0492423-6D29-FC0B-B6BA-3C8A3CF3FFD8,ChIJU9OTE6BfGGAReC4SM2wC7K4,ラーメン 日陰,212-0055,神奈川県川崎市幸区南加瀬４丁目１６−２,FALSE,35.5462615,139.659923
7823A5FB-CD1F-F62C-E792-494200DC6112,ChIJtynoC73xGGAREtYO-Xztgf8,麺処 かず屋,182-0002,東京都調布市仙川町２丁目21−１３ ヤマセンビル 1階,FALSE,35.6624152,139.5843024
C7AD2EC6-FBE6-8711-285D-396A4AE4F860,ChIJuYKBYgAfGWARgPYiKNOsbHY,中華そば 鴨福,192-0054,東京都八王子市小門町５−３,FALSE,35.6574434,139.3279251
592ED5DB-F557-6707-9B67-DBC5AE0FAD0C,ChIJLaV7A4kdGWAR7dQBL04LSqk,鶏と鳴く,192-0046,東京都八王子市明神町３丁目２４−１２,FALSE,35.6568642,139.3442146
7AA29D65-0F98-DD51-8F4E-A95C8E3FCA54,ChIJtxzri8mNGGARME1CGWPYl9s,楢製麺,151-0053,東京都渋谷区代々木２丁目２６−２ 第２桑野ビル,FALSE,35.6852902,139.6993043
C7A6B6DD-695D-C882-2D89-151A790D7A06,ChIJk3R1WBBhGGARcjLm-e-MqZM,中華そば やま福,144-0051,東京都大田区西蒲田７丁目６４−１ ポテトクラブビル,FALSE,35.5620001,139.7133488
CC4FC289-20C6-AB81-DCC2-1356F91B9A53,ChIJj9d9mIGLGGARuZdmrShy1Dc,奈つやの中華そば,146-0092,東京都大田区下丸子４丁目４−８,FALSE,35.5714055,139.6838916
B96763FF-7E4B-E4DA-F26D-2B3C8B5D0A22,ChIJy6UereeLGGARCCa2ZCkiS8g,銀座鴨そば 九代目けいすけ,104-0061,東京都中央区銀座６丁目１２−１５ いちご銀座612ビル １階Ａ,FALSE,35.669256,139.7646987
81779BBF-BEDA-24BF-0CAE-0625AF26FDC2,ChIJ-592Me0oGWARWphgPtX_x-8,中華そば専門 とんちぼ,350-1245,埼玉県日高市栗坪２６−４６,FALSE,35.8866019,139.3123952
27412B21-1BF3-CEBB-A3C6-243E3FA24E30,ChIJL-1zEaaNGGARtsibEqDkKRY,中華そば山下,160-0004,東京都新宿区四谷２丁目３−６ パルム四谷 102,FALSE,35.6872623,139.7261388
67F62B5C-748F-A313-A964-170F3104B60E,ChIJmazzX5fxGGARf87Ta1M1ywA,やきとん まるじ （○治）,157-0062,東京都世田谷区南烏山３丁目１−１４,FALSE,35.671096,139.6089936
81666210-1232-A443-3E4B-BA992254BB32,ChIJO08dAk3zGGAR2eVY-FPO3XM,麺屋 寛,167-0051,東京都杉並区荻窪１丁目５−１９,FALSE,35.6923976,139.6196642
383932FE-E4B3-FC34-ECE7-DF77F71CEA12,ChIJ-ddOpBrzGGARSzRFom8VHaY,塩そば時空,168-0072,東京都杉並区高井戸東４丁目１４−７,FALSE,35.6897616,139.6189731
D0286E12-5F19-93A5-1E5D-AE96ACBFA710,ChIJ__5TLzGLGGAR2Hi03JiYaS8,麺屋 隼真,141-0031,東京都品川区西五反田５丁目１−20-2F wincove,FALSE,35.6259015,139.7143149
AE7D8E1F-2F3C-067E-FAB4-5373EE4B9360,ChIJMW4u9rSLGGARulonfj5zXZ0,人類みな麺類 東京本店,150-0021,東京都渋谷区恵比寿西２丁目１０−３ プラネックスアンペール １F,FALSE,35.6490958,139.7067345
820D1B74-B07B-0F98-7911-79E76F1AFF53,ChIJu_Yy3n4eGWAR91ceYbgbZYQ,中華そば 青葉 八王子店,192-0075,東京都八王子市南新町１５−１,FALSE,35.6582698,139.3285594
9D93BDCC-6678-5291-44AB-C6968D6D20A9,ChIJU4tLLSPjGGARl1AM0JbMKfc,メヂカそば 吟魚,191-0021,東京都日野市石田２丁目９−１ アイビル 101,FALSE,35.6696094,139.4191274
8E952895-665B-8130-85EB-543A72540812,ChIJaz3BFAfiGGARufesxDLxPv4,十八製麺,192-0033,東京都八王子市高倉町５４−１ たつき,FALSE,35.6653269,139.3670365
04F4C046-F6D7-8943-60E9-39B425EE258B,ChIJ2UfbChSNGGARgZiJdDUwSE4,にしき之中華ソバ,171-0021,東京都豊島区西池袋１丁目１３−８,FALSE,35.7300297,139.7098541
40BC5AA6-69C4-C064-7766-D446A2B025D2,ChIJ___ah2aNGGARZKOiUx4EbGw,滝野川 大勝軒,170-0013,東京都豊島区東池袋１丁目３２−２ 小泉ビル 1F,FALSE,35.732521,139.7160434
B7A4429C-E673-4956-4574-B34DF63F9A1F,ChIJcfNjq0qNGGAR85uEvWpN2SY,中華そば 児ノ木,161-0034,東京都新宿区上落合１丁目５−３,FALSE,35.7112214,139.6912882
807A344B-31DD-E1ED-8A45-C86D36B16870,ChIJAQCwiOuMGGARNrOYDilES-M,京紫 灯花繚乱 四谷本店,160-0004,東京都新宿区四谷４丁目７ 四谷 小林ビル １Ｆ,FALSE,35.6873587,139.7163739
0DE6D829-BF03-BD8A-0DF5-E60FAD0E6475,ChIJ9byDDACPGGARY2p8S94XuCc,自家製麺 甚,111-0035,東京都台東区西浅草１丁目７−２,FALSE,35.7106648,139.7912205
77B5F045-3155-592A-BB5D-0CA4BF7F5A0C,ChIJR0JYiJiOGGARE5Khlnmp9jU,さんじ,110-0015,東京都台東区東上野３丁目２５−１２,FALSE,35.7107233,139.780433
0010994E-4FC6-E1E0-55C0-52643A777207,ChIJGzS2yBH7GGAREQjLnE1QvOM,龍聖軒,195-0053,東京都町田市能ヶ谷２丁目２４−２６,FALSE,35.587408,139.4797297
261FE402-995C-55B2-854E-B2DE18EB0661,ChIJNevtXAAdGWARjivwh_1sBmc,麺宮寺麦子,192-0904,東京都八王子市子安町１丁目７−５,FALSE,35.6530452,139.3398366
71D7DD45-F2FC-A5A0-2107-0E41C2EB6167,ChIJN_8SUFbxGGAR4MVbMRxlISM,猫と月 Chan mie noodles,182-0035,東京都調布市上石原２丁目２１−５,FALSE,35.6549888,139.5285287
5D3E4936-F2A2-86B3-4DE2-A224B56B29BC,ChIJF4ucC7_pGGARxKevSnNa4fo,中華そば 幻六,351-0022,埼玉県朝霞市東弁財１丁目３−１０ イ-ストアレイビル 1F-D,FALSE,35.814039,139.5863158
D5DC540A-DC3D-F52F-013B-C1C1EBBF3C48,ChIJU2_3IuyNGGARnH3k1nqmpoA,自家製麺 ほんま,113-0021,東京都文京区本駒込５丁目５８−７,FALSE,35.7346065,139.7526413
C32CE88E-37C6-B610-5B5F-552E2FA9C725,ChIJUwJMHtGMGGARm-cgz_hPgaA,つけめんTETSU 京王モール新宿店,160-0023,東京都新宿区西新宿１丁目１０ 南口地下街 1号 京王モール,FALSE,35.6897547,139.698663
854ADA65-5D62-00C7-F162-C9A2F92D8B6D,ChIJS8OvPXW7JhUR8k9BFBbhfr4,饗 くろ㐂,111-0053,東京都台東区浅草橋１丁目２８−９,FALSE,35.6979964,139.7854476
58882A5B-5916-A2AB-B682-8BFD29D2E2B3,ChIJp_o4OQeR918Rx8KIvMWxydc,らぁ麺 朝軒,930-0051,富山県富山市室町通り１丁目１−２０,FALSE,36.6883027,137.2199226
2F37769C-1B51-3A62-4A3D-2B4D2A871AAD,ChIJxecpDE2NGGARqbfa1ghUQaY,鯛塩そば 灯花 曙橋本店,160-0006,東京都新宿区舟町１２−１３ 石原マンション １Ｆ,FALSE,35.6908924,139.7216734
25888A3B-990D-2520-F6AF-163BE0FEAB25,ChIJGUxqAGCNGGARO3hE-VYdT1E,RAMEN MATSUI,160-0004,東京都新宿区四谷４丁目25−１０ ダイアパレス御苑前 B-2,FALSE,35.6890705,139.7155011
5B4590C6-91EF-0528-ADF1-4E511D8863B7,ChIJex4a-bgpH2ARF9RGcnsquhg,ゴールデンタイガー,360-0042,埼玉県熊谷市本町２丁目１１６ 1F,FALSE,36.1428536,139.3877497
0C76C75D-C94A-F0E3-E7B5-9591B2EA86AA,ChIJVVUJzXiNHmAR8cMBu5ej7fQ,自家製麺 くろ松,370-0815,群馬県高崎市柳川町９−５ ハヤシハイツ,FALSE,36.327312,139.0027322
D1C53075-C80A-3856-0848-E635F8F47A59,ChIJXVRkjtqMGGAR_IYDENOJmJ0,麺屋 海神 新宿店,160-0022,東京都新宿区新宿３丁目３５−７ さんらくビル2F,FALSE,35.6897433,139.7021957
BD74F759-EDA7-EB08-64E8-447A5EEDF02F,ChIJAxKeZNmMGGARQ4EOGHqSdIg,すごい煮干ラーメン凪 新宿ゴールデン街店本館,160-0021,東京都新宿区歌舞伎町１丁目１−１０ ２階,FALSE,35.6937641,139.7045255
42787AD1-B3C4-288F-BFDE-8ABB53F17A5A,ChIJ7Y5yDfuNGGAR83_mrTWVvd8,ラーメン いいかお,125-0061,東京都葛飾区亀有３丁目２７−４,FALSE,35.7662511,139.8497051
AE680659-6B4F-5CE7-A9E8-8EFA646CB89C,ChIJ6XK00umNGGAR56saMFWNS7A,Japanese Ramen 五感,170-0013,東京都豊島区東池袋２丁目５７−２ コスモ東池袋 101,FALSE,35.7330795,139.7179055
DC324223-14EC-3BD2-3202-781AB1870FE7,ChIJ5chAYKCLGGAREljW97UWARM,Ramen Break Beats,153-0063,東京都目黒区目黒４丁目２１−１９ アイビーハイツ 1階,FALSE,35.6335155,139.6987678
25EF4D2B-9E76-D9C0-652B-6D0605A575A2,ChIJV4FvjXFgGGARUjyFG_g2wsU,中華soba いそべ,146-0095,東京都大田区多摩川１丁目２０−１４,FALSE,35.5624686,139.6999014
371682D6-4C79-1FDC-EF76-556320AE3E91,ChIJkVP5ejqNGGAR96viFCXYOl0,だしと麺 遊泳,166-0002,東京都杉並区高円寺南１丁目６−５ 104,FALSE,35.6981985,139.6585402
E4998932-F77F-62AB-A8F0-914D65418E95,ChIJ37Jf_H3yGGARrluVc-AKSBo,麺屋はやしまる,166-0002,東京都杉並区高円寺北２丁目２２−１１,FALSE,35.7079085,139.6498266
1A34E5C9-DAFF-7132-BDE4-8FC1F891B280,ChIJ65C2ePvzGGARSSqWLMif1dc,桜上水 船越,168-0073,東京都杉並区下高井戸１丁目２１−１０,FALSE,35.6688203,139.6335684
6366F256-AF65-4D12-A58A-A0B52A8F2A27,ChIJwa4cZXiNGGARJUEvzZygM7s,神田らーめん 本田麺業 神田駅前店,101-0047,東京都千代田区内神田３丁目７−８,FALSE,35.6907517,139.7701897
CAFBB97F-8C4E-F4F9-782D-0F588252F4C8,ChIJJdyitLiNGGARk0wEjxFkuKM,鰹が昇るまで,101-0051,東京都千代田区神田神保町２丁目１６,FALSE,35.6973888,139.7572561
BBCD8DD9-695C-D9E0-B571-885E7B329F27,ChIJYSmoe0BfGGAREimjrQ2mD00,中華そば 笑歩,223-0053,神奈川県横浜市港北区綱島西３丁目２２−１４,FALSE,35.5391265,139.6277632
73AA184F-E832-868F-8303-FE2CA91B9A6A,ChIJzUbrhzJhGGARaam1ARD4QT4,麺屋 まほろ芭,144-0052,東京都大田区蒲田５丁目３４−４,FALSE,35.5596478,139.7182051
EF6DCD45-9DD6-0383-6D79-EE946622B1EE,ChIJC_xzs59hGGARV9zvRFBuk74,中華ソバ ちゃるめ,144-0047,東京都大田区萩中２丁目６−１２,FALSE,35.5514517,139.7320653
38A59100-D9AD-9E4A-13E1-05C62F0D2E6C,ChIJz56uwATkGGARqCdmtbR0lR0,白河中華そば 孫市,185-0032,東京都国分寺市日吉町３丁目３１−２,FALSE,35.7018808,139.4557536
51CB75EB-97FF-C1FF-AD5D-B75BD564FFC5,ChIJzbey15SHGGAR_n7yrmfZxhE,麺屋 一燈,124-0023,東京都葛飾区東新小岩１丁目４−１７,FALSE,35.7188232,139.8576964
6D725256-61ED-5F8D-0B11-FE5AB63CC03D,ChIJtxjaOouJGGARsPH9QqZa6fQ,麺ふじさき,136-0071,東京都江東区亀戸２丁目８−１１ アドリーム亀戸,FALSE,35.7014487,139.8227529
EAA17098-3486-E9D6-1BE1-F8EDF5D98BD1,ChIJA1MYm3zlGGARoZjdpwjT0Iw,煮干ラーメン 瑞笑（すいしょう）国分寺本店,185-0012,東京都国分寺市本町２丁目１３−８,FALSE,35.7022104,139.481758
6A4CDE41-B1B8-A4E4-5CD3-3BCB41A2C6AA,ChIJbQuIWav9GGARHqtOcSX5jRc,貝ガラ屋,252-0202,神奈川県相模原市中央区淵野辺本町３丁目２４−３,FALSE,35.5728822,139.4052662
838A7F4C-6A67-0B81-C242-A22EA0FED992,ChIJxZI1zkJgGGARi7NQ7fj-SnM,煮干しつけ麺 宮元,144-0051,東京都大田区西蒲田７丁目８−１,FALSE,35.5642274,139.7134278
7E6A7CF2-15E6-15DC-4468-66942C2A0D01,ChIJb9PUgLgdGWAR_4s5vol-j5M,中華そば つけ麺 音七,192-0904,東京都八王子市子安町４丁目１−１,FALSE,35.6552239,139.3366405
BA8B2004-6730-CD70-55D7-8697E98AFF88,ChIJ0xyUTKyNGGARnudXuriv4zc,Ramen Afro Beats,160-0022,東京都新宿区新宿１丁目１６−１０ カテリーナ･ネオハイツ 103,FALSE,35.6900121,139.7110869
B83F1C33-B1CE-E3F6-B108-C088A9AAF0BB,ChIJMwjvt5uNGGAR0xCSZiwfCrc,支那蕎麦 澤田,160-0022,東京都新宿区新宿１丁目１２−１ サンサーラ 第三御苑 1F,FALSE,35.688604,139.7127505
0C11140F-D45F-8802-2CCB-6D1B4B764EB4,ChIJRSS6Gl7aGGARXk_mxHTvxp4,中華SOBA にぼ乃詩,350-0066,埼玉県川越市連雀町８−１,FALSE,35.919203,139.4828663
0C527841-C238-0FBC-C4F9-D1714A9B09A5,ChIJ_Umo8CmPGGARusi92pKqEM0,自家製麺 うるち,111-0042,東京都台東区寿２丁目９−１６ ワールドマンション田原町 101,FALSE,35.7094737,139.7903368
25084CC6-05B3-6369-ECC2-8EE014197535,ChIJxyUd-Rj5GGARk6nU8k52_gs,らぁ麺 すぎ本,227-0061,神奈川県横浜市青葉区桜台２６−１ 第３アサキビル １階,FALSE,35.5502952,139.5153279
BF2DFAE9-1529-49C7-CA16-3A78DCBB69FB,ChIJAQAQyZv3GGAR9ncj9mABlxA,麺処 秋もと,225-0024,神奈川県横浜市青葉区市ケ尾町１１５７−１,FALSE,35.5524606,139.5417131
A5139131-30E5-0670-962B-951BF8E92BBC,ChIJYwyJf-cdGWARpl4lO7ukncQ,博多長浜らーめん六角堂×$LOFT$,192-0085,東京都八王子市中町１０−１０−２,FALSE,35.6578899,139.3350801
3E4A364A-9FDE-D397-D7B0-56BCD2658BBE,ChIJLTqRZRaNGGAR-9M2kJUCWhw,Jikasei MENSHO,150-8377,東京都渋谷区宇田川町１５−１ 渋谷PARCOB1F,FALSE,35.6621425,139.6984964
C6ADD826-ACFD-9064-789F-96A0F423B66B,ChIJI5YJSVfyGGARcivA1eHVLIM,Bonito Soup Noodle RAIK ボニートスープヌードルライク,168-0061,東京都杉並区大宮１丁目２−３,FALSE,35.6824751,139.6456051
00D53048-4A1B-BD9E-AC76-D7F39E842BB5,ChIJoyIJ4_RcGGARUWixFl96kIM,丿貫 福富町本店,231-0043,神奈川県横浜市中区福富町仲通２−４,FALSE,35.4458076,139.631642
96D913BD-6CDB-F552-009A-9B26A7837CEE,ChIJ8ZweXmbvGGARQ9_1O8aFCio,KEN軒,180-0013,東京都武蔵野市西久保２丁目１５−２７,FALSE,35.7094966,139.5596189
E2EE437A-4EDB-EF19-190D-513E66CC782E,ChIJ6-Rvg5-OGGAR99AELnNenOU,らーめん 鴨to葱 上野御徒町本店,110-0005,東京都台東区上野６丁目４−１５,FALSE,35.708395,139.7752792
94068EF6-8579-2A64-9E5D-8CEBEE0CC3EE,ChIJOdj-f73lGGAR5qfVsx6ZGZ4,豊潤亭,184-0004,東京都小金井市本町２丁目６−１０,FALSE,35.7033883,139.5076241
B56BC64E-3F70-9509-CF62-BBF9B35EDD77,ChIJV0yhfo_lGGARqhFl92pJDVs,中華蕎麦 麺ノ歌,184-0004,東京都小金井市本町２丁目２０−４,FALSE,35.7039213,139.5077989
47D58649-607E-4325-1D7D-1D3DF114E668,ChIJqao751flGGARLDPo9H_uKr8,中華そば一清,184-0013,東京都小金井市前原町３丁目４０−２３,FALSE,35.6984359,139.5060862
208389C2-C5C8-6D26-39A4-A60CED92B602,ChIJSYLhoQjlGGARTcbj8Q2dZ4U,たかのちゅめ,187-0002,東京都小平市花小金井１丁目６−３２,FALSE,35.7288853,139.5145058
DF5D7DA7-925A-854F-9A1E-09BA498FC0B2,ChIJsdBwYcbhGGAR3RYwVx4Gm5E,元祖一条流がんこラーメンたま館分店,190-0022,東京都立川市錦町１丁目２−１６ 元祖一条流がんこラーメンたま館分店,FALSE,35.6971078,139.4162491
2F58162F-29C7-F797-3177-171EFBB5DC62,ChIJdWmPClsOHWARMu9kEH5Ldf0,凌駕 IDEA 松本本店,390-0843,長野県松本市高宮南６−１５,FALSE,36.2097452,137.957162
7E3D328F-B12C-3C47-3167-143F7D663802,ChIJv7KaBT2NGGARSf-8HgLfqc8,麺屋宗 高田馬場本店,169-0075,東京都新宿区高田馬場１丁目４−２１ サンパークマンション高田馬場 B 102,FALSE,35.7110962,139.7095725
0A96F9AB-7172-5FD3-BBBA-062ABA59A181,ChIJ7-ZddqhyImARk8_NG-k0A-Y,特級鶏蕎麦 龍介,300-0817,茨城県土浦市永国７７８,FALSE,36.0613614,140.1803455
5C6FF953-B338-C69E-FF30-AC3203A3D7E3,ChIJvfdFQ6-Ym18REE4e8aK6_qU,中華そば ひらこ屋,038-0042,青森県青森市新城山田５８８−１６,FALSE,40.8328346,140.6693981
097BFE0E-CAC8-0669-10C1-1C7E73410C7B,ChIJwUnGVR2TGGARNAEaZNumYhQ,自家製麺 伊藤 赤羽店,115-0045,東京都北区赤羽１丁目２−４,FALSE,35.7782918,139.7214992
0FA3029C-AFC3-20F9-4165-113613E60EC2,ChIJ6-Xn8m6SGGARv3qty7sYNU8,中華そば屋 伊藤,114-0003,東京都北区豊島４丁目５−３,FALSE,35.7632328,139.7459494
C8D25B5B-0620-832B-AC36-287EF7135A69,ChIJAQCUFZMfGWARsEdPBQTlXMo,ハイデン.コッコ FACTORY らーめん 凛々（リリィ）,197-0003,東京都福生市熊川１６５５−３,FALSE,35.722754,139.3437022
6238EF44-B731-7CFC-5B94-C1CFE5577317,ChIJS6CdAN2Fil8RNFFIgqVnD58,麺屋傑心,960-0112,福島県福島市南矢野目向原16−３,FALSE,37.7851342,140.4655492
F6EDEA47-8D98-3DFC-E4E2-22442DF72F59,ChIJtZnNL52Fil8RtYn7-IBmJSU,優味麺亭 鸐(やまどり),960-8101,福島県福島市上町５,FALSE,37.7537952,140.4682316
835BE0B3-F0E5-1C90-32EB-6BAF11D7684C,ChIJQzJzG-3hGGARzKcTfpFHjpk,麺や独歩 昭島本店,196-0022,東京都昭島市中神町１１５７−５５,FALSE,35.7119788,139.3768776
78A3D62E-E70F-73ED-472C-487C33CBB19E,ChIJ7Z83kPUIAWARlKUoOPIGDNs,煮干そば 藍,606-8304,京都府京都市左京区吉田下阿達町２９−１,FALSE,35.0221354,135.7741343
91792B9F-512B-FE41-9C72-86663B9316EA,ChIJr98mN87lAGARKp8ESayHJUk,中華そば桐麺 総本店,532-0024,大阪府大阪市淀川区十三本町２丁目１−６,FALSE,34.7201615,135.4808712
83AD99B4-966B-6E85-BEAB-95E37EFFAE78,ChIJDXhpzQSNGGARcZkio3oYCLE,ラーメン 巌哲,169-0051,東京都新宿区西早稲田１丁目１０−４,FALSE,35.7111661,139.7218871
C2F67D49-C02B-5E87-B6FC-42C587087247,ChIJKZWx0EnkGGARhgIjFIwLyW8,中華そば ムタヒロ,185-0021,東京都国分寺市南町３丁目１５−９ 寿コーポB号１F,FALSE,35.6988782,139.4801983
56F511AC-5C26-0F04-5AD2-EA2C3E005007,ChIJhQxDWxz_GGARXitGbosLAdk,焼あご煮干しらぁめん とびうお,242-0006,神奈川県大和市南林間２丁目１２−１４,FALSE,35.4960455,139.4457631
3CDAF416-B685-5A24-DAFE-0CABE6D0CD51,ChIJI7U30ZL_GGAR8Q31K8Vd0Ic,らぁ麺 秀登＠営業情報はX(旧twitter)で更新,252-0001,神奈川県座間市相模が丘１丁目２７−１０ シャンボール相模原 004,FALSE,35.5137726,139.4205635
B65C8DF5-5EC4-F0A3-83BC-3BE3AA414ADC,ChIJywOYIuEeGWARH__Dyxe_cz4,一陽来福,193-0803,東京都八王子市楢原町４７２−１,FALSE,35.6804497,139.3075305
6436ABF6-4A94-2917-6660-E8D2F8704B41,ChIJpb_d_mIfGWARZG74Iw8lWvA,金蔵,193-0803,東京都八王子市楢原町１４７３−７,FALSE,35.682229,139.3014835
3913BB80-B6DD-8757-2617-6974C2247528,ChIJeUw8HuEeGWARP3MGnc25OM0,みんみんラーメン 本店,193-0803,東京都八王子市楢原町４３７−１,FALSE,35.6805235,139.3070538
53C51789-E55E-6ADF-A3B3-9B5470695620,ChIJzyotuKf9GGARvOneQbyD19U,拉麺一匠DEAD or ALIVE,252-0206,神奈川県相模原市中央区淵野辺３丁目１６−２,FALSE,35.5710794,139.3943749
58CDF9AB-B517-5651-5B8A-EA63177ACEB5,ChIJx5rjlVKNGGARUGxWrmh9aGM,中華ソバ 伊吹,174-0063,東京都板橋区前野町４丁目５８−１０,FALSE,35.7726934,139.6925444
F2CCCEB1-E3F4-DA69-ABB5-FD9787F1D223,ChIJyWQUbVOTGGARk7oJtEGquNM,のど黒らぁ麺 永屋,164-0001,東京都中野区中野５丁目５３−５ マガザン中野 2F CAFE＆DJBAR Ns,FALSE,35.7093651,139.6665243
49D48F3A-89E5-78B7-89D9-409D0E2CE915,ChIJS_GL9c_zGGARXhjd-L7lFeQ,中華蕎麦 一心,166-0002,東京都杉並区高円寺北２丁目４０−１６,FALSE,35.7089489,139.6516956
30D021C1-B26F-0826-500D-9D7BE5F66985,ChIJmWKVBJaR918RBAbGTdHt9XA,中華そば つぼみ,930-0997,富山県富山市新庄北町１８−２４ １Ｆ,FALSE,36.7157928,137.2642585
8869F006-25B9-41B4-7740-AEDA5E0B4383,ChIJxTy0xTO9918RsgZtwOBvmGA,らーめん和草,936-0053,富山県滑川市上小泉1841,FALSE,36.7596948724788,137.346070981799
FEDF7B8C-AC1A-0140-0511-F7B077CBBF82,ChIJC-NKppuQ918Rd8iexHVuGUo,ラーメン一心 富山駅前本店,930-0003,富山県富山市桜町１丁目１−３６ 富山地鉄ビル1F,FALSE,36.6996946,137.2161758
48710238-BEEF-9F4D-82B5-C1E2CEBA47CA,ChIJM0asic5z918RLj398wXripk,貪瞋癡(とんじんち),935-0022,富山県氷見市朝日本町１−３０,FALSE,36.8557171,136.9863853
DCD587B6-3BC4-8257-9339-D52EF5183432,ChIJGTrknqz0GGARxnC8Ps-HaWc,八雲,153-0043,東京都目黒区東山３丁目６−１５ エビヤビル １Ｆ,FALSE,35.6501307,139.6868459
EA7F1893-2E24-F266-4F1E-841DA49DBC29,ChIJQfUbcpoeGWARdYIrmTwQUIQ,中華そば 吾衛門,193-0835,東京都八王子市千人町３丁目３−３,FALSE,35.6573371,139.3110139
30FEFCA4-A3CB-F67C-15D4-8873CD529EEE,ChIJp1qTuZoeGWARgOmDF0LZmws,中華そば 弥栄,193-0835,東京都八王子市千人町２丁目３−３,FALSE,35.6581391,139.3138805
9C52D6B3-19B6-D657-F1F5-EB07544C86BF,ChIJ85RhI3oeGWARW1oaDxUEkuw,藍華,192-0063,東京都八王子市元横山町２丁目２２−３,FALSE,35.6628792,139.3332875
5B55A118-DEF4-63ED-1F12-F33BF8A120EC,ChIJscnXcG8dGWARZWV-KxMs4MI,麺処 ますや八王子店,192-0081,東京都八王子市横山町７−２ OK21ビル 1F,FALSE,35.6590532,139.3376217
47D983AF-AA37-EE10-E0BF-B2A116D59788,ChIJu4e3Tb6OGGARjObOQwchxng,麺 みつヰ,111-0042,東京都台東区寿２丁目９−１５ サカエビル 1階,FALSE,35.709534,139.790322
2E915475-6D46-5EAB-5A20-DE54314261E3,ChIJR_nEnHnhGGARlbTOqtH-GGQ,らーめん愉悦処 鏡花 立川本店,190-0023,東京都立川市柴崎町２丁目１２−２０ ウェストヴィリッジ,FALSE,35.6962175,139.4103194
D65D863F-3249-B819-2C37-0BA66C738702,ChIJ3VyFgEXhGGAR50qCCLBHDmk,中華そば おや麺,190-0011,東京都立川市高松町１丁目３０−１３,FALSE,35.7100238,139.421807
EDA98187-4AD7-9604-419F-0C4A6E1BA872,ChIJ3Q_I5GThGGAR4Tsgy3xYB3E,楽観 立川店,190-0012,東京都立川市曙町２丁目２３−１ 嫩ソシアルビル1Ｆ,FALSE,35.698731,139.4179812
716120C3-FF3B-EF20-598E-A319691AAE4C,ChIJxa-XBf5PGGARSiU2Sgnr3_c,うずとかみなり,251-0027,神奈川県藤沢市鵠沼桜が岡３丁目５−７,FALSE,35.3302264,139.4759396
6135B9C3-B045-8159-60AE-7F7B1CA6DAFF,ChIJYfb-0JxTGGARFW9nsi90_mk,らーめん藁,253-0015,神奈川県茅ヶ崎市代官町５−１ メゾンドピア２,FALSE,35.3387998,139.4345967
9B13865A-A5F4-4E5F-DCD2-B8F490C263D4,ChIJ43ksEov5GGARFsKBk3EO5vk,なか乃中華そば,242-0007,神奈川県大和市中央林間２丁目１３−１０,FALSE,35.5048257,139.4489133
E8648186-7203-B524-589C-9C2EBFD4A7A0,ChIJu_KXuoHlGGAR-o862as7a6E,めん屋 平右衛門,184-0011,東京都小金井市東町４丁目４３−１２,FALSE,35.7005661,139.5248499
8DFC4DCE-FDD0-EED5-0B89-DAFA9131732E,ChIJszjskMjnGGARGsd_f3GvUi4,ラーメンWalkerキッチン,359-0023,埼玉県所沢市東所沢和田３丁目３１−３ ところざわサクラタウン ２Ｆ,FALSE,35.797253,139.5069253
5E9F9192-3BCE-78BB-6CCE-367828EC6C44,ChIJQQW2nV-NGGARbL3PTvERMcE,宍道湖しじみ中華蕎麦 琥珀 池袋店,171-0014,東京都豊島区池袋２丁目４８−７,FALSE,35.7337674,139.7113112
9F9705E1-8A7F-47AF-4D22-8FBCFEF6CEB5,ChIJXXLcSScdGWAR1ASq9A4h66Y,中華蕎麦かくれんぼ,193-0833,東京都八王子市めじろ台１丁目９−１ 2階,FALSE,35.6440127,139.3067038
82CF1F50-BC70-1D0B-175B-1945AF865CF2,ChIJYVMPunzzGGARMDXXt2aQpWY,純手打ち 麺と未来,155-0031,東京都世田谷区北沢３丁目２５−１,FALSE,35.6635774,139.6686423
527A965C-1055-30DB-8E50-7ABDB74CAB31,ChIJmwyspW_zGGARZgqEnpM3UpU,経堂めん助,156-0052,東京都世田谷区経堂５丁目３−２０ ソレイユ経堂,FALSE,35.647512,139.6357947
FB84BFFE-D3B5-07CD-A8D2-B668E454A3E6,ChIJF939KYeNGGARfX5nGwriMNU,麺処 図鑑,150-0043,東京都渋谷区道玄坂２丁目２８−１ 椎津ビル B1F,FALSE,35.6592778,139.6976514
60A69A02-D3D8-107F-DAF0-C6BE4ED06E3F,ChIJ40dvqVv3G2ARd0j7N0aYdZ8,手打ち工房 凌駕,400-0043,山梨県甲府市国母５丁目６−５,FALSE,35.6386452,138.5515594
05BC2756-2598-1369-D80E-3FD494A2C86C,ChIJ779Z_D73G2ARefM0RkVpCNM,中華そば 秋山,400-0203,山梨県南アルプス市徳永２３１−３０,FALSE,35.663661,138.4899905
A8DDC04C-236E-2B0E-8680-FD4BF5787632,ChIJO-5J8kb3G2ARGKs8FEp4po0,麺の虜,409-3864,山梨県中巨摩郡昭和町押越７４４−２,FALSE,35.6294996,138.5320947
9625CDD9-2063-9A11-B55A-44D9D1048491,ChIJvfJigEAdGWARp0NyePxgRQc,中華そば専門店 大勝軒,192-0904,東京都八王子市子安町４丁目２６−６ とちの木ビル,FALSE,35.6527357,139.3382024
0CC27CE5-5127-AA85-EA54-38B004F7D252,ChIJUZcfdReJGGARUs6sdU9msw0,Homemade Ramen 麦苗 COREDO室町店,103-0022,東京都中央区日本橋室町２丁目３−１ COREDO室町 2 地下1階,FALSE,35.6866687,139.7748698
7E50C66A-7C31-48BA-B431-A3E1D709F6A7,ChIJk2qSjvT5GGARcFGHTHwXbbU,ラーメン将太 下鶴間店,242-0001,神奈川県大和市下鶴間２７９３−３,FALSE,35.4946976,139.4538292
5F26EF02-1945-E12D-1786-97DF65DC6272,ChIJk-5rPFmJGGARLTzzx8aMv-o,麺や 七彩,104-0032,東京都中央区八丁堀２丁目１３−２,FALSE,35.6771772,139.7763297
6F754CCD-637B-1C7A-1DFE-28D5C5B9DB5F,ChIJG7k9efyLGGARy12VNvIo8xk,そらのいろNIPPON,100-0005,東京都千代田区丸の内１丁目９−１ 東京駅一番街地下ラーメンストリート,FALSE,35.6802234,139.7680284
C7D20854-E246-D5D7-50D8-08EBDED3347E,ChIJsZ2zeG2LGGARZGBrQZcygp0,自家製麺ロビンソン,105-0001,東京都港区虎ノ門１丁目１６−９ 双葉ビル 1F,FALSE,35.6681892,139.749214
C2F69B17-D777-312E-76D9-17EB80F86814,ChIJOcXnI0CMGGARd8PgUL6VcpM,二階堂,102-0073,東京都千代田区九段北１丁目９−１４ 101,FALSE,35.6978848,139.7512276
78F3FC56-FA09-DC53-61C6-BF42EBEB5C4C,ChIJl8JerWT3G2ARiaj-WUDgKeo,中華 福吉,400-0041,山梨県甲府市上石田２丁目３９−１３,FALSE,35.6547222,138.5530556
06EC95B5-ADA2-869C-6485-13A9BBA6993B,ChIJsaS1TvuEGGARsdVk1mZ2xfc,ラーメンつけ麺油そば兎に角 松戸店,271-0077,千葉県松戸市根本４６２ 比嘉ビル 1F,FALSE,35.785838,139.901765
A7FC061F-2B55-680A-2081-F5332854DF55,ChIJHxchK9-dGGARg7jhmhjnmM0,中華そば榮田,277-0025,千葉県柏市千代田２丁目２−６,FALSE,35.8550462,139.9739225
39272C3F-644F-6F48-DB4E-23F956A00EA8,ChIJ__9YKeibGGAR_hH-pv4yFIU,The Noodles & Saloon Kiriya,270-0121,千葉県流山市西初石４丁目４７５−１,FALSE,35.8818505,139.9164588
D5049E73-D931-7D03-EBC5-1596542B2166,ChIJ57YZhZX0GGAR15OSBve0YoQ,せたが屋 ひるがお 駒沢本店,154-0003,東京都世田谷区野沢２丁目１−２,FALSE,35.631849,139.6700664
439261EA-D380-8F1C-1B18-DF3F8629E72A,ChIJDwDIuF_mAGAR24ZQR5UC5vo,烈志笑魚油 麺香房 三く,553-0003,大阪府大阪市福島区福島２丁目６−５,FALSE,34.6937556,135.485914
FC49822D-17F1-346C-4C6D-77C81B168F70,ChIJheIvSFLnAGAR6tUj_llwgS0,麦と麺助,531-0072,大阪府大阪市北区豊崎３丁目４−１２,FALSE,34.7113357,135.5000108
10FDF3DB-8557-D41A-9D29-05D2D8599E67,ChIJ3TsNrPnlAGARZ9h8RoV4uj0,NAKAGAWA わず,533-0022,大阪府大阪市東淀川区菅原６丁目２４−１２,FALSE,34.7416129,135.5201999
2EB0C5B6-F90C-CF53-4DE9-ED1719474D1F,ChIJoVTplYnxGGARjozYWpUhY5s,秋刀鮪だし中華そば 宣久,157-0062,東京都世田谷区南烏山３丁目２４−７,FALSE,35.6716938,139.607972
7EF699C6-566A-0D05-F95F-E2DCA1B4DF2C,ChIJASn4Tw3xGGARfoKmHc35jbI,手打麺祭 かめ囲,182-0007,東京都調布市菊野台１丁目５５−１,FALSE,35.6546192,139.5643611
AB2097C1-FC54-44A2-FE0E-FF3B8532B490,ChIJraYb_m33G2ARMOHPuSj916Y,中華蕎麦 うゑず,409-3867,山梨県中巨摩郡昭和町清水新居５９−１,FALSE,35.6507114,138.5436941
9F1E344F-87BE-95A2-61D6-D2EB20B4F109,ChIJjezGmkX3G2ARKkfuCmZ6Cxk,無垢 -zweite- Korfu,400-0048,山梨県甲府市貢川本町１８−２０ 素美江ビル １階,FALSE,35.6533021,138.5480556
602F2BCB-B035-ADA1-085E-B3D553441C58,ChIJ3ShXtzj1GGARl0faPMUOBYM,横浜らーめん 渡来武 総本店,211-0063,神奈川県川崎市中原区小杉町３丁目４３０ コパンビル １階,FALSE,35.574511,139.658661
91D1CBB8-86FA-F777-19B8-6B15D6A0DB29,ChIJKY6lWNaMGGAR9htWYuqXko8,らぁめん 満来,160-0023,東京都新宿区西新宿１丁目４−１０,FALSE,35.6929709,139.697881
68BF12AE-01EB-1A3A-B1DF-FE12FA1541C3,ChIJ58HnHaLzGGARbJj5uZuLaOk,タナカロボ,156-0053,東京都世田谷区桜３丁目８−１５,FALSE,35.639922,139.6369905
C74294AD-5F2F-5B14-4C70-3C60F2627B54,ChIJAQA8kufzGGARj4Qy_V72P7A,中華そば 西川,157-0073,東京都世田谷区砧２丁目１５−１０,FALSE,35.644243,139.6181753
1AA9DB7A-C3F8-CF95-27EE-BB56A9EA5792,ChIJp_3Z_DWlGWARNH6Au9ZJ0Xo,麺庵ちとせ,250-0865,神奈川県小田原市風祭77−１,FALSE,35.2444062,139.1275865
ADBA2590-9BF6-493C-D094-40265C568963,ChIJAQDXJ0yaImAR8477qkVZpYM,にぼしラーメン一恭,342-0042,埼玉県吉川市中野1−２−１０２,FALSE,35.8813407,139.8514332
2333376A-583F-24ED-643A-FB3E24D38FB8,ChIJFbAqlSmbGGAReOv9FunmzYM,中華蕎麦 柳,270-0004,千葉県松戸市殿平賀８２,FALSE,35.8355015,139.9301901
1A8EDCFD-9139-B514-67B1-661014B4F7CC,ChIJ5z87b3qLGGARFX0mVHjaDvk,中華そば 満鶏軒 南平台店,150-0036,東京都渋谷区南平台町１５−１１,FALSE,35.655353,139.6950536
BE8C3641-FEDF-7DA0-13FC-7A0FF4E364ED,ChIJVVVVVSaJGGARhcW4PkJWZ_I,真鯛らーめん 麺魚 錦糸町本店,130-0022,東京都墨田区江東橋２丁目８−８ パークサイドマンション,FALSE,35.6942311,139.8118323
4A56F0C6-7863-8829-B79E-81234E07B10E,ChIJQQ6NuH_nGGARZ6wWD8OLLdw,中華そばや 和凡,204-0022,東京都清瀬市松山１丁目２０−２,FALSE,35.7694633,139.5170394
6A9B7A3E-0751-2758-ED16-C22C1D59DD1F,ChIJRfkQRwiNGGARIbsP55avKmI,中華そば 流川,160-0023,東京都新宿区西新宿７丁目９−１５ 新宿ダイカンプラザ ビズネス 清田ビル 101,FALSE,35.6946643,139.6983711
D8ACF1C2-CBBA-F49A-DCB9-7CE2B86A4BCD,ChIJu5xd0bnzGGARBCKXcg71Xxs,西永福の煮干箱,168-0064,東京都杉並区永福３丁目５５−３,FALSE,35.6787322,139.6364187
DC167891-3F20-BAE2-3C32-E4AEC6DB021A,ChIJn-VCV_TkGGARYs-ZpJAKl1M,中華そば ふくみみ,183-0045,東京都府中市美好町１丁目３３−１,FALSE,35.6734604,139.4679493
76D4A6BE-C68F-1866-F976-D027765C5ED4,ChIJzW8ZDd7iGGAR93SMcL6wKi8,ラーメン二郎 八王子野猿街道店2,192-0355,東京都八王子市堀之内２丁目１３−１６,FALSE,35.6294791,139.4013459
3FBC60A7-BD1D-0A3D-7844-6402780CAB15,ChIJg6tsCtziGGARW0lhTBAnGbk,中華そば 一信,192-0355,東京都八王子市堀之内３丁目３５−１,FALSE,35.6254308,139.3998
673C1B9E-8EE1-6C47-5EC9-151C0E17467B,ChIJVVWZVCfjGGAR6NZvD2CgqEo,大紅らーめん,192-0355,東京都八王子市堀之内３丁目１１−１４,FALSE,35.627885,139.4062403
E223C6BD-71EB-C7C9-9140-9170AC003FED,ChIJJevHlN7iGGAR23XAY5NcsdA,煮干しそば 虎空,192-0352,東京都八王子市大塚１４９８−１,FALSE,35.6357731,139.4178358
B9451DC9-AB9C-3ABF-5BC3-C636F37547D3,ChIJtzWnrZxaGGAR5HqTIxLJclM,支那そばや 戸塚本店,244-0003,神奈川県横浜市戸塚区戸塚町６００２−２,FALSE,35.4014011,139.5318251
382014DD-59D3-AE61-2609-FD6B63844EB1,ChIJ-X3CDCJfGGARex1pu2t-Yk8,KITCHEN TAKANO,221-0002,神奈川県横浜市神奈川区大口通１１−５,FALSE,35.4906161,139.6447499
3A07AA9C-93D9-D665-60C9-A7F18A77A950,ChIJJc49BwyNGGARnPgllSJPq2I,中華蕎麦こかげ,110-0005,東京都台東区上野２丁目２−６ 芙蓉ビル 別館,FALSE,35.7086126,139.7722661
4C9C0F75-1272-0B06-1613-80851F91303A,ChIJBQN1dguLGGARDFEFQHPLWyE,麺屋優光 銀座店,104-0061,東京都中央区銀座７丁目３−１３ ニューギンザビル,FALSE,35.6702005,139.760118
CD01F744-9774-CD92-4813-CAA5E4DAE3CE,ChIJiTVMNYkdGWARlR6Dli8HJTU,JAPANESE NOODLE HGN,192-0046,東京都八王子市明神町２丁目２２−２,FALSE,35.6582009,139.3449553
A1D4CC14-CDFC-1BDC-D81B-C55C0C8F6A76,ChIJUXdl-DcdGWARIELwSqQzZZc,中華そば専門店 八王子ラーメンよしだ,192-0082,東京都八王子市東町１−３,FALSE,35.6577155,139.3410465
6D1E0B8A-4A36-6A30-DF0C-C497C90FAD57,ChIJBTQcW3bpGGAR2BXJFD5E_Bo,中華蕎麦 瑞山,351-0011,埼玉県朝霞市本町２丁目８−８−１５,FALSE,35.7991343,139.5959443
17DA78AF-35E5-B0D7-2D63-5AE0DD2A976F,ChIJZYyv82fxGGAR7YFYWASYNAU,一番だしラーメン しんせん,182-0035,東京都調布市上石原２丁目３０−１９,FALSE,35.6562564,139.5298297
5D1EE062-AB51-0449-7CD4-BACC6FD93A62,ChIJHXhD8yXlGGARQk6kTlQd5lk,地鶏と金目鯛 中華そば 鶯,206-0011,東京都多摩市関戸１丁目12−５,FALSE,35.650174,139.4481897
7A722379-09E3-8A97-3CE5-2CB5E35807C7,ChIJT29jztYdGWARCa0j2uOvjhs,ラーメン白（はく） 八王子,192-0081,東京都八王子市横山町５−９,FALSE,35.6596395,139.3379968
E1AB3235-0D2F-474A-BD0D-401D9320363A,ChIJFeqIHwbvGGARwQ2PoJaaB6c,麺や 麟子鳳雛（りんしほうすう）,167-0023,東京都杉並区上井草２丁目３６−１０,FALSE,35.7248375,139.6048113
53C951B7-1CB3-DFAE-9838-D94D34C3479C,ChIJqemtcmKNGGARpn0HqpO7eeE,MENYA NAKAGAWA,171-0014,東京都豊島区池袋２丁目３８−７ 加藤ビル 1階,FALSE,35.7335677,139.7081113
70E4A60F-2A7F-408B-3F7D-3CBFAD16C87C,ChIJv9NccDFOGGARFSRqEr6Vt5g,らぁめん鴇,251-0052,神奈川県藤沢市藤沢１０３４,FALSE,35.3390832,139.4814638
7994ACB8-58D7-C895-C072-31926A6678D0,ChIJWyX-G65aGGAR0tCW1cTfQ0M,らーめん 森や。,244-0841,神奈川県横浜市栄区長沼町３３９−１０５ 二本松ハイツ105,FALSE,35.3792051,139.5379109
EECB08B0-AE23-6FB6-D050-17520C332862,ChIJHygAKHddGGARRhn4G2q48OQ,淡麗拉麺 己巳 野毛本店,231-0064,神奈川県横浜市中区野毛町２丁目８７−１ イニシア横浜桜木町 103,FALSE,35.4483757,139.6292666
11AC94DA-8BD5-9CC9-A578-184111732749,ChIJuZrUH4AfGWARxVk2bkuPCdQ,ビーフラーメン＆つけ麺 シゲジン,192-0085,東京都八王子市中町８−９,FALSE,35.6588658,139.3358235
158A556A-4BF5-55EC-23A2-D97F929A35B5,ChIJcVJutSaLGGAR_bjPN6HdVIk,雲のきれま,105-0014,東京都港区芝２丁目３０−３０ プロシード三田,FALSE,35.6497949,139.7521472
C1CD6853-EB21-AB6A-B82C-D5AF09DF6604,ChIJmeNMvcfhGGARWeriuHez5Zo,麺屋 徳星,190-0023,東京都立川市柴崎町３丁目４−１３,FALSE,35.6967947,139.4149142
FE06A012-E585-F970-7375-4ADF8F2E4BB0,ChIJUTFxChGPGGARNusZUl5P_4M,麺屋上々,111-0051,東京都台東区蔵前３丁目１７−３ ＳＩビル １階,FALSE,35.7056238,139.7908551
B35DFC32-7189-BF1A-BBB5-FE19D1F3E18E,ChIJhUSEkMIdGWAR8ns2BYKkVhc,でんでん,192-0904,東京都八王子市子安町１丁目３７−６,FALSE,35.651657,139.3443035
6DE1C032-554B-F67C-212F-B1DAF5C03E6A,ChIJrZ_agDuLGGARet4Ysk6VFas,麺屋 周郷,105-0004,東京都港区新橋４丁目１９−１,FALSE,35.664574,139.7576239
C6BD4A87-DB81-9BD6-A2DA-8DE2CE7E3594,ChIJX05jZOaLGGAR2rUy9EXaYLk,銀座 八五,104-0061,東京都中央区銀座３丁目１４−２ 第一はなぶさビル 1階,FALSE,35.6705477,139.77015
185E1C81-5732-EDAC-3121-7FF8A3E3A68E,ChIJSRvys-eLGGARzwqQ4I3g03o,むぎとオリーブ 銀座店,104-0061,東京都中央区銀座６丁目１２−１２,FALSE,35.6690038,139.7643604
82289CEA-84BB-9DA5-4ABD-C1953299E382,ChIJAQD74dAfGWARts_EBCJURuQ,らーめん縁,196-0015,東京都昭島市昭和町５丁目１２−１１ コーポアサイ1F,FALSE,35.7116253,139.3586817
B8D20076-C455-DB97-A5C4-19E994D81197,ChIJt9UN1JAhGWARWYyB-vNe0JI,中華蕎麦 麺とスープ,197-0022,東京都福生市本町８６−１１,FALSE,35.7401884,139.3259529
750F48CC-37F6-3A37-F184-C093DC7F4333,ChIJhWWgOunhGGAR7cK8PoRyBMo,三代目しゅう,196-0022,東京都昭島市中神町１１７１−７,FALSE,35.7118105,139.374954
FD24AAFD-5453-5801-47D1-EFAB50D82742,ChIJp1WYh3uKGGARrQV4fNykXus,麺壱吉兆,140-0011,東京都品川区東大井５丁目６−６,FALSE,35.6073068,139.7371838
1DBD8A61-4DB2-5413-8FD8-DEA2D64A2823,ChIJgd-eM_P7GGARnZDmtuUGi68,鴨と伊勢海老 中華そば 獅,206-0025,東京都多摩市永山１丁目3−２,FALSE,35.6309136,139.4481184
1E767DF2-ED36-B9E1-83CD-A661EAC78D96,ChIJjcMAm3keGWARdjKcBjd78D0,麺処あずき,192-0066,東京都八王子市本町１４−１０,FALSE,35.6614956,139.3328432
FA2AD42E-7204-1AB1-5802-3DBC8542BF00,ChIJ79Wl4kj_GGAR6RyFgqL9GDs,麺庭つむぎ,242-0006,神奈川県大和市南林間２丁目３−５,FALSE,35.496945,139.4465409
7574305F-3010-93B5-E0D0-E1B46217D864,ChIJl0mhQe4dGWARMmlPlPerUOk,麺とスープの店 歩き出せ、クローバー,192-0046,東京都八王子市明神町３丁目２４−１２ フィシオ京王八王子 1F,FALSE,35.6568804,139.3442402
D170F486-BBD5-265D-6442-1DDBB67E65F8,ChIJx7c8hxQfGWARpGYMZxFAD7Y,らーめん愉悦処 鏡花 八王子想庵,192-0085,東京都八王子市中町７−９ 中町ビル,FALSE,35.6584912,139.3357522
39090DF2-3ECC-375D-1D57-59396C2D9B2C,ChIJGU6qnaIZGWARGGG4HPgXVss,らーめん にじいろ,192-0153,東京都八王子市西寺方町６７−４,FALSE,35.6728192,139.2638126
055DA4A4-8FFD-49BB-FBD0-0644996D0D1E,ChIJkS7XjlaJGGARtYIWvy9QceU,日本橋 製麺庵 なな蓮,103-0022,東京都中央区日本橋室町１丁目８−７ 東信室町ビル 1F,FALSE,35.6845485,139.7758784
1243F0EC-BDF2-1980-F723-C4506B398E34,ChIJsyaTNvfyGGAR5kwx0DoN398,中華蕎麦 蘭鋳,166-0013,東京都杉並区堀ノ内２丁目１３−１３,FALSE,35.6885724,139.6550552
E2CA6F83-5F14-D3DD-5337-8E59287712B2,ChIJ8UzNFO-LGGAReXj-dMRWO04,朧月本店,104-0061,東京都中央区銀座６丁目４−１３ 浅黄ビル 1F,FALSE,35.6711747,139.7613294
FA494DB0-EC6B-74CE-B055-0793B2DD2BE5,ChIJOccpu1vzGGARtjxv9rYPt7k,貝麺みかわ,155-0031,東京都世田谷区北沢２丁目２５−４,FALSE,35.6617366,139.6668405
B4420300-D563-08EF-0FCD-A6EDD62544CD,ChIJR3W6fRydGGARNH0JdUKVfQE,麺処 にし尾,277-0014,千葉県柏市東１丁目２−４５ 石戸第3ビル 101,FALSE,35.8579018,139.9766915
DA13C2F3-9E5F-52C2-75F8-C0258DB1F3CE,ChIJ3-wNQ4eEGGARAM1dRjXBVz0,麺響 万蕾,130-0024,東京都墨田区菊川１丁目１１−１５,FALSE,35.6888314,139.8027533
A59BFEC0-5411-4EEA-CC3C-EE1183C6196E,ChIJ5dfvZSKbGGARx9GS5E36BKo,ラーメン ニュー松戸,270-2231,千葉県松戸市稔台１丁目１−１７,FALSE,35.7891582,139.9305137
D4D6488B-3002-E044-27C8-E93D3F5CCF0A,ChIJ__9W6IaLGGARCDSyySTubag,赤坂麺処 友,107-0052,東京都港区赤坂２丁目１３−１３ オレンジビル 1階,FALSE,35.6719376,139.7385634
57C48912-9D11-3879-5CBA-149E389D1687,ChIJ8Y7wsRTzGGARbJYXVCftK9w,中華そば こてつ,155-0031,東京都世田谷区北沢２丁目３９−１３ 田丸ビル 1F,FALSE,35.6646202,139.6663347
DFCBD091-1F9B-490C-B1F2-2B105463AAE0,ChIJAQAxq1eNGGARfeB0R3ZIbhk,中華そばしながわ,171-0021,東京都豊島区西池袋４丁目１９−１４,FALSE,35.7303103,139.6988208
3F686B4C-A7EA-3CA7-C498-CFA802363F4B,ChIJublUIwaNGGARGI0SGt-pwu8,MENSHO,112-0013,東京都文京区音羽１丁目１７−１６,FALSE,35.7163294,139.7286796
A6AD5C8C-89E0-85B3-704D-BEEA1720F3CA,ChIJ5dpppwqOGGARPt7AsBgBfpg,Ramen にじゅうぶんのいち,116-0012,東京都荒川区東尾久２丁目１９−１０ 西脇ビル 1階,FALSE,35.7445925,139.7729287
F987AC30-F322-4C88-01B8-2BF0427CC166,ChIJ0ZqrzauLGGARIVxqSF4K-A0,RAMEN 百舌鳥 (ramen mozu),107-0052,東京都港区赤坂５丁目３,FALSE,35.6730508,139.736411
83D41AA2-D785-B3A0-FD52-336F26315356,ChIJ3ZViXseLGGAR5w1NeYJo9qM,利尻昆布ラーメン くろおび 虎ノ門本店,105-0003,東京都港区西新橋１丁目２０−１１ 安藤ビル 1F,FALSE,35.6678028,139.7521611
0624421F-4486-2921-D4FD-3C780D06DB24,ChIJYaarvPKSGGARdy6Q0enB4j4,煮干そば 流。,114-0034,東京都北区上十条１丁目１３−２,FALSE,35.7610819,139.7224053
B316CD4A-8171-B998-97C8-19DAA6546F4E,ChIJ8ZEdIT_yGGAROmu5qkYbnLc,支那そば たんたん亭,168-0065,東京都杉並区浜田山３丁目３１−４,FALSE,35.6818167,139.6274106
E6D027BC-BDE2-C023-A509-C8C3A9D6C0BA,ChIJBRWw13fxGGARGhSxoCXllJ4,中華蕎麦きつね,157-0062,東京都世田谷区南烏山３丁目３−１,FALSE,35.6707809,139.608566
7FA8FAA0-8DB6-AD64-0A42-9B58B790E16E,ChIJPZ_Xb90dGWARe6PplCkLQv4,弘富,192-0046,東京都八王子市明神町３丁目１１−１,FALSE,35.6548433,139.3442448
14C8076D-63E2-29AB-93C2-E446D94E75A5,ChIJwyXEkyb1GGARlq5MQ-Uvi28,中華蕎麦 三藤,152-0034,東京都目黒区緑が丘１丁目１４−２ 1F,FALSE,35.6100341,139.6775187
A51C5791-257F-028D-8A09-82D523EB8E52,ChIJrZ8YTCUnGWAR7669LBQtJWE,中華そば きなり,357-0035,埼玉県飯能市柳町7-9 誉田ビル 1F,FALSE,35.8529606040888,139.321132398174
AD661A5F-EEA6-B542-772C-A55B3EB7D811,ChIJq3xnq5yNGGARms2gb1-YQD0,麺堂にしき 新宿歌舞伎町店,160-0021,東京都新宿区歌舞伎町１丁目１１−３ 歌舞伎町ビル 1F 九石新,FALSE,35.6948151,139.7026833
7103C4BD-8678-1548-EA4A-AF3F732DCA2C,ChIJocn5k9wdGWARCGySZ_AQpow,元祖敏々亭 びんびん 本店,192-0904,東京都八王子市子安町１丁目８−１７,FALSE,35.6532054,139.3410144
F98683BB-5B6A-0E6E-605B-36AC9AC1761A,ChIJJU__SAnjGGARtbxYbsxjuCw,らーめんぶん治,191-0011,東京都日野市日野本町３丁目１２−２ イノウエビル 101,FALSE,35.6786311,139.3948592
35607F35-D19C-C6EB-278F-EC2158441AAC,ChIJ-XBj54qOGGARmnKgcf30kwA,ラーメン屋 トイ・ボックス,116-0014,東京都荒川区東日暮里１丁目１−３,FALSE,35.7311869,139.7920319
1E5FB688-27C8-DA4A-ACED-E969BBDB99B4,ChIJUavPYxWNGGARCOJBccB4MKA,高田馬場 ラーメン 麺匠 いし井,161-0033,東京都新宿区下落合１丁目３−１９ 第3丸条ビル1階,FALSE,35.7156124,139.7032559
CBA29142-588B-3203-B791-CE7681DA1E40,ChIJ84McqUSLGGAR8KhSukUSKIs,入鹿TOKYO 六本木,106-0032,東京都港区六本木４丁目１２−１２,FALSE,35.6647715,139.7316832
5E16BE09-12E9-7808-7B9C-DB394DFAE0D3,ChIJYc-cI3YeGWARVl6dsV4PcD4,煮干鰮らーめん 圓 八王子本店,192-0081,東京都八王子市横山町２１−２１,FALSE,35.6603241,139.338423
D1016976-13DD-49D2-F307-9587CBC4B69C,ChIJA-yqyMfhGGARUksfjLQLUY0,中華そば ◯決（まるひろ）,196-0034,東京都昭島市玉川町１丁目４−１３,FALSE,35.7048966,139.3836817
BF90EDFA-FDB1-5E79-BF89-6BE02C4FE9A9,ChIJP6mC8M3hGGARHlH1AlhefaE,アンタイヌードルズ,196-0025,東京都昭島市朝日町１丁目３−１４,FALSE,35.7077694,139.3758587
BD9DDA84-3D43-F753-BD72-EA3BF62C3174,ChIJI9RPAhDuGGAR9Od7HMkzjnM,麺尊RAGE,167-0054,東京都杉並区松庵３丁目３７−２２,FALSE,35.7017815,139.5991777
ADC59881-4701-D149-FFB2-4E989D02B304,ChIJ7eKH63weGWARHaB_qwPg07U,ラーメン 八王子 響,192-0061,東京都八王子市平岡町１５−１４,FALSE,35.6635296,139.3281165
13EB45AE-1780-7773-3EBE-4028B275C89F,ChIJE3yNMUUdGWARgVHyn_ojK64,麺笑巧真,192-0046,東京都八王子市明神町４丁目１２−２,FALSE,35.6597537,139.341961
60422A9B-7A34-D376-24F7-C186DBA65466,ChIJVxRAKuohGWAR4ssUWSrLUyM,ラーメン煮干乃宴,205-0011,東京都羽村市五ノ神４丁目４−２ 加藤第一ビル １０５,FALSE,35.7607411,139.3148168
DAA979BE-BA8C-3EE1-752B-6B5E22B87067,ChIJAQBBw40eGWARJye-f-LY8z4,麺や睡蓮,192-0051,東京都八王子市元本郷町３丁目１７−１,FALSE,35.665178,139.3161363
73B46651-7865-8BA5-D884-4821B4CB130A,ChIJgT248W8eGWARtnte7Omvc2I,めんくい亭,192-0043,東京都八王子市暁町１丁目５−１３,FALSE,35.6686088,139.3354072
CBFF8D1E-8FEB-6E68-B7FE-5A9F1DB217EB,ChIJNW6OFyfiGGARHJop2XuXLEk,めんや友絆 ( ユズ ),191-0002,東京都日野市新町１丁目２４−７,FALSE,35.6800282,139.3920791
D87AA255-FB14-9FF0-B2F9-8684D9889F7B,ChIJvUroK6DzGGARmNcqVoAacEU,メンドコロ キナリ,164-0003,東京都中野区東中野１丁目５１−４,FALSE,35.7056549,139.6861638
465A7C28-56D9-4EB8-5570-D5A686DC00C0,ChIJ08VuBcnyGGAR9aB2iNTHN0s,好日,164-0003,東京都中野区東中野１丁目５３−７ ＭＫハウス MKハウス1階,FALSE,35.7053319,139.6839986
49C8A72F-0A6F-E63F-35BB-1DC90D9C5E0F,ChIJWeax8vIhGWARU56eJT_X6xI,麺処 いし川,197-0814,東京都あきる野市二宮３３７−１,FALSE,35.7310845,139.292979
77E9FEA1-9A04-B4DA-4322-CC0C4EBBB7C6,ChIJWZ_hqNwdGWARMEzj13AjvJE,タンタン,192-0904,東京都八王子市子安町１丁目３０−６,FALSE,35.6519098,139.3403145
B997FCED-7BFF-8409-31F3-4205CD962EFA,ChIJ96xse8nlGGARkwDkwCrw5oM,せいせき家,206-0011,東京都多摩市関戸２丁目３９−１５,FALSE,35.649932,139.4492972
C034E19F-F042-8252-0F52-61F4016FEE58,ChIJq6ruWvKPImARdMg0L3V9QwM,煮干らーめんカネショウ四街道,284-0032,千葉県四街道市吉岡４８４−１,FALSE,35.6500407,140.1917297
32A2E31A-4F90-D7FA-F1A5-95395D9B4DC9,ChIJ4WcEcByFImARSGagPwr1yrE,らーめん専科 海空土,264-0033,千葉県千葉市若葉区都賀の台４丁目５−１５,FALSE,35.6412717,140.1465968
42F52804-C1AD-D3B8-1541-240490D558CB,ChIJVVVVVZiNGGAR_Dkw0TJHoN4,Japanese Soba Noodles 蔦（ジャパニーズソバヌードルツタ）,151-0066,東京都渋谷区西原３丁目２−４ フロンティア代々木上原 B1,FALSE,35.6703963,139.6824758
FBEEF43C-3EAF-24D9-FAFC-1B488FC472E4,ChIJk_tBTZ_xGGARqrMDFbzZrdU,中華そば しば田,201-0013,東京都狛江市元和泉１丁目８−１２,FALSE,35.6319655,139.5766399
7F5484BD-3894-7984-05E8-3A20BB1B7146,ChIJ0V2IkJ_kGGARkXApcdZlJCo,鶏白湯らーめん 節 極,206-0011,東京都多摩市関戸２丁目３９−１ アバック角屋ビル 1F,FALSE,35.6503918,139.448497
DE87C49F-22F9-6400-B94F-60A608B5F35F,ChIJGSwLz5_kGGARyUAZYq1hJiE,つけめん 桜坂,206-0011,東京都多摩市関戸１丁目１０−１０−１ 店舗 京王聖蹟桜ヶ丘SCクラウン街内,FALSE,35.6509917,139.4477015
5C5A3667-DDCF-3B31-AB9B-6366190BA56C,ChIJS_4emp_kGGAR6-Idft6d8dk,味噌ぶりnoodle みやみや,206-0011,東京都多摩市関戸２丁目２４−２３,FALSE,35.650479,139.448646
63934A68-D1EA-1AAF-3CD4-157EDDA29899,ChIJ-Rhfoa_jGGARQtxe1j1oD00,新橋 纏 京王高幡SC店,191-0031,東京都日野市高幡１１６−１０ 京王高幡ショッピングセンター3F,FALSE,35.6613849,139.4145848
A3EFD333-4E8E-AA4C-3947-E55D2679CDE0,ChIJx60YtlL5GGARC3vB07jm9dQ,白河手打中華そば 一番いちばん,194-0021,東京都町田市中町１丁目２８−２４ 大成ビル １階,FALSE,35.5493899,139.4469888
AC91E41B-1A9E-44ED-9D3D-F21D23F086F9,ChIJNcuCJk35GGARv3QVSB0fAeY,いぶし銀,194-0013,東京都町田市原町田６丁目２９−４ 寺田ビル 1-B,FALSE,35.5464229,139.4474806
DFF48832-38E8-4190-4D4D-6AE837AEA6A8,ChIJLcoLFMDzGGARWEVKSuUvkb8,世田谷 磯野,154-0022,東京都世田谷区梅丘１丁目９−１１,FALSE,35.6539242,139.6537725
6E1E7D7A-37E8-6F6A-4FB5-9250F0EF0954,ChIJX4E5vqjvGGARaMj5Z8l9Z0c,麺屋 さくら井,180-0013,東京都武蔵野市西久保２丁目１５−２７,FALSE,35.7094772,139.559611
340AF98D-A804-0E44-B0C8-CE73535A3F78,ChIJoeXOKHDhGGARrrw7S0DaoYk,煮干しラーメン青樹,190-0011,東京都立川市高松町３丁目１４−１,FALSE,35.7023562,139.4157388
BCEDF741-DE80-5EA1-E370-ED4AD89F428F,ChIJUfaObLv_GGARasujmwmQHXo,らーめん勇志郎製麺研究所,252-0311,神奈川県相模原市南区東林間２丁目１５−７,FALSE,35.5196365,139.4292418
C62B28BD-9EE7-80F6-0651-CCDC376663FB,ChIJPxF72vz2GGARYDwxXpargkQ,麺処 懐や,216-0004,神奈川県川崎市宮前区鷺沼３丁目３−４,FALSE,35.5797143,139.5717401
F74CF810-D034-BA19-7AB2-4415AF6D527D,ChIJJ9GFnXKNGGARjCigWboT91Y,麺屋我論 Ramen gallon,160-0021,東京都新宿区歌舞伎町１丁目１−５,FALSE,35.6943251,139.7046496
E3F2C557-2313-BD48-323C-CDF67608E7D6,ChIJAQA8s-ngGGARz7kHdLf1QQU,東大和ラーメン大冬樹Season２,207-0015,東京都東大和市中央４丁目９６２−１２,FALSE,35.7430041,139.4245933
AFE186C7-50B1-E49F-94FF-B31814850913,ChIJVXHWd9wdGWARFY1PCmSUP-A,大安,192-0904,東京都八王子市子安町１丁目１１−１０,FALSE,35.6544193,139.3399216
F7A8077E-DB72-2512-474E-C49AA896712B,ChIJa-PeW6TjGGAR0YuHnOElMIg,すごい煮干ラーメン凪 多摩センター店,206-0033,東京都多摩市落合１丁目11−２,FALSE,35.6248432,139.4240211
4BFC74C8-8273-58F9-B536-84D3B0400660,ChIJuUPXnlPyGGARJh48zd1Bbw8,永福町大勝軒,168-0063,東京都杉並区和泉３丁目５−３,FALSE,35.6762342,139.6440062
1CA9E043-7003-2799-9C06-FAA134E0CFAE,ChIJEUyq6OqPGGARHS9zCQiRHIw,麺処 ほん田 秋葉原本店,101-0028,東京都千代田区神田花岡町１−１９,FALSE,35.6982014,139.7742042
78071F6F-BE4B-A1E9-AF26-4C698C4DA7EC,ChIJ508frs-MGGARnIKrb_tkai0,風雲児,151-0053,東京都渋谷区代々木２丁目１４−３ 北斗第一ビル １F,FALSE,35.6868343,139.6966393
AF8062AB-E926-36C2-15EA-AEB6356B790E,ChIJR_U7xtzzGGARd-tPEvW_Bww,らーめんMAIKAGURA,156-0055,東京都世田谷区船橋１丁目３８−４,FALSE,35.6480617,139.6189794
D3B541DC-D88E-E6FD-AAC9-BE7DD75358DC,ChIJjX2kMJ7xGGARynYCVEtX5Uw,世田谷中華そば祖師谷七丁目食堂,157-0072,東京都世田谷区祖師谷１丁目９−１４,FALSE,35.64416,139.609399
58ED60F6-3196-B0CA-3706-EA2B42EFB230,ChIJMTJvmH_xGGARtEU06HcXByM,鶯屋,157-0073,東京都世田谷区砧８丁目１０−１ プラッツ砧 1F,FALSE,35.6427297,139.6085616
55A26176-F8BC-C21F-BC70-B2D681943D68,ChIJnztF5Ur5GGARiPQkV-I5srw,81番,194-0013,東京都町田市原町田４丁目５−１８ 仲見世商店街,FALSE,35.5414544,139.4484605
22D7D52C-84AC-62EF-F24E-D83CBD1FA962,ChIJ3fk1WNPlGGARrJAq8bigSjU,中華そば 心,183-0015,東京都府中市清水が丘３丁目２９−３,FALSE,35.6652552,139.5027029
C2B3C890-3341-B64B-1076-732735A985F1,ChIJ-d-AdEXwGGARrQg2wdfqWac,熊王ラーメン,182-0022,東京都調布市国領町１丁目４４−５８,FALSE,35.6499779,139.5574252
87A67C86-6E1A-C768-115C-F197627F5F11,ChIJU6lz7M_xGGAR7zZY0cEdj2A,いしかわや,182-0022,東京都調布市国領町４丁目８−１,FALSE,35.6494759,139.5574838
0B412CBF-70C5-C756-BD5F-928CEEA6888C,ChIJjwC5XUnjGGARGO6yPERd6Bc,らーめん たま家 多摩本店,206-0041,東京都多摩市愛宕４丁目８−１２,FALSE,35.6289118,139.4301744
90C7E92A-E253-4F10-6DFF-14782139A783,ChIJVx8ELZrjGGARry7eLS_jWP0,らぁ麺 はやし田 多摩センター店,206-0033,"東京都多摩市落合１丁目41−１, マグレブWEST2, 階2-B",FALSE,35.623867,139.4232635
B60AEDD9-6A9A-7AEE-E34D-0434D34305EA,ChIJp9aANiLxGGAR2fL0_IEWasM,自家製麺 つけそば 九六,201-0014,東京都狛江市東和泉３丁目７−９,FALSE,35.625491,139.5749392
1C9CB115-1D9D-7FFB-2929-9770009F350C,ChIJpwyMc_LzGGAR3gEWgfSFeaU,中華そば はな田,156-0057,東京都世田谷区上北沢４丁目１６−１０ 1階,FALSE,35.6702093,139.6247264
9E3AFB79-C5F4-6E40-1E61-60C21F6D830D,ChIJ2Ua8meD-GGARiXaXq0noZrc,Sagamihara欅,252-0312,神奈川県相模原市南区相南４丁目１−３３,FALSE,35.515393,139.425738
39B3BB9D-CEB3-1A19-AEFA-AFD1086444E1,ChIJG9oGvDuMGGARqhTEcjPm5vE,麺屋 ねむ瑠,113-0033,東京都文京区本郷４丁目３−２,FALSE,35.707547,139.759272
DC4E9F22-6A5A-38B0-B5BF-6264B22A4F29,ChIJ96FDS9gdGWARHRgxDvS80Pk,大海軒 八王子店,192-0084,東京都八王子市三崎町６−１５ 清水ビル 1F,FALSE,35.656858,139.336397
C8BE6C99-4E78-C98F-7E3B-D12438F0E963,ChIJ0RVgaNgdGWAREmpbcQ_MVls,釜玄 ラーメン専門店 竹の家 八王子店,192-0085,東京都八王子市中町４−２,FALSE,35.6581263,139.3366895
8203774E-4A06-2615-A912-3BD1B113D20D,ChIJNzp1aYX7GGAR-ZSs4m3R_lE,燻製麺 燻,215-0011,神奈川県川崎市麻生区百合丘1-23-4 ダイヤマンション101,FALSE,35.6098405512262,139.51692614789
C7E49C3C-16CC-7036-57E1-94645A65D777,ChIJpWMt66rlGGARjXSjR419cPE,中華そば ひびき,183-0052,東京都府中市新町１丁目５８−５,FALSE,35.6854534,139.4887494
F173F6F2-8931-E696-5AAB-B8F1904FCAB8,ChIJ572wkteMGGARi4qiFHHbiAc,焼きあご塩らー麺たかはし 新宿本店,160-0021,東京都新宿区歌舞伎町１丁目２７−３ KKビル １階,FALSE,35.6952037,139.7004728
ED951FA7-738A-040E-9DBD-50CC4E79AA7D,ChIJORVd6yTzGGARC3f_GryTNAU,SOBA HOUSE 金色不如帰 新宿御苑本店,160-0022,東京都新宿区新宿２丁目４−１ 第22宮庭マンション 1階105号室,FALSE,35.6887843,139.7082917
1ECF4661-A556-F323-0958-13C68146B920,ChIJEaIoIS_yGGAReDTHrT26cHU,支那そば 孤高,168-0074,東京都杉並区上高井戸１丁目１−１７ 日立八幡山ビル 105,FALSE,35.6692324,139.6155463
A0396B19-8DE0-34D0-4FE2-B0ED06C4CD10,ChIJZ7_YekbxGGAR-qqwCW_Y2SA,中華そば みやざき,214-0014,神奈川県川崎市多摩区登戸２９７７−４,FALSE,35.6174119,139.5660713
8582FCBA-A9C8-B07D-6A0D-35AA6AFB82F0,ChIJhae4jz-MGGARVDKWzSuUHUk,中華そば勝本,101-0061,東京都千代田区神田三崎町２丁目１５−５ 三崎町SSビル 1階,FALSE,35.7007944,139.7528897
BD7B0149-9DDF-57FC-37AB-2BE4983DB6DE,ChIJv15gRx7hGGARDx83eOYVqFE,中華そば専門店 一六食堂,192-0031,東京都八王子市小宮町９１９−１１,FALSE,35.6880563,139.36981
20096FB2-EAA0-B473-A78B-50197DA56A9A,ChIJAbUf7wv5GGAR487bhqKXiPk,超純水採麺 天国屋,194-0004,東京都町田市鶴間３丁目１３−１３,FALSE,35.5090978,139.4731756
55998007-609F-D206-D31B-1AD510A3C716,ChIJY2cw266OGGARwpOpxrHd51Y,青島食堂 秋葉原店,101-0025,東京都千代田区神田佐久間町３丁目２０−１,FALSE,35.6974587,139.7788427
C3194244-7E6E-29C2-4C99-3397AFBA4790,ChIJQQgM6rfhGGARJCV7Fu3KtYw,空の青とひまわり畑,208-0011,東京都武蔵村山市学園３丁目３９−３,FALSE,35.7475169,139.4067829
ACE6DC17-7EBF-4240-3887-6B6B2863610E,ChIJgQYs_O7lGGAR7yW-P86zJyE,だし麺屋ナミノアヤ 府中店,183-0032,東京都府中市本宿町２丁目１９−８,FALSE,35.6731968,139.4595755
8BD95A0E-C214-C1DA-B69C-472BD278534F,ChIJT9qRP_AdGWARO6E2MhPH1OQ,鴨中華そば楓,192-0046,東京都八王子市明神町３丁目２４−１２,FALSE,35.6568477,139.3441917
20DF09AF-5187-836A-E339-3DFE81DB097D,ChIJAaR6Q7XzGGARY7iPws_98u8,麺処 しろくろ,168-0074,東京都杉並区上高井戸１丁目１−７,FALSE,35.6697618,139.6155288
C9A9CF9E-1D56-96AA-B32C-6F1A6945DC14,ChIJVzUZg27xGGAR7V54bErF3rc,中華そば 成城青果,157-0062,東京都世田谷区南烏山３丁目１−１２,FALSE,35.6713205,139.6089501
613D828D-51CE-1288-47B7-51269C3BDE4E,ChIJ0fPi1331GGARNMZXbkNoaa4,煮干らーめん 田中にぼる,213-0013,神奈川県川崎市高津区末長４丁目２５−３,FALSE,35.5886526,139.6269779
33ECFD4A-0329-A701-CBFB-6684A739FE67,ChIJteqPHcCKGGARaH-XsUp51G4,中華そば 多賀野,142-0053,東京都品川区中延２丁目１５−１０,FALSE,35.6097159,139.7115588
8CC818DD-9088-A9EA-03DD-21C7A1521053,ChIJB4i-ozyMGGARhTA3RopCUzI,中華蕎麦 にし乃,113-0033,東京都文京区本郷３丁目３０−７ 熊野ビル B101,FALSE,35.7067541,139.7616291
9A0A029D-878C-54D6-FA95-CA1A3B4CB28B,ChIJH0WkdTHyGGARqkY7fPzHZEw,らぁめん小池,156-0057,東京都世田谷区上北沢４丁目１９−１８ 上北沢ハイネスコーポ １F,FALSE,35.6704981,139.622378
0B44E1E2-7A04-08BF-B7C2-77A895828BDC,ChIJIQyg9VHjGGARuW1QWsQLDSg,麺部 しば盛,206-0014,東京都多摩市乞田７０７,FALSE,35.6317766,139.4374678
777F2A2E-B40D-A0C5-80D5-F180BC403B68,ChIJ25rfPh7wGGARfUUXWCl8yPo,たけちゃん にぼしらーめん,182-0024,東京都調布市布田１丁目４７−１ アルビル １F,FALSE,35.6520744,139.5455116
0F9C8765-4FBE-8118-D5DB-B3EC2F08D7AE,ChIJF7C5MLL-GGAR-niFah8THzM,町田汁場 しおらーめん 進化 町田駅前店,194-0013,東京都町田市原町田４丁目６−１５,FALSE,35.5411509,139.4487516
6E85B7E6-3F99-0259-ACCF-42365DFC88A2,ChIJG9kY_eHxGGARAOarOFt38eA,柴崎亭,182-0006,東京都調布市西つつじケ丘３丁目２５−５２,FALSE,35.6575998,139.5738116
D9475662-38C1-600F-2087-205E0F7681F8,ChIJrQzBu9JhGGARkSY8fZeEU_8,Homemade Ramen Muginae 麦苗,140-0013,東京都品川区南大井６丁目１１−１０,FALSE,35.5907765,139.7328034
2E33BE98-8777-3848-2D64-752D492AB6FA,ChIJs0Lm2kmMGGARrh48dxcyybM,本枯中華そば魚雷,112-0002,東京都文京区小石川１丁目８−３ アルシオン文京小石川 102,FALSE,35.7106146,139.7518766
0D371E53-F7FB-FDDF-EE04-A78C466381C9,ChIJE0VFf-_kGGAR1iBB4KOXv2Q,いつみ屋,183-0027,東京都府中市本町１丁目７−２,FALSE,35.668006,139.4769096
0B860483-D60C-1039-5000-C640867815EF,ChIJPVPM_eIdGWARI5un_TUHMNw,らーめん 楓,192-0045,東京都八王子市大和田町５丁目１０−１,FALSE,35.6636826,139.3529986
360AF3F9-4CEB-6F3B-1C35-394F2F59447A,ChIJk6iNzNAdGWARsFuFxuktq_k,ほっこり中華そば もつけ,192-0903,東京都八王子市万町３４−１,FALSE,35.6531145,139.3332118
3ACCEB40-F105-26CA-4D0C-ADB277B12532,ChIJczOQEs30GGARnjggbkIu7AM,麺処 びぎ屋,152-0004,東京都目黒区鷹番２丁目４−９,FALSE,35.6288034,139.6891232
772D5620-381A-4F73-110E-6556252D9946,ChIJRUPy9PFcGGARIdi5JyTUn6w,中華蕎麦 時雨 伊勢佐木長者町本店,231-0032,神奈川県横浜市中区不老町２丁目１０−５,FALSE,35.4414957,139.6351665
BDBA7A2C-24CB-BEC1-B312-3FB5A4B5EFFA,ChIJrxjPMbLvGGARrXE2LqBkgDQ,ラーメン 健やか,180-0006,東京都武蔵野市中町１丁目２８−１,FALSE,35.7037564,139.5643139
BBC08071-5A2E-F7C1-AF1C-2E1829DA263C,ChIJg3MPPZBbGGAR4Bnd00a05qg,櫻井中華そば店,240-0023,神奈川県横浜市保土ケ谷区岩井町５３ 稲村ビル 1F,FALSE,35.4453872,139.5984903
23F3A327-1DDD-3E5C-C7F8-830A1DF80ABE,ChIJV2yLg05VGGAR9DRv_iAdG3k,麺や食堂 厚木本店,243-0012,神奈川県厚木市幸町９−６,FALSE,35.4413276,139.3706056
008CB609-ED44-FFAE-01C6-2630DE8EFA7D,ChIJ0TReM8KNGGARwJ6VHU1gOpM,金目鯛らぁ麺 鳳仙花,160-0021,東京都新宿区歌舞伎町１丁目２４−６ 鶴切ビル 1F,FALSE,35.6944279,139.7006904
4E07A043-60C2-850F-3DF0-99B302A2EB67,ChIJP37FH5OLGGARIciadpVyREo,松戸富田麺絆,100-0005,東京都千代田区丸の内２丁目７−２ KITTE丸の内 KITTE GRANCHE,FALSE,35.6795647,139.7652707
D10D7203-54E0-3CB1-2C99-62F839612B28,ChIJQbWaOxiNGGAR2Wr2BfXxEU8,らぁ麺やまぐち,169-0051,東京都新宿区西早稲田３丁目１３−４,FALSE,35.7099834,139.7139668
9713B0AA-E58A-C197-39D8-C8E218C77739,ChIJvaqzVtgcGWARJyro08ypOgY,中華そば 安至,252-0116,神奈川県相模原市緑区城山２丁目５−２６,FALSE,35.590108,139.2840081
73B8DB8F-F3DD-1C2B-5AEA-4C915B03BD57,ChIJ1bJqFj4fGWARGW4rAkgrcao,めん屋 とんぼ,192-0045,東京都八王子市大和田町７丁目８−８ 大和田コーポ 101,FALSE,35.6674876,139.341277
5075BD29-F66A-B5FB-6CF8-BE993FA65085,ChIJLQ2Vx5LlGGARQsPxUBBlX74,中華そば たま河,183-0025,東京都府中市矢崎町４丁目１,FALSE,35.65835,139.4782875
B75DA9D7-DFFA-9CDB-69CF-CFDC518D5B04,ChIJU1vajwVWGGARaN6yRqOarak,猫トラ亭,242-0029,神奈川県大和市上草柳３丁目１９−２３ クレア大和,FALSE,35.4780591,139.4534785
DAF7456D-AC04-910A-87DE-DA8ABBF4FF25,ChIJdROHXx_lGGAR9nRXD16wZFg,中華蕎麦 ひら井,183-0051,東京都府中市栄町２丁目１１−７,FALSE,35.6880348,139.4796091
F1DBD2FE-23C8-AA5E-DE5C-F83D7ED061BD,ChIJTT3M7M7zGGARwooMR53XFLE,らぁ麺や 嶋,151-0071,東京都渋谷区本町３丁目４１−１１,FALSE,35.6883441,139.6808875
2EFC393F-5493-6388-70DB-D2761278DF8C,ChIJkwclk6GNGGARPYNl-XWaoSo,駄目な隣人 新宿店,160-0021,東京都新宿区歌舞伎町１丁目２７−２,FALSE,35.6951599,139.7005156
5AB91EFD-5FA4-622F-9FC5-D079F99817D5,ChIJ9a4CpQ-JGGARzjE-eNLDOzs,駄目な隣人,103-0013,東京都中央区日本橋人形町３丁目７−１３ 日本橋センチュリープラザ,FALSE,35.6862729,139.7818126
FF4F8036-8B0A-C42D-5657-212CD2A24A0A,ChIJ-TBupT7_GGARH4FB5fqSnpA,麺処 宥乃,252-0321,神奈川県相模原市南区相模台１丁目１２−１ 光相マンション,FALSE,35.5190118,139.4142468
2A77CBFA-6BD9-353C-C35D-B438CDF65024,ChIJPaoacACNGGARVkV1atQ0DBM,伊之瀬,151-0053,東京都渋谷区代々木2-20-19 新宿東洋ビル 102,FALSE,35.6867217425925,139.697445301875
ca3c0e7a-044e-461f-be73-46e8f511a82a,ChIJrxM3evMlGWAR8lKPDlCBQmg,Ramen Feel,198-0063,東京都青梅市梅郷4-695-1,FALSE,35.78872916830625,139.22180885791448
1543e641-1efe-4ce9-b893-4723b0fe680a,ChIJNQoAp1-NGGAR5ibg468WZiw,麺屋Hulu-lu,170-0014,東京都豊島区池袋2-60-7,FALSE,35.735000725484795,139.70904286862455
