ID,GOOGLE_PLACE_ID,NAME,POSTAL_CODE,ADDRESS,CLOSED,LAT,LNG
78810268-C270-8C46-2B2A-0CCC69070A47,ChIJE0qXcD-LGGARn8LGgTOuOFg,博多うどん「はし田たい吉」新橋,105-0003,東京都港区西新橋１丁目１５−７,FALSE,35.6679329,139.7544031
AA40FADA-B17A-7A00-F8B0-F083EA64F5CD,ChIJVYps-zCNGGAR1ylRsm5y9XI,手打うどん いわしや,107-0061,東京都港区北青山１丁目２−３ 青山ビルヂング B1F,FALSE,35.6729861,139.7231328
7F64B27B-687D-97E8-FE33-FF4420B27F9A,ChIJL42YVEKLGGARYSgl7QENaMU,考えるな、うどん食え。三田本店,108-0014,東京都港区芝５丁目２３−７,FALSE,35.648016,139.7462066
FCAEE0EF-B80E-0782-4C98-77971EC0E1CA,ChIJhSp04DgvG2AR7_da3rdTt98,圧力釜もっちりうどん 福桝屋,431-1402,静岡県浜松市浜名区三ヶ日町都筑１１７０−１０,FALSE,34.7942995,137.5840895
4108E4AF-3564-8FA7-9492-7E7B960FF609,ChIJcS_KluvzGGAR7yEwFmuyGa8,讃岐うどん よすが,164-0012,東京都中野区本町４丁目１９−１２,FALSE,35.697434,139.6720182
3A37C998-2605-732E-61F5-D05CFC13173A,ChIJhxWk3ZhgGGARjFTOQRQcq_w,ふたば製麺 アトレ川崎店,210-0007,神奈川県川崎市川崎区駅前本町２６−１ アトレ川崎 北側改札内 ３階,FALSE,35.5317458,139.6976939
6215001C-4733-E69E-F9DC-BC0B9BBF6F2B,ChIJAUU4IDTrUzURLuZ8K3Q-2aY,うどん屋 まつはま,761-0311,香川県高松市元山町３０８−１,FALSE,34.3127544,134.0914238
CA904E37-4FA3-0495-6366-C3E62B2260CC,ChIJMWyhJHbrUzURpONppDqqkeg,手打十段 うどんバカ一代,760-0063,香川県高松市多賀町１丁目６−７,FALSE,34.3367417,134.0585379
C892E3C7-0107-5728-13E0-B66935774734,ChIJSZB3JgAfGWARFoANmLHZAg8,小味根,192-0043,東京都八王子市暁町１丁目８−１８,FALSE,35.6679919,139.3346443
9B31906C-23EB-B4C7-0587-620A17D15C74,ChIJxZ-ApPp2A2AROgmjZ6mx98A,手打うどん かとう,453-0811,愛知県名古屋市中村区太閤通３丁目２６,FALSE,35.1674623,136.8728561
CAD01C97-A3B1-7292-A09F-61B0E59DD0D9,ChIJrU5828aNGGAR3y8ByRZsjm8,肉讃岐 甚三 神田店,101-0054,東京都千代田区神田錦町３丁目２−２ 三基ビル 1F,FALSE,35.6929856,139.762527
01D92A84-2A64-868A-7739-F08094D318B1,ChIJJ_VswKXdUzUR57RHQ0OQru0,がもううどん,762-0023,香川県坂出市加茂町４２０−１,FALSE,34.3049662,133.9148756
1B41A141-D1A4-82A4-630C-C62B3E7D59C4,ChIJ7flmYrfhGGAR3FM3UWnII0U,田舎うどん 古奈家,207-0004,東京都東大和市清水４丁目１１０７−１０,FALSE,35.7479452,139.4457012
B2043561-9CF2-27C8-E864-769E067F9F1A,ChIJEUuPf1zqUzUR9gysWFmIRHc,手打麺や 大島,761-8073,香川県高松市太田下町３０１３−１,FALSE,34.3028713,134.0509402
9AF8A537-E25D-25B9-54A1-A9FD73B19093,ChIJxbseWXAJAWARZ77Ku2kImCQ,手打ちうどん さいとう,606-0826,京都府京都市左京区下鴨西本町２６−２ シャルム下鴨 101,FALSE,35.0440906,135.7684359
AB71C128-0DC9-F2F5-CAAE-956A4D5F5290,ChIJ4eJcEhyLGGAROI5SSZc6650,手打ちうどん こんぴら茶屋,141-0021,東京都品川区上大崎３丁目３−１,FALSE,35.633817,139.717618
863F9346-14C5-228B-34B3-A29D02786C76,ChIJW8wtBy7pGGAR6jZwaGP0Tjk,大助うどん,178-0065,東京都練馬区西大泉３丁目２７−２３,FALSE,35.7619999,139.5787477
E5D060C8-E00F-0276-800E-4615B1530997,ChIJy772L-dhGGARHvGaBeSaiTo,すだち屋,140-0013,東京都品川区南大井３丁目２４−１０ オリエンタル大森,FALSE,35.5889331,139.7335223
C4596832-3BA8-14B4-9D65-F851280CC437,ChIJiSeSaWjgGGARUKf9Ze4u4qk,手打ち肉汁うどん 長嶋屋,208-0013,東京都武蔵村山市大南１丁目１３５−２,FALSE,35.7390764,139.394551
19AC1291-A870-027D-C119-D326BAF8A496,ChIJl92kr1WJGGARTW3vwEAHXe8,稲庭うどんとめし 金子半之助,103-0022,東京都中央区日本橋室町２丁目３−１ コレド室町2 地下1階,FALSE,35.6868821,139.7747414
AD144F9E-5A03-D409-1ECB-6BA264274739,ChIJ4WvIsexQBGARgv51o6YM5Hk,ふくすけ,516-8558,三重県伊勢市宇治中之切町５２,FALSE,34.4623643,136.723149
47B30870-DD46-2938-0884-F7B55020C234,ChIJRb3eYPVaBGARJYJg79cm1wI,伊勢うどん まめや,516-0072,三重県伊勢市宮後２丁目１９−１１,FALSE,34.4938117,136.708954
8FF1D18D-2EE6-CED0-C861-0BD6337C2937,ChIJ9YJREhmJGGAREPTSJuwzLvI,うどん家族 小進庵,135-0022,東京都江東区三好４丁目８−３,FALSE,35.6806625,139.8068801
AC8ECD77-DE0C-23E0-D2D3-40FF606AEC48,ChIJsWwyCBvbGGARv9k_J_sgmIs,うどんとお酒 土麦（つむぎ）,350-0066,埼玉県川越市連雀町９−１,FALSE,35.9195651,139.4826988
59AEDC01-2864-2C4D-86F8-74E1E75AE4FF,ChIJT1MGQ0GPGGARtJmx6B1nU2E,四ツ木製麺所,124-0013,東京都葛飾区東立石２丁目１１−７,FALSE,35.7337109,139.8466212
A949D20A-0BC0-87BD-654B-5B33A1D48BFB,ChIJn5quVmItH2AR_oFdzWfX1H4,手打ちうどん 清水や,348-0047,埼玉県羽生市下新郷７１１−２,FALSE,36.1453935,139.5230281
02F34640-EF51-63CF-A633-5A1D1E49A395,ChIJ7YbppZHmGGAR8XeuGIQGwVM,手打うどん 福助,187-0032,東京都小平市小川町２丁目１３０７−２０ エスポワール小平,FALSE,35.7274192,139.4749519
63439031-E5BA-5E03-69A0-8F4DB3A61468,ChIJ3Vk2btDlGGARlc5o2QB5hCY,小平うどん 小平本店,187-0013,東京都小平市回田町３００−２,FALSE,35.7169453,139.4967514
B98A0018-BC52-8434-1577-C35030917349,ChIJkZunWZvmGGARdQOSVG15FUA,うどん屋 武,187-0045,東京都小平市学園西町１丁目２４−１１,FALSE,35.720695,139.4763377
5B151642-0867-8387-1539-CAF89B78BD3F,ChIJMSzCSn3yGGARo-r2LsyYIX4,肉汁饂飩屋 とこ井,166-0003,東京都杉並区高円寺南４丁目７−５ 久万乃ビル 1F,FALSE,35.7033175,139.6491285
9D1133D9-0818-0EC8-2C6B-2519A579485F,ChIJ9RDviQzPGGARjieaHDoyCj4,深山うどん,362-0001,埼玉県上尾市上３０３−４,FALSE,35.9956781,139.5747241
B474748C-C058-ADFD-F40B-C3D9C33DDC62,ChIJid_gzzHdHmARq2i4ixWnn-A,六助うどん,367-0017,埼玉県本庄市傍示堂５７５,FALSE,36.236697,139.2100355
10E6A6B6-EAA4-7845-9D44-42FF00536EBE,ChIJ0_Vw4ArEGGARJBZo5OGPTNs,藤店うどん,331-0052,埼玉県さいたま市西区三橋６丁目１４−７,FALSE,35.9106398,139.5904403
C118DE78-9201-6F97-7290-D33DFA8156EA,ChIJU36JXOjyGGARkKhQGrKkWds,四国屋,164-0012,東京都中野区本町４丁目３６−３ 長興新中野マンション,FALSE,35.6940762,139.6685658
3820FA89-6336-BEC7-AD51-4C9D73EF3C98,ChIJ56wJAQKTGGARHV2IHb4KpGo,手打うどん すみた,115-0042,東京都北区志茂２丁目５２−８ キヨハイツ,FALSE,35.7805002,139.7266233
AB797633-CBAE-7988-DAA4-46187E129262,ChIJd-gKcdKNGGARllynttDtDeM,汐満,113-0022,東京都文京区千駄木３丁目３７−３,FALSE,35.7250392,139.7633206
979BBDFC-ABE2-623F-213A-9AB2D626CC39,ChIJcVcDmrWRGGARsKsrmOe2w74,伊吹家,121-0064,東京都足立区保木間３丁目３６−１７,FALSE,35.7964417,139.8106093
E4C4506B-0E48-3B3E-DB5F-DC580BA5E2D9,ChIJVVVVVSyMGGAR_0pn6nUjGhw,饂飩 根の津,110-0001,東京都台東区谷中１丁目４−２,FALSE,35.7191935,139.7669152
B20B3BEC-8959-71A1-4D90-42BC6C284051,ChIJ7ZEMBAAXIWARBR2sMI7h0l0,うどん桜守,970-8021,福島県いわき市平中神谷清水４５−２,FALSE,37.069793,140.9294787
7F5802DB-80A5-ABD2-6189-4B970989483D,ChIJrYXQNWPXGGARTKDYlklRd1E,手打うどん 福笑い,350-2211,埼玉県鶴ヶ島市脚折町６丁目３０−３１,FALSE,35.9439319,139.3938798
06960F47-3ACB-F7E9-5B91-5471121C5F58,ChIJyZNBKxCTGGARt0tVdfdNpis,本格手打武蔵野うどん 麦といっぽ,173-0021,東京都板橋区弥生町２−３,FALSE,35.7505901,139.6950262
88E01621-969D-8B3D-EC98-8D691D738E95,ChIJx9uigSPRGGARdDShT7v4xZw,本手打うどん 庄司,350-0152,埼玉県比企郡川島町上伊草７４３−９,FALSE,35.9727927,139.4620866
F8F07A12-B581-445F-97D3-73F494E7475F,ChIJbbOqCIaLGGARm_RtQCEPqaE,うどん讃香,108-0014,東京都港区芝５丁目２６−２０ 1F,FALSE,35.6477419,139.7461901
7F49A6B8-C362-086A-6361-887BDDC287CA,ChIJIfWq0nr7GGARTiZmeVSWrlw,うどん丸喜(まるき),206-0812,東京都稲城市矢野口２２０８ ステーションサイドビル栗山 1階1号,FALSE,35.6332561,139.5167249
293DCE59-791A-E84B-0060-8C09503B9D89,ChIJ57VXW9fxGGARr-4IUD7cWjk,天たまや祖師ヶ谷大蔵,157-0072,東京都世田谷区祖師谷３丁目３２−１,FALSE,35.6433086,139.6087045
7616B33E-A96C-C368-13EA-7C34CDE9C006,ChIJOWFTtumLGGARwtn90fPthVY,稲庭うどん七蔵,105-0004,東京都港区新橋２丁目２０−１５ 新橋駅前ビル1号館 2F,FALSE,35.6661538,139.7595306
B7697FBB-E3DB-187C-8EDC-CAD1396DB14C,ChIJH7xx81X8GGARCyuLiBUb1JA,ウエスト 町田店,194-0035,東京都町田市忠生４丁目８−２,FALSE,35.5787119,139.4098531
3F7B31A1-100F-8F8A-69C0-CC5EC8FF7E0E,ChIJMQvF8XSNGGARnTwZVakpysY,讃岐ブルース イイダバシ,102-0072,東京都千代田区飯田橋４丁目５−１６ エル千代田ビル １０１,FALSE,35.7004928,139.7477638
32BDF008-D75B-E5E4-4508-4DF3342DB269,ChIJTdqp9ooTHGARqDCkLjhm_7c,麦の杜,408-0012,山梨県北杜市箕輪３２１９−３,FALSE,35.8101752,138.4286628
49A37759-BAC6-1C02-F614-35FB39662403,ChIJB5bEtA_BGGARTK0e8uEg9-Q,さわ屋 手打うどん,337-0053,埼玉県さいたま市見沼区大和田町２丁目３２７−１３,FALSE,35.929523,139.6438686
B9203E64-F347-998B-CA1E-3FEA48C73680,ChIJHRraSn6NGGARGSmKKXc9_WU,うどん しろおび,113-0022,東京都文京区千駄木３丁目４４−１１,FALSE,35.7286974,139.7642745
2F957DCA-D30D-CC67-3A79-B3AEA2638128,ChIJy9prhKaWUzURUfSt0K1ax9Y,さぬきうどん 溜,769-2311,香川県さぬき市造田宮西８４９−１,FALSE,34.2840845,134.1763545
8B952AFC-7331-77C2-30DE-FA2C1C7DF692,ChIJ4dAmFIWQ918RZ-5GOoRzYdU,鶴喜,930-0005,富山県富山市新桜町６−２,FALSE,36.6971294,137.213649
17B9736D-725B-D94A-FBC0-647910EC0062,ChIJh4yMhreb918RKZhmn9OmoVg,はつ花,939-0341,富山県射水市三ケ２６０２ アルプラザ敷地内,FALSE,36.720475,137.0925863
C256FD80-7BDD-CFC4-A352-758E3D1F2265,ChIJiw0_Rx35GGAR3Xx47CwtMNE,伊勢うどん きまぐれ,194-0015,東京都町田市金森１丁目１１−４３６,FALSE,35.5350485,139.4581643
CB9E6F77-6F3E-2A27-0EA6-445D1306C99F,ChIJ86R1fgCNGGARwMCbJzi703M,讃岐うどん オカマル 四谷三丁目,160-0004,東京都新宿区四谷４丁目１−２ 小島ビル,FALSE,35.6873875,139.7181875
33179C21-5609-98C4-0CE4-4F746CFCF827,ChIJfXKEQE3nAGARt6krsJzV4Fo,峰のうどん,541-0054,大阪府大阪市中央区南本町１丁目５−１４,FALSE,34.6830042,135.5076095
63745951-79D9-6046-6C10-C4A3EA9DCD7C,ChIJTYLgAjmNGGARSwrMkaj70As,和乃家,169-0075,東京都新宿区高田馬場２丁目１９−７,FALSE,35.713893,139.704459
A8C33FA1-D58C-99C9-B6A5-369610DB3DE2,ChIJvW4vMIb7GGARJhxsjNC1HVs,讃岐うどん かいと,195-0063,東京都町田市野津田町２４１３−１,FALSE,35.5866335,139.4497847
28DAD256-2B6C-80B5-3B07-3941A54701FE,ChIJASIxGI7xGGARZl7_3Hsebyw,手打ちうどん 麦ヶ丘,182-0002,東京都調布市仙川町１丁目３３−７,FALSE,35.6590805,139.5888753
A348542D-FA0D-7E06-EE35-1C0997D1FF44,ChIJZdL8dIyNHmARNJuQsXIQvZE,うどん居酒屋 まさか,370-0867,群馬県高崎市乗附町１９４５−１,FALSE,36.3196974,138.9844077
5DE2765B-2AC9-DEBA-6D79-D2988A78F102,ChIJE_NkovZdGGARL6q7HNYFVGI,讃岐手打うどん 麗,231-0861,神奈川県横浜市中区元町２丁目８８ 元町シエテ B1F,FALSE,35.4404749,139.6488957
E3D98EE2-2222-E902-D89D-136133F3CB61,ChIJz9yy46-XGGAR7tMsT2rlmMc,庄司グループ 武蔵野うどん越ヶ家,343-0843,埼玉県越谷市蒲生茜町４２−２７,FALSE,35.8685758,139.7882342
0838E600-69B1-087B-1123-BC3C28FDF7A0,ChIJU-cobgDBGGAR_-6qrcFG44A,うどんうさぎ,336-0931,埼玉県さいたま市緑区原山１丁目３−３,FALSE,35.869301,139.6695029
A0FB1E0F-B019-524B-5FA0-C17F7D25F995,ChIJQchO5hnhGGAROr1xYAPOaPA,うさぎ屋udon,207-0014,東京都東大和市南街５丁目95−４ ブランチ山田,FALSE,35.7348246,139.434317
03297036-7955-9114-1370-0C0E22A2004D,ChIJoRZEEvONGGARKVW2HhDvpHM,ほうとう天地,107-0052,東京都港区赤坂４丁目３−３ Rbm 赤坂レジデンス壱番館 2階,FALSE,35.674743,139.7360436
5D73FC8B-A90D-3A61-1C41-8150295D45D5,ChIJS0Sz7IJwA2ARzL58MTy0JNY,手打ちうどん うえだ,466-0027,愛知県名古屋市昭和区阿由知通３丁目１４ 栄華物産,FALSE,35.150936,136.9336728
CED51BC1-1A58-0AB8-3887-51918DB360E2,ChIJvzzJNOSLGGARs8fGubgKy4g,うどん家 八重桜,100-0006,東京都千代田区有楽町２丁目１０−１,FALSE,35.6752483,139.7647334
A7BF7AFD-4215-5FB1-4D01-0856ED0E0FF2,ChIJ53V_aryPGGARqdvuFItJtYM,考えるな、うどん食え。,101-0025,東京都千代田区神田佐久間町２丁目１３ 城之内ビル １階,FALSE,35.6984162,139.7767677
261F8589-6A35-8997-7181-7AC4F7A3425F,ChIJge1axPocGWARML1lMn60qn8,うどん屋 開都,194-0211,東京都町田市相原町２１８０−１,FALSE,35.6059182,139.3164422
34AEE138-D355-829D-AF67-372A436ABF9E,ChIJq6rWgY4cGWARz7LBgk1yXNI,うどん さと山,252-0111,神奈川県相模原市緑区川尻４１３４,FALSE,35.6007064,139.2993333
7A840F5D-6DCE-44AC-1D41-DDD5CE9267E1,ChIJ7QU9uYjyGGARZ7sm5Xo1pRo,さぬきや,166-0003,東京都杉並区高円寺南４丁目３８−７ １F,FALSE,35.704482,139.6545108
881FA179-B642-2737-E4F5-7970223EBE05,ChIJTeHPBciJGGAR0eUAouRRs-4,博多うどん ふくべ,135-0016,東京都江東区東陽１丁目２９−８ ヴェラハイツ木場 １０１,FALSE,35.6684358,139.8110099
1F6EC983-DCF0-9277-B7E2-AF1AB87DB780,ChIJ64rG_tONGGAR3E5n5ZcyxEY,うどん 萬田次郎,160-0022,東京都新宿区新宿１丁目１２−１ サンサーラ 第三御苑 1F,FALSE,35.6886136,139.7126962
9745EA90-704C-B7FF-D8FA-3C91725FF8A8,ChIJc6HGDYbFGGAR4H4hrArJ2Y4,手打ちうどん 田舎屋,362-0076,埼玉県上尾市弁財１丁目２−１６,FALSE,35.972442,139.5778998
07DD9D74-FB70-7080-B617-109B19F5E173,ChIJM9gLgYeOGGARPYBoWz8T0dE,いりこ屋,116-0014,東京都荒川区東日暮里４丁目１４−１２,FALSE,35.728397,139.780717
EFCAED5A-604F-3613-C9FC-97034BD39689,ChIJSwMCso3zGGARdzd7tybpYZw,武蔵野うどん 櫻井謹製,156-0045,東京都世田谷区桜上水５丁目２２−７,FALSE,35.6671256,139.6310474
F2FC655E-D280-BD74-E593-BFF3197CC4A1,ChIJGTs7GPHzGGARSDVz_mjkdrY,真正手打ち讃岐うどん いなせや,168-0073,東京都杉並区下高井戸４丁目２８−６,FALSE,35.6715104,139.6255223
9497FFAF-2379-5780-7306-F7068FABC300,ChIJFd3mhWP_GGARdJPhwYMh4ko,足踏みうどん 開都,194-0013,東京都町田市原町田６丁目１２−２０,FALSE,35.5440148,139.4451931
59444A8C-8158-6352-8431-1A0FA21EDAF3,ChIJmS0vX1z3GGARPoiO3lNJUJw,手打ちうどん朝木,216-0011,神奈川県川崎市宮前区犬蔵１丁目９−２１ コーポ向井８３,FALSE,35.58826,139.5625659
73737550-2A53-A48D-E969-5EDFAB8B0CAA,ChIJf3DZNEKTQTURAt5BQaCGj9A,まことうどん,819-0006,福岡県福岡市西区姪浜駅南１丁目３−２６ １Ｆ,FALSE,33.5827871,130.3268288
06B15510-B061-8D45-1FB2-DEFDBC706E07,ChIJNQKQOs9hGGARYNVFeMoKPYQ,麺一滴,210-0005,神奈川県川崎市川崎区東田町１０−２１,FALSE,35.5286101,139.7033363
36148378-2A53-D6BD-CA42-E81E2EFD8749,ChIJw_X9YHTmGGARH5rHiDxltls,手打ちうどん 平作,187-0002,東京都小平市花小金井８丁目２６−２６−１９,FALSE,35.7308079,139.5048829
BB6CDB3C-F556-8485-9334-EFD0A34575F6,ChIJPSkyJjpy918RSUgoa9GC1ms,麺処よしだや,935-0062,富山県氷見市諏訪野９−１８,FALSE,36.8634317,136.97655
8A3A35D7-073C-D76B-CC7B-3C128974B7A7,ChIJ5SDxsP8z-F8RJ_XLm1jqCZc,讃岐饂飩宏之輔,920-1151,石川県金沢市田上町１丁目１６街区１６,FALSE,36.5446658,136.6908498
F1D946DE-1640-C69E-7AA2-EFF2AA193C5D,ChIJv6qVrc1z918Rvpu6RZk8xvw,みきさん,935-0016,富山県氷見市本町１６−９,FALSE,36.8550678,136.988003
84AB324C-F806-884D-2D33-A6843C57B4E9,ChIJ2ct4-ZyNGGAROLgdpAV2c2c,古奈屋 巣鴨本店,170-0002,東京都豊島区巣鴨３丁目３７−１ コーポ 鈴越 1階,FALSE,35.7358154,139.7351395
EB6332E6-227D-EE9E-77AF-C2B758629927,ChIJgUmH5bR2918RAHmft65jESA,うどん茶屋 海津屋,935-0037,富山県氷見市上泉２０,FALSE,36.8234146,136.9957278
546C3BBB-88C1-8B89-8C2D-093A6F044E79,ChIJYdWxXqKNGGARlTFT1yOZ4-I,筑後うどん まがり,170-0005,東京都豊島区南大塚２丁目２５−１１,FALSE,35.7264517,139.7299365
F7AE4991-424F-C944-F585-7F04090E7154,ChIJ79OLl0WQ918RCKqY3m9qbS4,糸庄 本店,939-8272,富山県富山市太郎丸本町１丁目７−６,FALSE,36.6780526,137.2112066
FE2D9413-B9B1-2DA4-1D70-558A5D5EDF69,ChIJq2LrF9T1GGARziDm56QPNKs,まるけん うどん 酒,154-0002,東京都世田谷区下馬１丁目１８−９,FALSE,35.6401524,139.6833008
127208F1-1F80-A455-8837-3E1F08EF5C45,ChIJ02MENPVaBGARHwubEtrMACk,伊勢うどん 山口屋,516-0072,三重県伊勢市宮後１丁目４−２３,FALSE,34.4926659,136.7071174
EA58D1A0-F91A-ABFB-A8CE-4E6FF6DB66C1,ChIJiaNZx1KLGGARhw0X9hmEGZE,うどん 豊前房,153-0043,東京都目黒区東山１丁目１１−１５,FALSE,35.6483151,139.6920313
0CE2B352-9A26-AD4E-011D-9A4CC819DB5C,ChIJnaB9Id_aUzURer7v8A0LnYM,山越うどん,761-2207,香川県綾歌郡綾川町羽床上６０２−２,FALSE,34.2257801,133.9282095
709CF5E5-0239-9ED1-3213-BAA741266CDA,ChIJiy5rhWznAGARXuTZcqExwdE,美々卯 なんば店,542-0076,大阪府大阪市中央区難波５丁目１−１８ なんばダイニングメゾン 7F,FALSE,34.6640297,135.5021535
6A3AC9F2-B739-5DE3-76CB-0FA289E5A50D,ChIJhyzlaYiRQTURWDGA1r9GMvM,ライオンズマンション舞鶴第３,810-0073,福岡県福岡市中央区舞鶴２丁目７−１ ライオンズマンション舞鶴第3,FALSE,33.5921072,130.3920858
6E1198D6-E88E-9759-454E-8F20505B6193,ChIJ4RdBoy2HGGARFwDFH9IfJj8,うどん鈴木鰹節店,124-0024,東京都葛飾区新小岩１丁目２８−８ 一番館,FALSE,35.71547,139.8575607
57D01724-2357-0F6C-8E70-94CD1D7896B2,ChIJ1crNvImTGGARjSNXPYVIbAM,地粉手打ちうどん 哉(ちか),173-0005,東京都板橋区仲宿４０−２,FALSE,35.7526021,139.7103846
97AFA902-8CBF-AA44-F008-0C59895E3588,ChIJVVXBhkSMGGAR_0NwMJU5yw8,まめ茶和ん,102-0071,東京都千代田区富士見２丁目７−２ プラーノ飯田橋プラーノモールＢゾーン,FALSE,35.7010588,139.7447105
276CAF97-7E98-1155-7A7E-8EA23EAA5158,ChIJi_af1nKVUzURqL9SommS5yI,おうどん 瀬戸晴れ,761-0121,香川県高松市牟礼町牟礼２６９４−１,FALSE,34.3490006,134.1228084
D8EEB8F4-FFAA-EF67-98D2-7D4F7355F848,ChIJecLN81_mAGARktDohmWMFpE,うどん 讃く,553-0003,大阪府大阪市福島区福島２丁目８−３,FALSE,34.6945304,135.4869651
2F844260-0E82-B4C0-6505-6CA5C2CA448E,ChIJ0_JP-5HnAGARb2nSbzYpBxU,うどん処 重己,530-0047,大阪府大阪市北区西天満４丁目７−７ ガストロプラザビル１Ｆ,FALSE,34.6966347,135.5038325
8E21BDB2-E84E-EF65-9B64-C3D8C8A5A852,ChIJlwPLmOrmAGARCWnhNYY03AM,讃岐うどん今雪,530-0026,大阪府大阪市北区神山町３−１０ クラウンマエダビル 1F,FALSE,34.7029991,135.5060685
A6D224ED-7D48-8659-3ADB-73E7497C0889,ChIJwZjEZZLmAGARqn10m-0q53Q,釜たけうどん 新梅田食道街店,530-0017,大阪府大阪市北区角田町９−２５ JR大阪駅高架下 新梅田食道街1階,FALSE,34.7033482,135.4980349
C925AAFC-0EEB-2EB8-9B2A-8943B471E3B6,ChIJ35Kqv3nnAGAR7CyWiotM9No,釜揚うどん 一紀,557-0023,大阪府大阪市西成区南開１丁目６−１０,FALSE,34.6514709,135.4908065
8F429079-40FA-83ED-CD93-2C638ACAB9BA,ChIJAwB0e7vlAGARIE-PgiOJJ_Q,讃岐うどん 白庵,532-0033,大阪府大阪市淀川区新高６丁目１２−７ 神埼川三和マンション,FALSE,34.7319676,135.4737031
5F38A85A-4188-F52C-74DE-5E0DC886DF90,ChIJi4av-JiFAGARDpVX8JiUX6k,おうどん くるみ家,654-0011,兵庫県神戸市須磨区前池町２丁目８−１３,FALSE,34.6626986,135.1331472
F771F3F8-6FB9-F8F9-24C4-0B119DD31C35,ChIJI3gLqCzcAGARPveK1XH3oCM,うどん ゆきの,546-0035,大阪府大阪市東住吉区山坂３丁目１０−１４,FALSE,34.6212333,135.5204136
33A6CB02-647C-BEC9-9574-B2F7120572E4,ChIJ38kT0rv6AGARVm56p89mHbE,空飛ぶうどん やまぶき家,560-0023,大阪府豊中市岡上の町２丁目２−５,FALSE,34.7847497,135.4633836
2EB645DB-EB82-304A-D78F-D7A7DEFBDAC9,ChIJ4YDhZrDgAGARoWxsfYue2G8,極楽うどんTKU,537-0024,大阪府大阪市東成区東小橋１丁目１−４,FALSE,34.674276,135.5336509
164D0A20-6A16-8DB9-8FCD-1896ECF75338,ChIJuyjs15DmAGARCaSnIeY-sos,うどん屋 きすけ,530-0014,大阪府大阪市北区鶴野町４−１,FALSE,34.7093633,135.5014799
5F9A116C-9F05-9594-3A1F-60F92880658A,ChIJ9wKvAPznAGARUrEu7r2TqJg,たけうちうどん店,531-0072,大阪府大阪市北区豊崎５丁目２−１９,FALSE,34.7124034,135.4998441
812660A5-6F29-8AFB-95F7-380A6E1E645D,ChIJrYRtAO3mAGAR3_5o5JrJJ-A,うどん棒 大阪店,530-0001,大阪府大阪市北区梅田１丁目１−３ 大阪駅前第3ビル 地下2F F37-2,FALSE,34.6990408,135.4994982
6EE4EFDE-AC2F-B193-BD72-2E27C17B829E,ChIJq_v3XgAcAWARfEFZFuzsfMw,手造りうどん 楽々,576-0054,大阪府交野市幾野６丁目６−１,FALSE,34.8015531,135.6750121
8B2CE50F-CEDF-9926-AF2C-F1CEEF950458,ChIJLw29ysznAGARGLqao4EPfc8,扇町うどん屋 あすろう,530-0041,大阪府大阪市北区天神橋３丁目８−３ マチスビル,FALSE,34.701752,135.511235
13D7068A-0B7A-038A-EF25-2EF41AD412BE,ChIJAQDFqeYIAWARErPxiBriOF8,山元麺蔵,606-8334,京都府京都市左京区岡崎南御所町３４,FALSE,35.0141863,135.7848226
2518255B-D56B-CDCD-FA72-12C631BC1367,ChIJGxJ03h4JAWARgCBOZamBxME,日の出うどん,606-8446,京都府京都市左京区南禅寺北ノ坊町３６,FALSE,35.0163821,135.7936413
241D856C-9891-96C5-12CF-18B4537F7808,ChIJE3ZTh0IJAWARnX8k6LX7Nv0,饂飩店 よこやま,602-0848,京都府京都市上京区扇町２８１−１ パレスハイツ 1階 今出川下ル扇町 東側,FALSE,35.0275662,135.7679852
CB8AE408-3219-5AED-2906-1618CC4E9044,ChIJl2Qw7RjnAGAR_LX5f4UdV84,本町製麺所 本店,541-0057,大阪府大阪市中央区北久宝寺町２丁目６−１３,FALSE,34.679824,135.504366
35AD632A-3B5F-C3E7-8CDE-1E226E6D17FB,ChIJbSXmcFd1GWARqdkqkx4ozXU,足柄古道 万葉うどん 本店,250-0136,神奈川県南足柄市矢倉沢２３９３,FALSE,35.3177778,139.0319444
A1072D5C-8E5D-D04F-203B-3F8B53AB9A92,ChIJIbrDpbyNGGARBBxszjTJhMc,讃岐饂飩 元喜,151-0066,東京都渋谷区西原３丁目１−６,FALSE,35.6702816,139.6827199
85876DC8-BFD2-2474-24C8-271478537BF2,ChIJrz3EPDNiHmARMjLSNpTQ3uc,水沢うどん 始祖 清水屋,377-0103,群馬県渋川市伊香保町水沢２０４,FALSE,36.4795189,138.9471893
61A02A83-7F78-BEBB-8C4C-12EEF3EA155D,ChIJYaz8-OZ4UTUR0_po3X-O8Ek,三好うどん,767-0004,香川県三豊市高瀬町比地１５８３−１,FALSE,34.182338,133.6923188
81D49042-EF8F-20B7-74E9-9AA2B81C9AE2,ChIJZbBSshiNGGARmOk7axQdrdI,うどん おにやんま 渋谷パルコ店,150-0042,東京都渋谷区宇田川町１５−１,FALSE,35.6621337,139.6988018
CBA5EE59-184E-31E0-6119-410615D2CB80,ChIJLwAjfPPhAGAR5izdAolaKWM,うどん屋こぞう,570-0072,大阪府守口市早苗町２−９,FALSE,34.7340881,135.5633634
A2DCAF4A-26DD-FBB1-6AF2-5946E418622D,ChIJawqjUeySGGARbJroKjWZiEM,讃岐うどん いわい,114-0034,東京都北区上十条３丁目２８−７,FALSE,35.7615315,139.7188673
1A7C0510-C1D4-615F-0CDB-D0BC7FC7871C,ChIJhzVyT4G-GGARHy16iNSGuH8,うどん屋 基蔵,344-0021,埼玉県春日部市大場１２９２−１,FALSE,35.9473869,139.7683551
02A2EB21-04A4-C281-F01B-493344716963,ChIJ7bcT7UTvGGARQAcmkVH3134,おめん,188-0011,東京都西東京市田無町２丁目２−３,FALSE,35.7291917,139.540018
6BE9F3A7-BA10-5124-809B-887CBCDC5B17,ChIJOSDcATXvGGARSva-B8W_kkI,手打ちうどん保谷,202-0005,東京都西東京市住吉町６丁目２−２,FALSE,35.7438844,139.5506464
CD03E10C-8826-79A1-4F12-ADE93D90F955,ChIJ9Qgc4LnoGGARMd7bNVQa0E0,栄屋うどん店,202-0002,東京都西東京市ひばりが丘北４丁目１−２９,FALSE,35.7526593,139.5445364
BF6B2696-7053-B60A-0883-8A85E15E1AD6,ChIJB2gDYbfoGGARlK6Sxp_o0dU,武蔵野肉汁うどん 金豚雲,202-0002,東京都西東京市ひばりが丘北４丁目３−３０,FALSE,35.7525361,139.5447769
ABF46A35-FEE4-AF72-04F1-3E9716636AD9,ChIJ9e2SDW_mGGARRBhj1iyC_U4,手打ちうどん よしふじ,187-0001,東京都小平市大沼町７丁目６−６,FALSE,35.737065,139.4989822
09157634-BE72-BD87-843F-FBCE9FCA2C10,ChIJQ-ttm2nnAGARk1mFgY06Rmw,き田たけうどん,556-0011,大阪府大阪市浪速区難波中２丁目４−１７,FALSE,34.6627396,135.5043379
2135E558-9D43-E0E8-2A8A-78A0A7B0383F,ChIJeU8ABORcGGARFwwfnZGwwiA,かばのおうどん 横浜元町本店,231-0023,神奈川県横浜市中区山下町２７６−２,FALSE,35.4397935,139.6450736
957FB40D-38E9-FC24-958A-6257E9D2E9FC,ChIJgQCiZnveGGARwxH2fAeBpQE,うどん家 一,359-1141,埼玉県所沢市小手指町１丁目２９−３,FALSE,35.8052175,139.4380043
7FAE3991-864B-6B4C-69D0-AB012375CC7F,ChIJq6rugzyMGGARrF6qVOfFCQM,トウキョウライトブルー ホンゴウスリー,113-0033,東京都文京区本郷２丁目３９−７ エチソウビル,FALSE,35.70647,139.7605545
45169CCE-62C4-B764-50C4-ED28EEB29B96,ChIJYw1NFFuPGGARkYmn30-g_60,賞讃,124-0014,東京都葛飾区東四つ木２丁目１８−４,FALSE,35.730333,139.8458945
9BB61300-9892-F757-ED62-C77A45FED06B,ChIJ99VjXr_pGGAR1_v80bOcseY,うどん処おはな,351-0021,埼玉県朝霞市西弁財１丁目１０−２５ 保第一ビル,FALSE,35.8146252,139.5850747
CDBE3BCD-6488-6F26-F536-DD338AEC47AA,ChIJyZVLTietGWARCEkozt9kz9k,釜揚げうどん専門店 もと,254-0036,神奈川県平塚市宮松町６−２６ １F,FALSE,35.3342353,139.3505749
9618D371-8D62-ECFD-FCC7-EBD7178E09C0,ChIJXbQsRzMoC18REC4Hvim5QcM,手打うどん 寺屋,063-0003,北海道札幌市西区山の手３条６丁目１−１０ ヤマイチ３６,FALSE,43.0683379,141.294989
693B2179-0009-5F9A-6A44-BDB2E81588DE,ChIJ59GjPF6LGGARRCDoQcAXuU8,さぬき麺業 東京駅店,100-0005,東京都千代田区丸の内１丁目９−１ 東京駅一番街 B1F,FALSE,35.6803384,139.7677954
E33559EE-B2A6-06C7-BD75-370EC727F526,ChIJRzNA9_UfG2ARi0YRMdhnrAY,野の香,434-0041,静岡県浜松市浜名区平口２２２−１,FALSE,34.8000918,137.7640048
5211A372-A2D3-09AC-E254-72F445D8910A,ChIJTZiCcrznGGARM9qNJVuyg98,本格手打ち かんたろう,359-0023,埼玉県所沢市東所沢和田１丁目４４−１,FALSE,35.7909453,139.5068142
E861572F-DB25-5BA3-2372-E3CE94041E55,ChIJf0aK_GP3G2ARk8ukltEOb98,うどん屋源さん,400-0041,山梨県甲府市上石田４丁目５−３,FALSE,35.6510924,138.5541656
341D292A-98EB-1BC1-54FA-0F5F04EEC8CC,ChIJq6oVtuaLGGAR2iPAMVvUn3o,京うどん きつね庵,104-0061,東京都中央区銀座３丁目８−１３ 光生ビル 2F,FALSE,35.6716559,139.7673828
3585C94A-3B5D-7090-DF93-D463BA0CF2B2,ChIJJWXghUiLGGARp4PqITHpTBM,自家製さぬきうどんと肉 甚三 新橋２号店,105-0004,東京都港区新橋５丁目１２−２,FALSE,35.6632472,139.7568966
69BCF3A1-9849-A1BF-C180-A188E0B7F9E8,ChIJ2y8fP8eLGGARfS25VKiX-pc,和食居酒屋 ひだりや 大門,105-0012,東京都港区芝大門１丁目１５−１０,FALSE,35.6571625,139.7539423
B3D508AD-395A-BB6B-4D5D-38445E19F5FB,ChIJadP6XlLuGGARWYLgX0SUtAo,うどん白石,180-0004,東京都武蔵野市吉祥寺本町４丁目３０−１２,FALSE,35.7099027,139.571639
3809490B-4D2E-E8C5-2BFC-0210382D46B3,ChIJY8p_z3SNGGARX8nDfsXNucs,五島うどん 後藤,113-0031,東京都文京区根津２丁目６−６ 宮松荘,FALSE,35.716938,139.7667611
CDF084DD-88EC-C3A7-3AD0-D9D35DAC84D8,ChIJq9_2uGqDUTURWCwiI9nzFAY,讃岐麺処山岡,768-0023,香川県観音寺市古川町２７３−１,FALSE,34.1302292,133.6917986
7483E526-878E-380D-ED20-DB155C844B77,ChIJAydNPqmPGGARMcsiqlwf0Oo,家康うどん,111-0032,東京都台東区浅草１丁目１６−１２,FALSE,35.711808,139.7947073
EDCC4F01-FCA8-4478-FE2B-81C185B6928A,ChIJ0dkUc7GDGGARxun-8IXfi1E,手打ち讃岐うどん源藤,270-2213,千葉県松戸市五香１丁目３３−２０,FALSE,35.792942,139.971393
89DBFE44-A1A6-398F-49F8-30A944996110,ChIJdTY1eNOLGGARPqJG_q2MzgU,だし焼肉 はし田,153-0051,"東京都目黒区上目黒２丁目１２−１, Rootus Nakameguro, 3F",FALSE,35.6427728,139.6987462
E174C9A1-04E5-9B32-631F-EC1CD1518F99,ChIJR24xDsaNGGARQZ_z4FjrmAc,ひもかわ桐生 池袋店,171-0022,東京都豊島区南池袋3-18-35 橋本荘101,FALSE,35.7256765810367,139.716631039074
6732AEC0-6B65-5B1B-AE06-81582C64C669,ChIJUVHHzXSLGGARErehIbwTjx0,こんぴらさん,105-0004,東京都港区新橋６丁目２２−８,FALSE,35.6604282,139.7545953
07683A9A-CE33-1BE6-0218-1A8C7728245A,ChIJ8x1BAeHxGGARLx3zM5ad_QI,讃岐うどん なかじょう,181-0004,東京都三鷹市新川３丁目１９−１１ 松ビル２ 1F,FALSE,35.6789101,139.5691197
FE579041-DF9F-CCB0-9EBF-C2FD9B7D34EA,ChIJyd_ewMLxGGARKE1opNV6DVo,うどん佐糖,182-0022,東京都調布市国領町５丁目７２−１,FALSE,35.6492892,139.5513094
ACEEE005-F085-CD2B-11C2-5F49A6B4FB52,ChIJNfNNAGHzGGARd3dpcD-VXKA,手打ちうどん七福人,156-0043,東京都世田谷区松原１丁目３７−１６ 1階,FALSE,35.669431,139.6504712
8AC260D1-A304-2BDC-F361-9BE5A848A282,ChIJCdugcsJ6A2ARrxevvNW7SLU,饂飩坊一休,466-0834,愛知県名古屋市昭和区広路町石坂１６,FALSE,35.1384544,136.9616803
69AF11EB-B566-489A-D92D-11CB29BBE821,ChIJnc77Wm4PAWARxOLbf3P0ov0,本格手打ちうどん 大河,612-0029,京都府京都市伏見区深草西浦町７丁目４５−１,FALSE,34.9579574,135.7646691
485776CE-F747-409C-9AFD-48D0ACA3156F,ChIJAQDdHYxiA2ARAiqRDwbfjWE,讃岐うどん 十四明,470-1116,愛知県豊明市新田町吉池２６−２ 讃岐うどん十四明,FALSE,35.0546108,137.0136762
132AD9AC-3265-AAED-69E1-7056B698852E,ChIJZcAJH2nzGGARsJ8m1i0qAhI,東奔西走/トーホーセーソー,166-0004,東京都杉並区阿佐谷南１丁目１１−２,FALSE,35.6987635,139.6377713
08286522-E0EA-8FDF-4AEA-9207A0A8BC38,ChIJpdkBxCPdGGARrJ0AWW-pLRk,手打ちうどん 永井,354-0044,埼玉県入間郡三芳町北永井２６４−４,FALSE,35.8343673,139.5111374
CE12A8E0-FFB0-9AEF-412D-02E31456EDE3,ChIJ5RVxgvjpGGARIHpzHePF4z4,讃岐うどん 一か〇(いちかわ),188-0001,東京都西東京市谷戸町３丁目２７−２４,FALSE,35.7500548,139.5435541
62C0A680-846D-FD21-2A82-022BE5B479BC,ChIJrbElun9RGGARSZrc0h5LtJw,手打ちうどん 夢仙,252-0815,神奈川県藤沢市石川３丁目１０,FALSE,35.3760016,139.4482187
FAE57377-3D98-74E6-4CD6-98F456DE030F,ChIJN_IITQiDUTURWSzqy1ZuDVI,うどんや カマ喜ri,768-0040,香川県観音寺市柞田町甲４６−３,FALSE,34.1127209,133.6765864
CF6C5A8A-5D23-4194-1021-40851A6E475B,ChIJ7fo0vTyMGGARN5bvPRRQL6w,味噌煮込罠,113-0033,東京都文京区本郷３丁目３１−１５ 菅谷ビル,FALSE,35.7063955,139.761434
A68AA32D-BA45-F409-1C39-6FC99D75F2AC,ChIJmUQmYGPBUzURKURijy3K61w,池上製麺所,761-1705,香川県高松市香川町川東下８９９−１,FALSE,34.2461966,134.0246416
8385C0F0-7AFD-A2B6-7B85-94986CF59DB5,ChIJ651p-W-NGGARi41d0DEi2l8,麺散,150-0001,東京都渋谷区神宮前６丁目１３−７ 1F,FALSE,35.6665054,139.7050824
2DFDEB57-0D5E-BC68-05EE-F8D37617B95A,ChIJVwGbMtKNGGARQVDUqSzpE6o,讃岐のおうどん花は咲く 新宿戸山店,160-0022,東京都新宿区新宿７丁目３−３６ 戸山センチュリー,FALSE,35.7012715,139.713838
65F74EC8-AE19-8EE1-A0D9-D9513403CDE1,ChIJkc05Y6GNGGARyTpYIjnL3H4,うどん屋 新堀,151-0051,東京都渋谷区千駄ケ谷５丁目２３−９ モルフォ 1F,FALSE,35.6840397,139.7035625
4754C007-5C52-302B-ECE9-AC24A544FFD0,ChIJbYhqo9CNGGARVGaj53BzItY,功刀屋 新宿御苑店,160-0022,東京都新宿区新宿１丁目７−２,FALSE,35.6887568,139.7104522
05525EF4-B7DD-6C5E-30D0-3E95AD51E166,ChIJDZqYhDbkGGARYgi1ej5ggEs,讃岐うどん irico,185-0012,東京都国分寺市本町２丁目２２−２ 第一鴨下ビル 101,FALSE,35.7024195,139.4818472
FDE543F7-DCCA-74B7-F604-64A8CEDE8D7E,ChIJZwCjI8z0GGARR57-Kso_g0I,恩家,152-0004,東京都目黒区鷹番２丁目２０−１９,FALSE,35.6297306,139.6864809
A24B9A66-A046-BC46-D622-565C23939798,ChIJbYUqc7rpGGARYKC20v_4Wfg,手打ちうどんわだや,352-0035,埼玉県新座市栗原３丁目８−２８,FALSE,35.7608062,139.5500186
20F96FF1-4BE8-E630-58CD-6A0DE11376A3,ChIJp0bi-3aPGGARkMlC537VI9A,小時,111-0032,東京都台東区浅草４丁目７−１０ 冨永荘 １F,FALSE,35.7180858,139.7974631
FAEBA331-81C6-AE7A-77F5-E92FAE9EC801,ChIJR48hDteBGGARZH_6wiQUg_U,お多福,273-0105,千葉県鎌ケ谷市鎌ケ谷４丁目２−５１,FALSE,35.7565136,140.0155965
C793019C-35AF-82C6-4FEE-E62347ABC104,ChIJnyUuMfj-QDURNMmFe_kZ7bc,入屋うどん,861-0516,熊本県山鹿市中央通２０１,FALSE,33.0143857,130.6845547
DC864B0D-E294-D1F4-4B83-319086A73E66,ChIJjSPfPtXLHmARTRuZd7H5S94,田舎うどん わたなべ,368-0033,埼玉県秩父市野坂町１丁目１−１５,FALSE,35.9916623,139.0827583
8F001DBE-0597-5D2D-2305-47B320E877A5,ChIJ_XSUsNfrGGAR0ID4lA2kX04,武蔵野うどん 澤村,335-0038,埼玉県戸田市美女木北１丁目２−２５,FALSE,35.8338537,139.6536568
9EF443EE-B9B3-CAE5-28CC-E46F9A24D6EB,ChIJk4LznlOVGGARsxrMfGO5w5M,手打うどん ひら田,333-0842,埼玉県川口市前川４丁目１５−４,FALSE,35.8370606,139.7066842
A579CA0C-0241-8FD5-FE48-D7AB02EFA559,ChIJwxpQEdzwGGARmrhZiyc2x3c,讃岐うどん 宗,214-0014,神奈川県川崎市多摩区登戸１８８３−４ グランメール遊園 1F,FALSE,35.6187322,139.5626703
6F539CBD-3793-3764-18C8-C90A85CC589F,ChIJcxFWEUzcGGAR1e3IQYT1XyQ,柿屋うどん,359-0001,埼玉県所沢市下富５２０,FALSE,35.828122,139.4732172
5F3B8ACD-D048-904B-6F57-AAC942D70213,ChIJpaSPQPveGGARsIk_zUKVitk,自家製うどん うどきち,359-1162,埼玉県所沢市和ケ原１丁目６９１−６２,FALSE,35.8068514,139.4126058
1EF54C29-B998-5CE3-670A-017382770869,ChIJ5XeaL3CRUzURNepOJbX4iRI,さぬきうどん処 麺でぃ〜,769-2101,香川県さぬき市志度１９０５−２,FALSE,34.3196953,134.1835017
88881679-4E43-F68B-A3BC-0B98CEB4CBB7,ChIJWbv8flBgGGAR792aly2V41U,うどん屋大作,144-0052,東京都大田区蒲田１丁目１８−７,FALSE,35.5651354,139.7219761
D28147B3-7843-1D34-562B-5B8E47F1982B,ChIJ-W_P09KUGGARwi2JQ3L0KyE,うどん日和ひこどん,333-0866,埼玉県川口市芝４丁目７−３０,FALSE,35.8321277,139.6914066
63EE2C8E-14EA-CBBA-DBAB-68B6E737BA9C,ChIJPdtEYYDkAGARzGDey1cz52k,自家製麺 うどん 司,564-0082,大阪府吹田市片山町３丁目３３−１７,FALSE,34.766902,135.5241295
01675E69-A35D-4DE4-3DCE-48C8559562E1,ChIJU1fe9m0eAWAR8VReTNXC3vE,うどんらんぷ 若蔵,572-0838,大阪府寝屋川市八坂町２５−７,FALSE,34.7668317,135.6235835
0A2DE7E4-2F2B-5520-7371-1EC2A196326A,ChIJ67Q7bNodAWARKiE5cxauZOQ,手打ちうどん 上を向いて,572-0084,大阪府寝屋川市香里南之町３４−５,FALSE,34.7837876,135.6282585
C33A8497-F966-F1DA-D595-370EB5C3D208,ChIJE1B9072NGGARAc2c1yso4FE,TOKYO SUNFLOWER IIDABASHI,102-0071,東京都千代田区富士見町２丁目２−７,FALSE,35.6992456,139.7451089
2553BF36-22B5-6A1C-DD71-A48C2269D3D5,ChIJXeXy0VWJGGARQufQX2HxOus,日本橋 讃岐うどん ほし野,103-0022,東京都中央区日本橋室町１丁目１１−２ 松楽ビル １階,FALSE,35.6855691,139.7751699
9FAFFE35-B52A-D7BF-CA82-C74548AE2B48,ChIJO2ze9ujuGGARZXN5RI7UFzY,長谷川,178-0063,東京都練馬区東大泉４丁目３−１８ 102,FALSE,35.7507667,139.5851416
75640AF7-26D0-DABB-2996-A482F64476D5,ChIJRcu6ggOMGGAR62_THvo-ho4,麺匠 釜善,101-0048,東京都千代田区神田司町2-14-15 高梨ビル 1F,FALSE,35.693939898867,139.768495165736
BC65813F-1F40-2E52-F96F-72E5004D071F,ChIJSUP2h16NGGAR5Bm1GxYV6Z4,あんぷく池袋店,171-0021,東京都豊島区西池袋１丁目３７−８ Ｊ・Ｐビル 1F,FALSE,35.7324319,139.7089887
5F197AD0-3327-2E1A-C605-4061CA2745AA,ChIJWfXGT6qMGGARUBxJQ1emmT0,讃岐うどん 麺喜やしま 渋谷円山町,150-0044,東京都渋谷区円山町１０−１３ サンライズビル 1階,FALSE,35.6590329,139.6943932
D9E43213-4770-7A6D-85DD-063559465D2E,ChIJeQliCEd_GGAREL2L4iT5FgI,日炉勢,273-0005,千葉県船橋市本町４丁目４４−１７,FALSE,35.6998247,139.9872224
8FD99FD2-3F2D-3EC5-2627-CD2B900A94D6,ChIJGTv5_meNGGAR4cAdRbZSnw0,手打ちうどん 讃岐 かるかや,171-8569,東京都豊島区南池袋１丁目２８−１ 西武池袋本店屋上（9F） 食と緑の空中庭園,FALSE,35.729195,139.7116119
CF561813-CBA4-BE62-EF02-3FAB8E71F490,ChIJ0xv1VbfeGGAR-2AvW8-ZHWk,手打 ここらの田舎うどん なんかん,350-1316,埼玉県狭山市南入曽４１９−１,FALSE,35.834758,139.431103
C4B32EDF-8E65-03C5-C9A1-EEEA732BF4A2,ChIJO51QKqfcGGARQUSvmPZLXX8,讃岐うどん條辺,356-0004,埼玉県ふじみ野市上福岡１丁目７−９,FALSE,35.874961,139.512956
782E50D6-76C2-E013-5268-FE8A78F4F26F,ChIJn22_UZ5yAWARmN3Dzfg88yw,手打うどん 虹や,520-2144,滋賀県大津市大萱１丁目１８−２ 瀬田大昭ビル,FALSE,34.9869306,135.9257302
E0505121-D6FD-050A-1E99-582D395AB0A9,ChIJW9fIiDJiHmARF5yTOgIXoss,大澤屋 第一店舗,377-0103,群馬県渋川市伊香保町水沢１２５−１,FALSE,36.4795756,138.9496286
204031DE-58D4-C087-BB99-4B0D427EF487,ChIJ5Rqr3ZkZTjURux78pxs1w4k,よがなうどん,781-0240,高知県高知市横浜４５０−１,FALSE,33.5212123,133.5449464
31BF8188-69B8-5F60-E44B-3421AF0079C3,ChIJf_apK0wZTjURMiP88VXBPzo,手打うどん かめや,781-0086,高知県高知市海老ノ丸５−１６,FALSE,33.5640699,133.5650156
55E4035D-D0C3-3A73-2D64-CE50505DFE26,ChIJyaXZUOSPGGAR3V3-84k8CEw,関西風手打ちうどん いらっしゃい,110-0004,東京都台東区下谷１丁目１３ 下谷岩瀬ビル,FALSE,35.7204137,139.7817286
0552EE5D-8A88-BA8C-AD16-03A249A03440,ChIJhzJ3JMGOGGARfxZIO_zmHPg,叶屋,111-0032,東京都台東区浅草１丁目３７−１２,FALSE,35.7127824,139.7963627
6415289C-0AF7-8866-0E80-6BE8D0FB50DF,ChIJEVIkohEkGWARfSUq8E20wB4,手打うどん 根岸屋,198-0041,東京都青梅市勝沼１丁目４０−４,FALSE,35.7894766,139.2702759
6E25CC7B-CC86-BFC0-61D3-5BD723CB91BD,ChIJgbGS0h7lGGARS2KWYkFYgsM,府中平次のおうどん,183-0006,東京都府中市緑町３丁目３−１ ヴェールメゾン府中,FALSE,35.6702326,139.4922348
138A6DF0-572C-D559-A365-B5444882859A,ChIJU7wO7BriGGARZK8tk6SZZC0,手打ちうどん 咲楽,191-0031,東京都日野市高幡２−２３,FALSE,35.6624066,139.4120434
FA78B66D-8DBC-66DC-2262-C15943CADDED,ChIJDSqGV67zGGAR025-FvbTdZs,JAZZ KEIRIN,156-0043,東京都世田谷区松原３丁目３０−１７ 大和屋ビル,FALSE,35.6667694,139.6425611
FF6F01C1-1315-F2A5-0D59-7740CFA944C9,ChIJY-FiYqjPGGARr7bPmbn_eHc,いしづか,363-0015,埼玉県桶川市南１丁目７−５,FALSE,35.9999758,139.5663722
E6E7598E-854D-92D4-3FB2-124BA0761259,ChIJJ8cSyWmNGGAR7Ax6gcdCnTI,武蔵野うどん うちたて家,171-0022,東京都豊島区南池袋３丁目１３−１７ Mashita5ビル １Ｆ,FALSE,35.7261485,139.712655
1B4827AD-C8D1-BF10-CCF0-546880731DBA,ChIJtdNzOTNiHmARAVw-pRgT1yM,元祖 田丸屋,377-0103,群馬県渋川市伊香保町水沢２０６−１,FALSE,36.4795377,138.9469738
B8922330-1C97-6539-EB44-8E91461A74F6,ChIJ3wS9STIlGWARZypPERwCmAI,こみちの製麺所 幸太郎うどん ※狭小・1席1オーダー(お食事)制です,198-0081,東京都青梅市上町３５２−２,FALSE,35.7897846,139.2531691
8E01E664-CABD-F270-005D-477F06D071D8,ChIJa6GX7n3uGGARfcMFCIVe5ZA,正太郎うどん,177-0042,東京都練馬区下石神井５丁目１−３５,FALSE,35.7299002,139.603504
CDFFC106-581D-98B0-89EA-7CC6FE6295BF,ChIJqyfpArGPGGAR33CK76K4Zt0,細打ちうどん竹や 浅草橋店,111-0053,東京都台東区浅草橋１丁目３２−６ コスモス浅草橋酒井ビル １F,FALSE,35.6985969,139.7854792
7505FF5D-EEAE-FE0C-5E1D-0A7A61F8F8FD,ChIJl7YRHRmMGGAReoVumUJxnjI,細打ちうどん竹や 御茶ノ水本店,113-0034,東京都文京区湯島１丁目９−１５,FALSE,35.7018182,139.7661022
D81D7D1C-8E3D-57BF-B54F-58DB1B3E51A4,ChIJb89ZGkSMGGARSBXfZs4_uhY,雅楽,102-0072,東京都千代田区飯田橋３丁目７−３ 岡田ビル １階,FALSE,35.7018508,139.7468125
17AB8521-71F3-5585-16BB-F44D37B2A0B2,ChIJg2KDruvyGGARb4o2V5Y-WqU,讃岐のおうどん 花は咲く 新中野本店,164-0011,東京都中野区中央４丁目６−１２,FALSE,35.6991829,139.6677401
70AF112C-A00C-0AB3-56B3-8B0CBFEFC5DB,ChIJOSeAxD6NGGAR9SJ3qoxZDLU,うどん蔵之介,171-0033,東京都豊島区高田３丁目７−１５,FALSE,35.714502,139.707509
FC03F5ED-F088-224F-9F8B-C3A0D8CBC49A,ChIJK5cfKH-MGGARDO01Fs506xU,葉隠,107-0052,東京都港区赤坂３丁目１０−２０ 第3対翠館ビルB1F,FALSE,35.6764157,139.7365165
72C3B959-E89D-5CFC-AFC4-9EBCCB773FBA,ChIJf1-btrzlGGARpaYsrv2Q9N0,びぜん家,184-0004,東京都小金井市本町６丁目９−４２ ＳＫビル,FALSE,35.6997621,139.5036983
817EA5B1-E2DC-7A61-14DE-8C87B249EF55,ChIJMQWh8iiJGGARxT3SufPr7sM,純手打ち讃岐うどん 五郎,130-0022,東京都墨田区江東橋１丁目１３−１,FALSE,35.6958173,139.8105839
8342D909-3DF5-6F23-6B5B-DF1978906EA8,ChIJ1559lO-LGGARf41O0tGfwrU,慶屋,100-0006,東京都千代田区有楽町２丁目４−１１,FALSE,35.6737382,139.7617039
7D2899AF-A2AB-81B8-248A-8237EB786105,ChIJ-VHqG6_vGGARj1owS3j7rNQ,ウドンスタンド五頭,180-0013,東京都武蔵野市西久保１丁目６−２０,FALSE,35.7073324,139.560711
18622D6F-0D28-3A96-5FE4-BBA9C981E196,ChIJTZQogPrtGGARcK5385eHZ4A,恵,167-0032,東京都杉並区天沼３丁目６−２１,FALSE,35.7076023,139.6197646
E0264BC1-7C91-73D0-4F80-5835E8DFC51A,ChIJS0J2DdbmGGARBE8pi0bgA6Y,手打ちうどん こげら,189-0024,東京都東村山市富士見町２丁目６−７２,FALSE,35.7421757,139.4509757
77870936-4F46-0933-8BE6-58FB75568677,ChIJiX4T-0CLGGARIdncuM0Y-2s,酒彩蕎麦 初代,150-0022,東京都渋谷区恵比寿南１丁目１−１０ サウスコラム 小林 1F,FALSE,35.6464887,139.708406
81980CFA-13CA-A3C9-BA35-3A9585FF9FF2,ChIJxRKgJSYlGWAR42QXWWDRCOI,さぬきうどん青梅店,198-0064,東京都青梅市柚木町１丁目２６,FALSE,35.7949869,139.2140149
40C4FCB2-B866-87DA-908D-0FF74C2C74B5,ChIJo9CCQdK9GGARRdKTNDldxYQ,もり豊,343-0825,埼玉県越谷市大成町６丁目２２８−１,FALSE,35.8872635,139.8235415
C60EB9E0-5C17-DAEB-4343-4A45C42FD240,ChIJpy-a7yKMGGARzEEhvse56-8,二代目甚八,113-0033,東京都文京区本郷３丁目２２−９ 眞鍋ビル 1F,FALSE,35.7054076,139.7643046
54B1D970-8040-9A68-0A1D-FCBB1CECE42D,ChIJ4fpmeQzgGGARN3R_sNuNbDE,本格手打ちうどん 笑乃讃,208-0021,東京都武蔵村山市三ツ藤１丁目８６−４,FALSE,35.7462619,139.3826739
500EEEE0-7508-869E-E2ED-22B6F040026D,ChIJPyRYtx7nAGARgOsJ42Z115Q,Udon Kyutaro,541-0056,大阪府大阪市中央区久太郎町３丁目１−１６ 丼池繊維会館 102南,FALSE,34.6808688,135.5025605
88D3832A-9AC8-E1EC-DBAE-FD6D7FFC9029,ChIJd6tWNlCJGGARQso1skgKPKc,居酒屋 徳,103-0014,東京都中央区日本橋蛎殻町２丁目３−７,FALSE,35.6829809,139.7857123
C7A746AE-9F3F-8CA9-B949-C4723AC56922,ChIJXaIslnSPGGARtKQaUjuNMa4,讃岐手打ちうどん 青ノ山 上野店,110-0015,東京都台東区東上野４丁目８−１,FALSE,35.7131787,139.779349
D977E08E-5220-AAFD-4899-E28ED1025545,ChIJtfdWKcGOGGARcg-4wLtEuO8,うどん 佐藤養助 浅草店,111-0032,東京都台東区浅草１丁目３０−１２,FALSE,35.7121478,139.7961341
4481262C-D787-BF0E-E626-724355A49126,ChIJi5UqXM3jGGARSD6OpCm1aDw,手打うどん どんたく,191-0012,東京都日野市日野１３５２−６,FALSE,35.6783642,139.4070397
11FBB126-3138-4ADB-77ED-179FA255D7D2,ChIJF_OD9IWuGWARTD_bf9agAsM,うどん AGATA,259-0114,神奈川県中郡大磯町月京２９−７,FALSE,35.3095642,139.2743632
77D252CF-B780-CEB8-368E-3B4085EC90E5,ChIJwaxepWvhGGARMLievxVjeV4,UDON 玉屋,190-0022,東京都立川市錦町２丁目２−１ 立川錦町ビル 1F SK,FALSE,35.6958171,139.4162348
24B6C7E4-C33D-FFA8-F0C4-CB148E9A8089,ChIJVVVeUP4gGWAR_dykCUPGxT8,手打ちうどん さかもと,205-0013,東京都羽村市富士見平１丁目７−１６,FALSE,35.767643,139.3267684
039D8F98-9AA5-F226-5C1B-4A5C38757DEF,ChIJASwF_eyLGGAR4N2zB2NK-PQ,佐藤養助 日比谷店,105-0003,東京都港区西新橋１丁目２−９ 日比谷セントラルビル B1,FALSE,35.6697334,139.7544678
2CB6C22B-F1A4-F8AE-30C3-377ECAF58643,ChIJJzqCRwCNGGARGMHdb0Y4AuE,釜揚げうどん はつとみ,112-0014,東京都文京区関口１丁目４８−５ イシダビル １F,FALSE,35.7095111,139.7303661
89271AC1-7D4C-E5C1-ADD6-B63C0E0BC519,ChIJizSBRkjuGGARV0tn49N9AaU,いぶきうどん 吉祥寺店,180-0005,東京都武蔵野市御殿山１丁目１−１,FALSE,35.7031424,139.5772546
1233509E-D28E-CEA8-8DEB-A3834DEDAD50,ChIJS0zo8M6NGGARJ_rGTAtwtfA,伊勢おうどん屋 いせ万,169-0075,東京都新宿区高田馬場２丁目６−６,FALSE,35.7134937,139.7094692
01A7DFDF-5E04-316C-7686-A92FEF0D810D,ChIJIbodeXuSGGARKg_I37H_Sag,うどん屋 清,114-0002,東京都北区王子１丁目１６−１６,FALSE,35.7550801,139.737563
912248E5-947B-8D78-B094-999F768D3320,ChIJi3rM3r-TGGARvYE33KXy16c,いわい製麺,174-0053,東京都板橋区清水町５−１１ サンハイツ清水町第一,FALSE,35.7632263,139.7100662
03BE341E-8B89-BD8E-18E0-9F465ADDFCC6,ChIJcRRPoS6MGGARe-LEXkndq_s,根津うどん 釜竹,113-0031,東京都文京区根津２丁目１４−１８,FALSE,35.7180829,139.7669646
34CBCE8A-2F68-D3F5-822C-4F430441D56C,ChIJ6cAneVqNGGARNuHb6MxnESw,自家製さぬきうどんと肉 甚三 高田馬場店,169-0075,東京都新宿区高田馬場４丁目２−３１ SSTビル,FALSE,35.7113678,139.7030168
CC83AFEA-6541-E221-AF52-058624822AC6,ChIJ48twIpiLGGARe3LFEemDdYE,自家製さぬきうどんと肉 新橋甚三,105-0003,東京都港区西新橋１丁目１９−３ 第2双葉ビル,FALSE,35.6680608,139.7529229
E84E0D4B-DAF2-104F-70C7-03A46E2B0144,ChIJvWerKEKLGGARH521Epc3TPE,本格手打もり家 東京店,105-0013,東京都港区浜松町２丁目６−５ エクセレントビルポンテせとうみ ２Ｆ,FALSE,35.6544101,139.7558479
CE1E749E-C6FC-8FFD-30B6-6ACCA5AA6A23,ChIJ8ygPzZ-MGGARGRxOIhm2QKs,しまだ,107-0062,東京都港区南青山３丁目１３−３,FALSE,35.6658597,139.7138914
6FE64752-4CFC-9C22-8DE8-0A1052D55161,ChIJD4_xF1zaGGAR4oPYluSRn4Q,手打うどん 長谷沼,350-0042,埼玉県川越市中原町２丁目１−１３,FALSE,35.9157322,139.4815347
6A341134-8407-D668-B217-4034937933CF,ChIJq6qqqq-AiV8R5qFXZ_gGMfk,手ぶちうどん 吉平,981-0954,宮城県仙台市青葉区川平３丁目４６−１１,FALSE,38.3059396,140.8341108
4E5F5342-2DB1-8A98-B210-34B12267C9E9,ChIJRbhw1xaMGGARbI2KQGUJuIc,讃岐うどん 直白,101-0064,東京都千代田区神田猿楽町１丁目５−３ お茶の水ビルⅡ 1F リッツ,FALSE,35.6978087,139.7599224
3339D70A-2E3A-229C-BA9E-84663335411C,ChIJu_ZF1OKPGGARlviIbVHGq7Q,浅草真九郎/浅草手打ち塾,144-0055,東京都大田区仲六郷２丁目１８−１４,FALSE,35.5510116,139.7133551
DFEB3D80-DCCE-C25B-B660-B162AEC6DEBE,ChIJaUYAsE99UTURvKrmpF8xh9E,釜あげうどん 長田 in 香の香,765-0031,香川県善通寺市金蔵寺町１１８０,FALSE,34.2508681,133.7796345
B2E69FD6-2963-855B-44BD-F91D0C77D196,ChIJ--gb0UGLGGARYisuJQ1c7Zs,うどん山長 恵比寿店,150-0013,東京都渋谷区恵比寿１丁目１−５ エビスオークビル 1 1F,FALSE,35.6482915,139.7111154
BB1BC5B1-EEF3-EF7A-86AB-509979C96368,ChIJM_SW5IeLGGAR4KyKbGsNimY,伊吹うどん東京ミッドタウン六本木,107-0052,東京都港区赤坂９丁目７−１ 東京ミッドタウンガレリア B1F,FALSE,35.6657289,139.7307737
F2562BEA-A3C6-9648-ACFF-882B812CEF3A,ChIJv-XGf6jZUzUR8Yh3izjU3dA,純手打うどん よしや,763-0084,香川県丸亀市飯野町東二３４３−１,FALSE,34.2657445,133.8386151
63E0AD57-6321-9A4C-F0A4-0BCCAD5C1C17,ChIJUeEGqnmLGGARBVyCtqZjegY,麺匠の心つくし つるとんたん 新宿店,160-0021,東京都新宿区歌舞伎町２丁目２６−３ 網元ビル B1F,FALSE,35.6953842,139.703149
5C4FEDF7-9078-F21C-2FC6-9C21E04111DD,ChIJFwISL319UTURZQ_Iwn2nEQk,いけこうどん,764-0015,香川県仲多度郡多度津町西浜１１−１８,FALSE,34.2714634,133.7446025
4BE028C6-5FE2-9684-BBFB-9C92BBBEA7DE,ChIJVVUF-JDXUzUR7uDCavVTYas,山下うどん,765-0040,香川県善通寺市与北町２８４−１,FALSE,34.2298718,133.8177216
A477AD1A-5857-20F1-C1F3-CB2B0D702E54,ChIJ4_qHlseLGGARhwuFUYLFG6U,自家製さぬきうどん 甚三 大門店,105-0012,東京都港区芝大門２丁目６−１０ コンフォート芝大門 １F,FALSE,35.6548594,139.7536088
236CEE97-DA77-5CAD-DB0B-0A588443302B,ChIJwRCIDQSMGGAR2z5vzqg4M-Q,香川一福 神田本店,101-0047,東京都千代田区内神田１丁目１８−１１ 東京ロイヤルプラザ 102,FALSE,35.6919051,139.7671648
4A69C791-8B2D-16DE-53C7-A373D8F0A810,ChIJJ0a1CXaLGGARZxRzlIyTvWs,香川一福 恵比寿店,150-0021,東京都渋谷区恵比寿西１丁目２−７ 幸ビル 1F,FALSE,35.6482662,139.7087745
8247368C-F690-E4C8-1676-FCC55C001731,ChIJDSl5i8LeGGARpwbOv-1RgSY,三丁目の手打うどん,350-1317,埼玉県狭山市水野１２６６−４９,FALSE,35.821432,139.4183558
10584AA6-7874-F06F-0F14-6BC4F6673082,ChIJ_9P5v-XfGGARWx2XGTp0_Qc,村山満月うどん,208-0032,東京都武蔵村山市三ツ木１丁目１２−１０,FALSE,35.7577219,139.3793482
E5A19341-F372-4BB8-9FFE-84A462466922,ChIJy4ekk33yGGAR48XeHk3boO4,手打ちうどん敷島,166-0002,東京都杉並区高円寺北３丁目２３−６ 戸部ビル １階,FALSE,35.7066307,139.6494106
5A1666D5-2A59-BAC0-11D9-E21FC79ECB3F,ChIJL83cf-eLGGARdQVuT0Kzx4E,だいつねうどん 銀座本店,104-0061,東京都中央区銀座７丁目１５−１７ だいつねビル 1F,FALSE,35.6673287,139.7652749
B1F83231-E3EB-A1CE-37EA-31E344F95B19,ChIJW1JeHYaPGGAR1ikEqltsrqE,菊家,125-0061,東京都葛飾区亀有３丁目２７−２２,FALSE,35.765659,139.850189
6A1E3D15-EC8C-0D3C-4273-632B7F8E3695,ChIJz--yeleJGGARNp29Urylv8Y,おにやんま 日本橋店,103-0027,東京都中央区日本橋２丁目１５−３ 日本橋Hyビル 1F,FALSE,35.6813328,139.7760636
A2AA0758-05BF-A922-FD93-24378EB7C78B,ChIJK65z1FGJGGARgt5gMj09HlU,おにやんま 人形町店,103-0013,東京都中央区日本橋人形町２丁目６−１,FALSE,35.6859982,139.7827679
C86F7806-42C7-106F-2B84-9379EEDE27D3,ChIJ9cvArzeNGGARx0GllQB16so,大地のうどん 東京馬場店,169-0075,東京都新宿区高田馬場３丁目２２−１４,FALSE,35.7124712,139.6993351
3700CEF2-AE00-D951-C73A-98E3C4A2619E,ChIJVZLvoWmNGGAR7Mp4uw8oVMw,硯家 本店,171-0022,東京都豊島区南池袋２丁目１２−１２−１０,FALSE,35.7258593,139.7138413
0096E6FB-057F-FDEE-B5EE-B1AF485B3985,ChIJNbxraeKNGGARuoJ7htgpA4Q,切麦や甚六 西新宿成子,160-0023,東京都新宿区西新宿８丁目１１−１ 日東星野ビル B1F,FALSE,35.6948054,139.6924596
6218F504-B3DF-B514-CC52-B1CB48B34514,ChIJ3WL3-zYmGWARVxL3EFT8YGE,うどん 古久や,357-0033,埼玉県飯能市八幡町６−９,FALSE,35.8549903,139.3174493
CC6D4AEE-BCE5-6590-80E9-E7BFBEC3CAD6,ChIJb8xO0emMGGAR3_zscpnx72Y,切麦や 甚六 新宿御苑,160-0022,東京都新宿区新宿１丁目１７−１ LAND・DEN1F,FALSE,35.6891585,139.7118617
50701373-F8FD-1137-9438-20AC0AE5BE39,ChIJP0ncf0-JGGARuVGs16pMwdo,谷や,103-0013,東京都中央区日本橋人形町２丁目１５−１７,FALSE,35.6846278,139.7857071
5EB9F99F-42D6-B706-9466-1574FDC7E7B6,ChIJ05l63oOLGGARMgd2-6qAWPI,焼肉とかすうどん 龍の巣 銀座七丁目 G7,104-0061,東京都中央区銀座７丁目２−８ 東建ビル 1F コリドー街 焼肉,FALSE,35.670688,139.7603862
76251EDC-1BBD-6BFF-80EC-DF2F81E72343,ChIJDdYoQO-LGGAR6pQ8fTaV67I,銀座 佐藤養助,104-0061,東京都中央区銀座６丁目４−１７ 銀座出井ビル 1階,FALSE,35.6714522,139.7615542
333D895E-2331-F6DC-AFD8-96D83B378AA3,ChIJS_BTadGMGGAR1rOdofKaH-g,創作うどん 一滴八銭屋,160-0023,東京都新宿区西新宿１丁目１５−９ Kcビル ２階,FALSE,35.6890402,139.6971651
599EA76F-9C60-E6E2-FD56-EC139E062317,ChIJY7PUWNeMGGARFOFbCSg0tCY,㈱三国一 東口店,160-0022,東京都新宿区新宿３丁目２４−８ モアセンタービル,FALSE,35.6929362,139.7012039
8368C5BC-7D0B-5329-596E-1F313DFAF87A,ChIJubHyMNaMGGARFRSq4A7C3Uo,東京麺通団,160-0023,東京都新宿区西新宿７丁目９−１５ ダイカンプラザビジネス清田ビル １階,FALSE,35.6947874,139.6981912
7292FE7A-2109-CD97-A5CB-7A699A8DC230,ChIJM9opkyaNGGARhWlExovr7nk,うどん屋 ギビツミ,160-0023,東京都新宿区西新宿７丁目１９−２１,FALSE,35.6947958,139.6962919
BFC09974-5D71-6D70-AE8E-D8CD6DB4BB49,ChIJeWIC_IH1GGAR9mN3LVhA2m0,松ト麦,154-0003,東京都世田谷区野沢２丁目２６−５ 野沢ビル B1F,FALSE,35.633808,139.6670849
F6BE935A-C819-9C1A-65D5-FA924EC31048,ChIJyZAT2BCMGGAR3ORQ8u1l4Cs,うどん 丸香,101-0052,東京都千代田区神田小川町３丁目１６−１ ニュー駿河台ビル 1F,FALSE,35.6966988,139.7601228
6CC0043C-87DF-58A9-1769-E7BDA53C2682,ChIJP5RFDwzPBGARbs9obNh1iGM,麦そば専門店 麦の上,441-0106,愛知県豊川市美園３丁目１３−２,FALSE,34.8059818,137.3490679
2CDF1903-A33F-365E-60B5-3A0D6343B052,ChIJCUkytXkeGWARO4op2piy4C4,本格手打うどん あらた,192-0071,東京都八王子市八日町１０−１,FALSE,35.6602209,139.3335338
6CB5D678-AEE1-8A5E-B56A-7ECD16EDE81C,ChIJaaCRCHYeGWARDIlmK9j522o,讃岐うどん いそや,192-0063,東京都八王子市元横山町２丁目１−１４ 中島ビル 103,FALSE,35.6613452,139.3397258
599D0CC3-7949-57A6-7E4B-D842827283D7,ChIJAQCl79GMGGARZheneHqgIUs,うどん 慎（しん）,151-0053,東京都渋谷区代々木２丁目２０−１６ 相馬ビル １F,FALSE,35.686489,139.697001
AF8F4E97-2BCC-E218-C5FE-DA542A90F01B,ChIJ2Xt1_NcdGWAR-EnACbahVZ8,武蔵野うどん たまや,192-0085,東京都八王子市中町１１−４,FALSE,35.6579054,139.3344337
7C2A556C-816E-2D25-5D65-9535429AAC41,ChIJx8yXfsn1GGARIfqR8GcqB-A,讃岐こんぴら つるつるうどん,213-0013,神奈川県川崎市高津区末長４丁目２５−３ 鈴木ビル,FALSE,35.5886264,139.6271089
022E7DFA-2E90-C91D-C6A5-35D45572D1BD,ChIJXxpaqcIdGWAReSbD9Q8_a64,うどん ふたばや,192-0904,東京都八王子市子安町１丁目４４−５,FALSE,35.6530556,139.3447222
AF6E5B27-1C49-429C-A61C-9FB69F5F00D4,ChIJAQCwUAfiGGARYJkiJzIv-Ow,丸亀製麺八王子高倉,192-0033,東京都八王子市高倉町５４−３,FALSE,35.6655838,139.3664574
